{"type": "FeatureCollection", "name": "zone_active", "crs": {"type": "name", "properties": {"name": "urn:ogc:def:crs:OGC:1.3:CRS84"}}, "features": [{"type": "Feature", "properties": {"nb_detections_cluster": 408, "frp_max": 111.79, "frp_moyen": 23.13, "derniere_detection": "2026-07-23T02:47:00", "fetch_timestamp": "2026-07-23T02:47:00"}, "geometry": {"type": "Polygon", "coordinates": [[[-1.134998731143357, 44.818945027100895], [-1.13499730638641, 44.818635790900636], [-1.135038474259678, 44.818327944385814], [-1.135121837605918, 44.81802445223875], [-1.135246592941439, 44.81772823715905], [-1.135411538219033, 44.817442151720144], [-1.135615084426829, 44.81716895090276], [-1.135855270910503, 44.81691126556983], [-1.136129784270559, 44.81667157713797], [-1.136435980652079, 44.81645219368897], [-1.13677091121193, 44.81625522775139], [-1.13713135051789, 44.8160825759654], [-1.137513827606259, 44.81593590082678], [-1.137914659398985, 44.81581661468515], [-1.138329986158915, 44.81572586615047], [-1.138755808642257, 44.815664529038195], [-1.13918802659121, 44.81563319395952], [-1.139622478196875, 44.81563216263714], [-1.140054980153393, 44.815661445001574], [-1.14048136791854, 44.81572075909551], [-1.140897535794117, 44.815809533787466], [-1.141299476441122, 44.81592691426831], [-1.141683319450137, 44.81607177027825], [-1.14204536859632, 44.81624270698499], [-1.142382137420959, 44.816438078408616], [-1.142690382797509, 44.816656003264306], [-1.14296713615924, 44.81689438307058], [-1.14320973208796, 44.81715092234907], [-1.143415833988537, 44.81742315072161], [-1.1435834566017, 44.8177084466923], [-1.143710985137987, 44.818004062885834], [-1.143797190847942, 44.818307152499195], [-1.143841242877939, 44.818614796712524], [-1.143842716296554, 44.81892403279511], [-1.14380159621326, 44.819231882636146], [-1.143718277948759, 44.8195353814255], [-1.143593563254277, 44.8198316062083], [-1.143428652615206, 44.82011770403822], [-1.143225133712281, 44.82039091945836], [-1.142984966150514, 44.820648621044604], [-1.142710462602244, 44.820888326755785], [-1.142404266545325, 44.82110772784599], [-1.142069326810419, 44.82130471110879], [-1.141708869182337, 44.82147737923818], [-1.14132636532889, 44.82162406911032], [-1.140925499356696, 44.82174336780939], [-1.140510132316408, 44.821834126242834], [-1.140084264999764, 44.821895470214834], [-1.13965199938749, 44.82192680885056], [-1.139217499120156, 44.82192784029062], [-1.138784949373664, 44.82189855459996], [-1.138358516526778, 44.82183923386375], [-1.137942308010163, 44.82175044946871], [-1.137540332724634, 44.82163305659685], [-1.137156462410747, 44.82148818598414], [-1.136794394342659, 44.82131723302407], [-1.136457615706234, 44.82112184432115], [-1.136149370005082, 44.820903901824224], [-1.135872625818408, 44.82066550469275], [-1.13563004821181, 44.82040894907087], [-1.135423973076311, 44.82013670596482], [-1.135256384642615, 44.819851397436665], [-1.135128896386689, 44.81955577134436], [-1.135042735510032, 44.81925267487127], [-1.134998731143357, 44.818945027100895]]]}}]}