{"type": "FeatureCollection", "name": "zone_brulee", "crs": {"type": "name", "properties": {"name": "urn:ogc:def:crs:OGC:1.3:CRS84"}}, "features": [{"type": "Feature", "properties": {"commune": "Porge", "firedate": "2026-07-22T11:55:00", "lastupdate": "2026-07-23T07:45:17.536087", "surface_ha": 18299.0, "fetch_timestamp": "2026-07-25T11:11:44.637537"}, "geometry": {"type": "Polygon", "coordinates": [[[-1.169159184163516, 44.87645398870905], [-1.169526702654176, 44.87732796193157], [-1.168015007926294, 44.87866963216441], [-1.164623934145187, 44.88047891975914], [-1.158333156817237, 44.88226551340279], [-1.149142425883798, 44.884028893083325], [-1.141767472644309, 44.886653216870855], [-1.136208211902982, 44.890138867533416], [-1.129399746895603, 44.897148603729974], [-1.121340492872318, 44.90768216236095], [-1.115940572563172, 44.914706905376], [-1.113201826856313, 44.918223259088776], [-1.109269380639856, 44.92164452832737], [-1.104143037655742, 44.92497058275981], [-1.100264462035827, 44.92827450027033], [-1.097633873973576, 44.93155641573504], [-1.091059557838935, 44.935869707871774], [-1.080540293369468, 44.94121364672887], [-1.07157742261176, 44.9441676689416], [-1.064172281604813, 44.944732162999614], [-1.058586275591458, 44.94460278983115], [-1.05481958948498, 44.943779837780355], [-1.049650986455201, 44.94299432215608], [-1.04308052316513, 44.9422460333796], [-1.038328932841442, 44.941193457925415], [-1.035396182748108, 44.939836844444315], [-1.032420192771619, 44.938262426291224], [-1.029401003804565, 44.93647019820521], [-1.025364363704912, 44.93428540430919], [-1.020310487293108, 44.931707920217484], [-1.016802166775525, 44.92863328556984], [-1.014839244553651, 44.92506165645593], [-1.013040743363474, 44.921528194249], [-1.011406627076252, 44.91803290847382], [-1.009388566792023, 44.914967243908016], [-1.006986571339404, 44.912331180791305], [-1.005329632206446, 44.90950517472511], [-1.004417655380168, 44.90648926206189], [-1.004227941614683, 44.9035637361652], [-1.004760374649728, 44.90072860392635], [-1.005789930567338, 44.89776359950367], [-1.007316526172159, 44.89466870908048], [-1.007985401274852, 44.89285336262444], [-1.007796669473582, 44.89231757912977], [-1.007867455815848, 44.89118248639424], [-1.008197746710473, 44.88944808275596], [-1.008974307927319, 44.887644685561895], [-1.010197094605553, 44.885772285502284], [-1.01182791771803, 44.88363880823248], [-1.013866712114772, 44.881244234779686], [-1.016313401863249, 44.87858854146073], [-1.01916790025474, 44.87567169988426], [-1.021623299536526, 44.87316238540346], [-1.023679699299816, 44.871060626296334], [-1.024700056116328, 44.87000224048976], [-1.024684477462678, 44.86998725850139], [-1.024712611574067, 44.86858525695698], [-1.024784465879779, 44.86579623161565], [-1.026882427014815, 44.86256997381177], [-1.031006109283969, 44.858906366173464], [-1.033872272009992, 44.854430228265585], [-1.035481112106261, 44.849141652217604], [-1.036255344565072, 44.8451654271209], [-1.036195166618681, 44.84250157838629], [-1.036016692953019, 44.83884893909174], [-1.035719980000595, 44.834207499905766], [-1.035312649473948, 44.830189723769436], [-1.034794695110583, 44.82679561474926], [-1.034887896500719, 44.82411547097336], [-1.035592156927242, 44.8221492968141], [-1.037073058083427, 44.82015630481792], [-1.039330516577839, 44.81813646345736], [-1.043218426929924, 44.81566523326314], [-1.048736493812904, 44.812742435326776], [-1.057516704362165, 44.8077477507607], [-1.069557312710949, 44.80068036863262], [-1.078094580228686, 44.794874954757844], [-1.0831300906253, 44.79033235346909], [-1.089202748226399, 44.78629075384314], [-1.096312485270997, 44.78274997986767], [-1.10343108244561, 44.780431714128014], [-1.110558985624455, 44.779335951327184], [-1.116734836067457, 44.779343038094545], [-1.12195899132109, 44.780453136466235], [-1.128221127813313, 44.782842815090426], [-1.135521834639181, 44.78651186768412], [-1.141944156527669, 44.7901709039977], [-1.147487911582757, 44.79382009070557], [-1.150292481645716, 44.795636822045914], [-1.150357294537887, 44.79562133859582], [-1.15140473967042, 44.79533033382495], [-1.153434787983627, 44.7947637784966], [-1.155486212380533, 44.79415129717795], [-1.157559007356753, 44.79349288866025], [-1.160072860242065, 44.79289604092199], [-1.163027766236133, 44.79236072216595], [-1.165016073435806, 44.79203814412898], [-1.166037818547139, 44.79192836160485], [-1.166930988027728, 44.789993422036396], [-1.167695531357869, 44.78623332238127], [-1.168558521748304, 44.78285487966897], [-1.169519950537735, 44.77985809433823], [-1.17139951700255, 44.77715206878011], [-1.174197114183692, 44.7747367571265], [-1.177355474869333, 44.77333976628975], [-1.180874735945205, 44.77296106349418], [-1.184514440822741, 44.77318136055265], [-1.188274708922394, 44.77400064201467], [-1.191565574309956, 44.77523138990935], [-1.19438708016498, 44.77687364682302], [-1.196103674666384, 44.77763463847058], [-1.196715225288297, 44.77751442377815], [-1.201666673561881, 44.777621265130385], [-1.210958128824253, 44.77795454029858], [-1.217470250586892, 44.77907966554538], [-1.221203133038464, 44.78099715909641], [-1.223525722822552, 44.78190460196348], [-1.224437816116065, 44.78180209487965], [-1.226041652177778, 44.78197556899055], [-1.228337262688049, 44.78242499152252], [-1.230239198680274, 44.783047700691526], [-1.231747464549144, 44.783843717775234], [-1.232862057766715, 44.78481305966444], [-1.233582968880563, 44.78595573886324], [-1.2341840277903, 44.787111373841704], [-1.2346652275201, 44.78827996679439], [-1.235026560944587, 44.7894615195043], [-1.235268020788784, 44.79065603334298], [-1.235175472101787, 44.791864865253835], [-1.234748893354358, 44.79308801476534], [-1.233988262630739, 44.79432547819579], [-1.232893557628769, 44.79557724865284], [-1.231888533703597, 44.79666673292586], [-1.230973203527295, 44.79759393371746], [-1.230147578400625, 44.79835885347205], [-1.229411668252454, 44.79896149437615], [-1.228428795714019, 44.799515921854436], [-1.227198956088186, 44.80002212906296], [-1.226491475228581, 44.800297228743126], [-1.226306368735631, 44.800341231354984], [-1.225985506096623, 44.80097071366569], [-1.225528875198044, 44.80218567390239], [-1.224124173645068, 44.8037844623147], [-1.221771297036055, 44.805767041422286], [-1.217550244082215, 44.808124044661284], [-1.211460709208954, 44.81085524927035], [-1.206269861719713, 44.81204777772838], [-1.201978169103361, 44.811701758549205], [-1.197766244999283, 44.81228446361473], [-1.193633885635159, 44.81379590577053], [-1.188852091970481, 44.81567210414449], [-1.18342071338979, 44.81791297095849], [-1.178550167558938, 44.82004962222924], [-1.174240541238213, 44.82208213536549], [-1.170491915366489, 44.82401057880977], [-1.167304365063891, 44.82583501203507], [-1.164035209283555, 44.827711678768026], [-1.160684431612529, 44.82964057146676], [-1.158891167649712, 44.83067314436603], [-1.158655580365718, 44.83080947648172], [-1.162479471417299, 44.83399154988244], [-1.17036423926178, 44.84021886746517], [-1.175983117788091, 44.84660198993021], [-1.179335371083346, 44.85314129771586], [-1.180498313910528, 44.858135345937946], [-1.179471209214763, 44.86158423956185], [-1.178465958079612, 44.86514204072829], [-1.177482561358039, 44.86880874924902], [-1.175152090164085, 44.87200807998881], [-1.171474365267085, 44.874739949399846], [-1.169470389402567, 44.876083627815014], [-1.169140416246922, 44.87603921040876], [-1.169159184163516, 44.87645398870905]], [[-1.105494926989109, 44.802281416360984], [-1.105513382185464, 44.802373770404685], [-1.105528778267, 44.802432389172274], [-1.105541115183139, 44.80245727267034], [-1.105570717588577, 44.80246721061726], [-1.105617585468405, 44.802462202998974], [-1.10568171878188, 44.80244224979279], [-1.10576311746249, 44.80240735096755], [-1.105881882999574, 44.80233832759165], [-1.10603801505868, 44.802235179539124], [-1.106231513178126, 44.80209790664407], [-1.10646237676901, 44.80192650870055], [-1.106661048841653, 44.80175986008675], [-1.106827529721341, 44.80159796098192], [-1.106961819718291, 44.8014408115357], [-1.107063919127671, 44.80128841186809], [-1.107154169140828, 44.80114120855813], [-1.107232569869961, 44.800999201635825], [-1.107299121421042, 44.800862391127346], [-1.107353823893759, 44.80073077705477], [-1.10740337486229, 44.80060102353016], [-1.107447774365483, 44.80047313056058], [-1.107487022441184, 44.80034709815224], [-1.107521119126273, 44.800222926310795], [-1.107543358978017, 44.80011312242919], [-1.107553742072451, 44.800017686516746], [-1.107552268468908, 44.79993661857865], [-1.107538938210001, 44.79986991861596], [-1.107510402628429, 44.79981925458217], [-1.107466661736041, 44.799784626466256], [-1.107407715520535, 44.799766034250446], [-1.107333563945464, 44.799763477910325], [-1.107270483844852, 44.79976104844101], [-1.107218475216045, 44.79975874586269], [-1.107177538056661, 44.799756570192], [-1.107147672364643, 44.799754521442104], [-1.107098979882907, 44.79978723676496], [-1.10703146049644, 44.79985471613412], [-1.106945114028561, 44.799956959511725], [-1.10683994024093, 44.80009396684843], [-1.106760009685833, 44.800219105928875], [-1.106705322571024, 44.80033237680996], [-1.106675879073868, 44.80043377953062], [-1.106671679341291, 44.80052331411171], [-1.106605953016542, 44.80059977205106], [-1.106478699891717, 44.80066315323858], [-1.106289919850437, 44.800713457452666], [-1.106039612867844, 44.80075068436033], [-1.105827663580702, 44.800795602862834], [-1.105654071987158, 44.800848213193916], [-1.105518838118984, 44.800908515544045], [-1.105421962041576, 44.80097651006044], [-1.105348014890344, 44.8010302638789], [-1.105296996780661, 44.80106977704758], [-1.105268907794878, 44.80109504959954], [-1.105263747982326, 44.80110608155318], [-1.105269626233895, 44.80115392653125], [-1.105286542601186, 44.80123858452715], [-1.105314497188419, 44.80136005552675], [-1.105353490152448, 44.801518339508476], [-1.105388878220025, 44.801677008645854], [-1.105420661361521, 44.80183606294303], [-1.105448839547171, 44.80199550240376], [-1.105473412747088, 44.802155327031564], [-1.105494926989109, 44.802281416360984]]]}}]}