{
"type": "FeatureCollection",
"name": "zone_active_points",
"crs": { "type": "name", "properties": { "name": "urn:ogc:def:crs:OGC:1.3:CRS84" } },
"features": [
{ "type": "Feature", "properties": { "lat": 44.78714, "lon": -1.13437, "frp": 51.45, "fetch_timestamp": "2026-07-25T01:49:00" }, "geometry": { "type": "Point", "coordinates": [ -1.13437, 44.78714 ] } },
{ "type": "Feature", "properties": { "lat": 44.81438, "lon": -1.19315, "frp": 0.87, "fetch_timestamp": "2026-07-25T01:49:00" }, "geometry": { "type": "Point", "coordinates": [ -1.19315, 44.81438 ] } },
{ "type": "Feature", "properties": { "lat": 44.81911, "lon": -1.17856, "frp": 0.63, "fetch_timestamp": "2026-07-25T01:49:00" }, "geometry": { "type": "Point", "coordinates": [ -1.17856, 44.81911 ] } },
{ "type": "Feature", "properties": { "lat": 44.82476, "lon": -1.11154, "frp": 5.27, "fetch_timestamp": "2026-07-25T01:49:00" }, "geometry": { "type": "Point", "coordinates": [ -1.11154, 44.82476 ] } },
{ "type": "Feature", "properties": { "lat": 44.83667, "lon": -1.13208, "frp": 3.01, "fetch_timestamp": "2026-07-25T01:49:00" }, "geometry": { "type": "Point", "coordinates": [ -1.13208, 44.83667 ] } },
{ "type": "Feature", "properties": { "lat": 44.84374, "lon": -1.11026, "frp": 3.68, "fetch_timestamp": "2026-07-25T01:49:00" }, "geometry": { "type": "Point", "coordinates": [ -1.11026, 44.84374 ] } },
{ "type": "Feature", "properties": { "lat": 44.86154, "lon": -1.12212, "frp": 131.99, "fetch_timestamp": "2026-07-25T01:49:00" }, "geometry": { "type": "Point", "coordinates": [ -1.12212, 44.86154 ] } },
{ "type": "Feature", "properties": { "lat": 44.78231, "lon": -1.22092, "frp": 14.17, "fetch_timestamp": "2026-07-25T01:49:00" }, "geometry": { "type": "Point", "coordinates": [ -1.22092, 44.78231 ] } },
{ "type": "Feature", "properties": { "lat": 44.78431, "lon": -1.2134, "frp": 11.93, "fetch_timestamp": "2026-07-25T01:49:00" }, "geometry": { "type": "Point", "coordinates": [ -1.2134, 44.78431 ] } },
{ "type": "Feature", "properties": { "lat": 44.78498, "lon": -1.23095, "frp": 11.6, "fetch_timestamp": "2026-07-25T01:49:00" }, "geometry": { "type": "Point", "coordinates": [ -1.23095, 44.78498 ] } },
{ "type": "Feature", "properties": { "lat": 44.78556, "lon": -1.18868, "frp": 19.69, "fetch_timestamp": "2026-07-25T01:49:00" }, "geometry": { "type": "Point", "coordinates": [ -1.18868, 44.78556 ] } },
{ "type": "Feature", "properties": { "lat": 44.78826, "lon": -1.19856, "frp": 19.69, "fetch_timestamp": "2026-07-25T01:49:00" }, "geometry": { "type": "Point", "coordinates": [ -1.19856, 44.78826 ] } },
{ "type": "Feature", "properties": { "lat": 44.79024, "lon": -1.19113, "frp": 19.69, "fetch_timestamp": "2026-07-25T01:49:00" }, "geometry": { "type": "Point", "coordinates": [ -1.19113, 44.79024 ] } },
{ "type": "Feature", "properties": { "lat": 44.79123, "lon": -1.10745, "frp": 48.94, "fetch_timestamp": "2026-07-25T01:49:00" }, "geometry": { "type": "Point", "coordinates": [ -1.10745, 44.79123 ] } },
{ "type": "Feature", "properties": { "lat": 44.7922, "lon": -1.18372, "frp": 32.85, "fetch_timestamp": "2026-07-25T01:49:00" }, "geometry": { "type": "Point", "coordinates": [ -1.18372, 44.7922 ] } },
{ "type": "Feature", "properties": { "lat": 44.79393, "lon": -1.11724, "frp": 11.74, "fetch_timestamp": "2026-07-25T01:49:00" }, "geometry": { "type": "Point", "coordinates": [ -1.11724, 44.79393 ] } },
{ "type": "Feature", "properties": { "lat": 44.79833, "lon": -1.22083, "frp": 15.42, "fetch_timestamp": "2026-07-25T01:49:00" }, "geometry": { "type": "Point", "coordinates": [ -1.22083, 44.79833 ] } },
{ "type": "Feature", "properties": { "lat": 44.8023, "lon": -1.20584, "frp": 37.62, "fetch_timestamp": "2026-07-25T01:49:00" }, "geometry": { "type": "Point", "coordinates": [ -1.20584, 44.8023 ] } },
{ "type": "Feature", "properties": { "lat": 44.80445, "lon": -1.09759, "frp": 12.78, "fetch_timestamp": "2026-07-25T01:49:00" }, "geometry": { "type": "Point", "coordinates": [ -1.09759, 44.80445 ] } },
{ "type": "Feature", "properties": { "lat": 44.805, "lon": -1.21578, "frp": 15.42, "fetch_timestamp": "2026-07-25T01:49:00" }, "geometry": { "type": "Point", "coordinates": [ -1.21578, 44.805 ] } },
{ "type": "Feature", "properties": { "lat": 44.8082, "lon": -1.18358, "frp": 24.96, "fetch_timestamp": "2026-07-25T01:49:00" }, "geometry": { "type": "Point", "coordinates": [ -1.18358, 44.8082 ] } },
{ "type": "Feature", "properties": { "lat": 44.81404, "lon": -1.16148, "frp": 25.59, "fetch_timestamp": "2026-07-25T01:49:00" }, "geometry": { "type": "Point", "coordinates": [ -1.16148, 44.81404 ] } },
{ "type": "Feature", "properties": { "lat": 44.81677, "lon": -1.17129, "frp": 25.32, "fetch_timestamp": "2026-07-25T01:49:00" }, "geometry": { "type": "Point", "coordinates": [ -1.17129, 44.81677 ] } },
{ "type": "Feature", "properties": { "lat": 44.81865, "lon": -1.17324, "frp": 12.48, "fetch_timestamp": "2026-07-25T01:49:00" }, "geometry": { "type": "Point", "coordinates": [ -1.17324, 44.81865 ] } },
{ "type": "Feature", "properties": { "lat": 44.8196, "lon": -1.08037, "frp": 43.53, "fetch_timestamp": "2026-07-25T01:49:00" }, "geometry": { "type": "Point", "coordinates": [ -1.08037, 44.8196 ] } },
{ "type": "Feature", "properties": { "lat": 44.82859, "lon": -1.13645, "frp": 48.73, "fetch_timestamp": "2026-07-25T01:49:00" }, "geometry": { "type": "Point", "coordinates": [ -1.13645, 44.82859 ] } },
{ "type": "Feature", "properties": { "lat": 44.83389, "lon": -1.14664, "frp": 37.14, "fetch_timestamp": "2026-07-25T01:49:00" }, "geometry": { "type": "Point", "coordinates": [ -1.14664, 44.83389 ] } },
{ "type": "Feature", "properties": { "lat": 44.83789, "lon": -1.14135, "frp": 174.89, "fetch_timestamp": "2026-07-25T01:49:00" }, "geometry": { "type": "Point", "coordinates": [ -1.14135, 44.83789 ] } },
{ "type": "Feature", "properties": { "lat": 44.83934, "lon": -1.06566, "frp": 9.96, "fetch_timestamp": "2026-07-25T01:49:00" }, "geometry": { "type": "Point", "coordinates": [ -1.06566, 44.83934 ] } },
{ "type": "Feature", "properties": { "lat": 44.84048, "lon": -1.04127, "frp": 24.83, "fetch_timestamp": "2026-07-25T01:49:00" }, "geometry": { "type": "Point", "coordinates": [ -1.04127, 44.84048 ] } },
{ "type": "Feature", "properties": { "lat": 44.8432, "lon": -1.05102, "frp": 21.98, "fetch_timestamp": "2026-07-25T01:49:00" }, "geometry": { "type": "Point", "coordinates": [ -1.05102, 44.8432 ] } },
{ "type": "Feature", "properties": { "lat": 44.85729, "lon": -1.16803, "frp": 45.6, "fetch_timestamp": "2026-07-25T01:49:00" }, "geometry": { "type": "Point", "coordinates": [ -1.16803, 44.85729 ] } },
{ "type": "Feature", "properties": { "lat": 44.85978, "lon": -1.11916, "frp": 42.22, "fetch_timestamp": "2026-07-25T01:49:00" }, "geometry": { "type": "Point", "coordinates": [ -1.11916, 44.85978 ] } },
{ "type": "Feature", "properties": { "lat": 44.87054, "lon": -1.15823, "frp": 248.22, "fetch_timestamp": "2026-07-25T01:49:00" }, "geometry": { "type": "Point", "coordinates": [ -1.15823, 44.87054 ] } },
{ "type": "Feature", "properties": { "lat": 44.8764, "lon": -1.13631, "frp": 62.07, "fetch_timestamp": "2026-07-25T01:49:00" }, "geometry": { "type": "Point", "coordinates": [ -1.13631, 44.8764 ] } },
{ "type": "Feature", "properties": { "lat": 44.87693, "lon": -1.09469, "frp": 46.99, "fetch_timestamp": "2026-07-25T01:49:00" }, "geometry": { "type": "Point", "coordinates": [ -1.09469, 44.87693 ] } },
{ "type": "Feature", "properties": { "lat": 44.87961, "lon": -1.10445, "frp": 38.28, "fetch_timestamp": "2026-07-25T01:49:00" }, "geometry": { "type": "Point", "coordinates": [ -1.10445, 44.87961 ] } },
{ "type": "Feature", "properties": { "lat": 44.88084, "lon": -1.08007, "frp": 35.83, "fetch_timestamp": "2026-07-25T01:49:00" }, "geometry": { "type": "Point", "coordinates": [ -1.08007, 44.88084 ] } },
{ "type": "Feature", "properties": { "lat": 44.88443, "lon": -1.00734, "frp": 9.25, "fetch_timestamp": "2026-07-25T01:49:00" }, "geometry": { "type": "Point", "coordinates": [ -1.00734, 44.88443 ] } },
{ "type": "Feature", "properties": { "lat": 44.88625, "lon": -1.00729, "frp": 8.29, "fetch_timestamp": "2026-07-25T01:49:00" }, "geometry": { "type": "Point", "coordinates": [ -1.00729, 44.88625 ] } },
{ "type": "Feature", "properties": { "lat": 44.88889, "lon": -1.10934, "frp": 231.5, "fetch_timestamp": "2026-07-25T01:49:00" }, "geometry": { "type": "Point", "coordinates": [ -1.10934, 44.88889 ] } },
{ "type": "Feature", "properties": { "lat": 44.89011, "lon": -1.08494, "frp": 61.23, "fetch_timestamp": "2026-07-25T01:49:00" }, "geometry": { "type": "Point", "coordinates": [ -1.08494, 44.89011 ] } },
{ "type": "Feature", "properties": { "lat": 44.89277, "lon": -1.00244, "frp": 16.31, "fetch_timestamp": "2026-07-25T01:49:00" }, "geometry": { "type": "Point", "coordinates": [ -1.00244, 44.89277 ] } },
{ "type": "Feature", "properties": { "lat": 44.89938, "lon": -1.08984, "frp": 135.35, "fetch_timestamp": "2026-07-25T01:49:00" }, "geometry": { "type": "Point", "coordinates": [ -1.08984, 44.89938 ] } },
{ "type": "Feature", "properties": { "lat": 44.90206, "lon": -1.0996, "frp": 394.96, "fetch_timestamp": "2026-07-25T01:49:00" }, "geometry": { "type": "Point", "coordinates": [ -1.0996, 44.90206 ] } },
{ "type": "Feature", "properties": { "lat": 44.90252, "lon": -1.05817, "frp": 48.24, "fetch_timestamp": "2026-07-25T01:49:00" }, "geometry": { "type": "Point", "coordinates": [ -1.05817, 44.90252 ] } },
{ "type": "Feature", "properties": { "lat": 44.90596, "lon": -1.08495, "frp": 335.72, "fetch_timestamp": "2026-07-25T01:49:00" }, "geometry": { "type": "Point", "coordinates": [ -1.08495, 44.90596 ] } },
{ "type": "Feature", "properties": { "lat": 44.90744, "lon": -1.11919, "frp": 248.79, "fetch_timestamp": "2026-07-25T01:49:00" }, "geometry": { "type": "Point", "coordinates": [ -1.11919, 44.90744 ] } },
{ "type": "Feature", "properties": { "lat": 44.9079, "lon": -1.07765, "frp": 335.72, "fetch_timestamp": "2026-07-25T01:49:00" }, "geometry": { "type": "Point", "coordinates": [ -1.07765, 44.9079 ] } },
{ "type": "Feature", "properties": { "lat": 44.911, "lon": -1.04611, "frp": 52.56, "fetch_timestamp": "2026-07-25T01:49:00" }, "geometry": { "type": "Point", "coordinates": [ -1.04611, 44.911 ] } },
{ "type": "Feature", "properties": { "lat": 44.91208, "lon": -1.12162, "frp": 248.79, "fetch_timestamp": "2026-07-25T01:49:00" }, "geometry": { "type": "Point", "coordinates": [ -1.12162, 44.91208 ] } },
{ "type": "Feature", "properties": { "lat": 44.91402, "lon": -1.11429, "frp": 248.79, "fetch_timestamp": "2026-07-25T01:49:00" }, "geometry": { "type": "Point", "coordinates": [ -1.11429, 44.91402 ] } },
{ "type": "Feature", "properties": { "lat": 44.91597, "lon": -1.10695, "frp": 597.37, "fetch_timestamp": "2026-07-25T01:49:00" }, "geometry": { "type": "Point", "coordinates": [ -1.10695, 44.91597 ] } },
{ "type": "Feature", "properties": { "lat": 44.77989, "lon": -1.22489, "frp": 10.56, "fetch_timestamp": "2026-07-25T01:49:00" }, "geometry": { "type": "Point", "coordinates": [ -1.22489, 44.77989 ] } },
{ "type": "Feature", "properties": { "lat": 44.78374, "lon": -1.11324, "frp": 142.8, "fetch_timestamp": "2026-07-25T01:49:00" }, "geometry": { "type": "Point", "coordinates": [ -1.11324, 44.78374 ] } },
{ "type": "Feature", "properties": { "lat": 44.7841, "lon": -1.10259, "frp": 220.76, "fetch_timestamp": "2026-07-25T01:49:00" }, "geometry": { "type": "Point", "coordinates": [ -1.10259, 44.7841 ] } },
{ "type": "Feature", "properties": { "lat": 44.78447, "lon": -1.09188, "frp": 11.54, "fetch_timestamp": "2026-07-25T01:49:00" }, "geometry": { "type": "Point", "coordinates": [ -1.09188, 44.78447 ] } },
{ "type": "Feature", "properties": { "lat": 44.7894, "lon": -1.11358, "frp": 50.33, "fetch_timestamp": "2026-07-25T01:49:00" }, "geometry": { "type": "Point", "coordinates": [ -1.11358, 44.7894 ] } },
{ "type": "Feature", "properties": { "lat": 44.79031, "lon": -1.08689, "frp": 7.34, "fetch_timestamp": "2026-07-25T01:49:00" }, "geometry": { "type": "Point", "coordinates": [ -1.08689, 44.79031 ] } },
{ "type": "Feature", "properties": { "lat": 44.79302, "lon": -1.17255, "frp": 38.46, "fetch_timestamp": "2026-07-25T01:49:00" }, "geometry": { "type": "Point", "coordinates": [ -1.17255, 44.79302 ] } },
{ "type": "Feature", "properties": { "lat": 44.79488, "lon": -1.11928, "frp": 50.33, "fetch_timestamp": "2026-07-25T01:49:00" }, "geometry": { "type": "Point", "coordinates": [ -1.11928, 44.79488 ] } },
{ "type": "Feature", "properties": { "lat": 44.80713, "lon": -1.09323, "frp": 37.06, "fetch_timestamp": "2026-07-25T01:49:00" }, "geometry": { "type": "Point", "coordinates": [ -1.09323, 44.80713 ] } },
{ "type": "Feature", "properties": { "lat": 44.80769, "lon": -1.07718, "frp": 23.24, "fetch_timestamp": "2026-07-25T01:49:00" }, "geometry": { "type": "Point", "coordinates": [ -1.07718, 44.80769 ] } },
{ "type": "Feature", "properties": { "lat": 44.80787, "lon": -1.07185, "frp": 23.24, "fetch_timestamp": "2026-07-25T01:49:00" }, "geometry": { "type": "Point", "coordinates": [ -1.07185, 44.80787 ] } },
{ "type": "Feature", "properties": { "lat": 44.80824, "lon": -1.06111, "frp": 3.0, "fetch_timestamp": "2026-07-25T01:49:00" }, "geometry": { "type": "Point", "coordinates": [ -1.06111, 44.80824 ] } },
{ "type": "Feature", "properties": { "lat": 44.81392, "lon": -1.06143, "frp": 178.18, "fetch_timestamp": "2026-07-25T01:49:00" }, "geometry": { "type": "Point", "coordinates": [ -1.06143, 44.81392 ] } },
{ "type": "Feature", "properties": { "lat": 44.81411, "lon": -1.05606, "frp": 67.49, "fetch_timestamp": "2026-07-25T01:49:00" }, "geometry": { "type": "Point", "coordinates": [ -1.05606, 44.81411 ] } },
{ "type": "Feature", "properties": { "lat": 44.81429, "lon": -1.05068, "frp": 67.49, "fetch_timestamp": "2026-07-25T01:49:00" }, "geometry": { "type": "Point", "coordinates": [ -1.05068, 44.81429 ] } },
{ "type": "Feature", "properties": { "lat": 44.81448, "lon": -1.04531, "frp": 5.96, "fetch_timestamp": "2026-07-25T01:49:00" }, "geometry": { "type": "Point", "coordinates": [ -1.04531, 44.81448 ] } },
{ "type": "Feature", "properties": { "lat": 44.81978, "lon": -1.05638, "frp": 67.49, "fetch_timestamp": "2026-07-25T01:49:00" }, "geometry": { "type": "Point", "coordinates": [ -1.05638, 44.81978 ] } },
{ "type": "Feature", "properties": { "lat": 44.82016, "lon": -1.04562, "frp": 5.96, "fetch_timestamp": "2026-07-25T01:49:00" }, "geometry": { "type": "Point", "coordinates": [ -1.04562, 44.82016 ] } },
{ "type": "Feature", "properties": { "lat": 44.82035, "lon": -1.04024, "frp": 5.96, "fetch_timestamp": "2026-07-25T01:49:00" }, "geometry": { "type": "Point", "coordinates": [ -1.04024, 44.82035 ] } },
{ "type": "Feature", "properties": { "lat": 44.82053, "lon": -1.03486, "frp": 8.82, "fetch_timestamp": "2026-07-25T01:49:00" }, "geometry": { "type": "Point", "coordinates": [ -1.03486, 44.82053 ] } },
{ "type": "Feature", "properties": { "lat": 44.82565, "lon": -1.05132, "frp": 164.56, "fetch_timestamp": "2026-07-25T01:49:00" }, "geometry": { "type": "Point", "coordinates": [ -1.05132, 44.82565 ] } },
{ "type": "Feature", "properties": { "lat": 44.82584, "lon": -1.04594, "frp": 11.0, "fetch_timestamp": "2026-07-25T01:49:00" }, "geometry": { "type": "Point", "coordinates": [ -1.04594, 44.82584 ] } },
{ "type": "Feature", "properties": { "lat": 44.82603, "lon": -1.04056, "frp": 11.0, "fetch_timestamp": "2026-07-25T01:49:00" }, "geometry": { "type": "Point", "coordinates": [ -1.04056, 44.82603 ] } },
{ "type": "Feature", "properties": { "lat": 44.82622, "lon": -1.03517, "frp": 3.97, "fetch_timestamp": "2026-07-25T01:49:00" }, "geometry": { "type": "Point", "coordinates": [ -1.03517, 44.82622 ] } },
{ "type": "Feature", "properties": { "lat": 44.82641, "lon": -1.02978, "frp": 3.97, "fetch_timestamp": "2026-07-25T01:49:00" }, "geometry": { "type": "Point", "coordinates": [ -1.02978, 44.82641 ] } },
{ "type": "Feature", "properties": { "lat": 44.82797, "lon": -1.04369, "frp": 13.77, "fetch_timestamp": "2026-07-25T01:49:00" }, "geometry": { "type": "Point", "coordinates": [ -1.04369, 44.82797 ] } },
{ "type": "Feature", "properties": { "lat": 44.82813, "lon": -1.03832, "frp": 13.77, "fetch_timestamp": "2026-07-25T01:49:00" }, "geometry": { "type": "Point", "coordinates": [ -1.03832, 44.82813 ] } },
{ "type": "Feature", "properties": { "lat": 44.8283, "lon": -1.03292, "frp": 5.01, "fetch_timestamp": "2026-07-25T01:49:00" }, "geometry": { "type": "Point", "coordinates": [ -1.03292, 44.8283 ] } },
{ "type": "Feature", "properties": { "lat": 44.82846, "lon": -1.02752, "frp": 5.01, "fetch_timestamp": "2026-07-25T01:49:00" }, "geometry": { "type": "Point", "coordinates": [ -1.02752, 44.82846 ] } },
{ "type": "Feature", "properties": { "lat": 44.83086, "lon": -1.13517, "frp": 20.44, "fetch_timestamp": "2026-07-25T01:49:00" }, "geometry": { "type": "Point", "coordinates": [ -1.13517, 44.83086 ] } },
{ "type": "Feature", "properties": { "lat": 44.83152, "lon": -1.04622, "frp": 11.0, "fetch_timestamp": "2026-07-25T01:49:00" }, "geometry": { "type": "Point", "coordinates": [ -1.04622, 44.83152 ] } },
{ "type": "Feature", "properties": { "lat": 44.83171, "lon": -1.04086, "frp": 11.0, "fetch_timestamp": "2026-07-25T01:49:00" }, "geometry": { "type": "Point", "coordinates": [ -1.04086, 44.83171 ] } },
{ "type": "Feature", "properties": { "lat": 44.8319, "lon": -1.03549, "frp": 3.97, "fetch_timestamp": "2026-07-25T01:49:00" }, "geometry": { "type": "Point", "coordinates": [ -1.03549, 44.8319 ] } },
{ "type": "Feature", "properties": { "lat": 44.83209, "lon": -1.0301, "frp": 3.97, "fetch_timestamp": "2026-07-25T01:49:00" }, "geometry": { "type": "Point", "coordinates": [ -1.0301, 44.83209 ] } },
{ "type": "Feature", "properties": { "lat": 44.83366, "lon": -1.044, "frp": 13.77, "fetch_timestamp": "2026-07-25T01:49:00" }, "geometry": { "type": "Point", "coordinates": [ -1.044, 44.83366 ] } },
{ "type": "Feature", "properties": { "lat": 44.83382, "lon": -1.03864, "frp": 13.77, "fetch_timestamp": "2026-07-25T01:49:00" }, "geometry": { "type": "Point", "coordinates": [ -1.03864, 44.83382 ] } },
{ "type": "Feature", "properties": { "lat": 44.83398, "lon": -1.03326, "frp": 5.01, "fetch_timestamp": "2026-07-25T01:49:00" }, "geometry": { "type": "Point", "coordinates": [ -1.03326, 44.83398 ] } },
{ "type": "Feature", "properties": { "lat": 44.8372, "lon": -1.04652, "frp": 56.88, "fetch_timestamp": "2026-07-25T01:49:00" }, "geometry": { "type": "Point", "coordinates": [ -1.04652, 44.8372 ] } },
{ "type": "Feature", "properties": { "lat": 44.83758, "lon": -1.03579, "frp": 9.55, "fetch_timestamp": "2026-07-25T01:49:00" }, "geometry": { "type": "Point", "coordinates": [ -1.03579, 44.83758 ] } },
{ "type": "Feature", "properties": { "lat": 44.83956, "lon": -1.13786, "frp": 22.95, "fetch_timestamp": "2026-07-25T01:49:00" }, "geometry": { "type": "Point", "coordinates": [ -1.13786, 44.83956 ] } },
{ "type": "Feature", "properties": { "lat": 44.84799, "lon": -1.1309, "frp": 34.68, "fetch_timestamp": "2026-07-25T01:49:00" }, "geometry": { "type": "Point", "coordinates": [ -1.1309, 44.84799 ] } },
{ "type": "Feature", "properties": { "lat": 44.84816, "lon": -1.12556, "frp": 34.68, "fetch_timestamp": "2026-07-25T01:49:00" }, "geometry": { "type": "Point", "coordinates": [ -1.12556, 44.84816 ] } },
{ "type": "Feature", "properties": { "lat": 44.84834, "lon": -1.12024, "frp": 92.52, "fetch_timestamp": "2026-07-25T01:49:00" }, "geometry": { "type": "Point", "coordinates": [ -1.12024, 44.84834 ] } },
{ "type": "Feature", "properties": { "lat": 44.8485, "lon": -1.11489, "frp": 92.52, "fetch_timestamp": "2026-07-25T01:49:00" }, "geometry": { "type": "Point", "coordinates": [ -1.11489, 44.8485 ] } },
{ "type": "Feature", "properties": { "lat": 44.84895, "lon": -1.03639, "frp": 17.69, "fetch_timestamp": "2026-07-25T01:49:00" }, "geometry": { "type": "Point", "coordinates": [ -1.03639, 44.84895 ] } },
{ "type": "Feature", "properties": { "lat": 44.85006, "lon": -1.16004, "frp": 4.38, "fetch_timestamp": "2026-07-25T01:49:00" }, "geometry": { "type": "Point", "coordinates": [ -1.16004, 44.85006 ] } },
{ "type": "Feature", "properties": { "lat": 44.85107, "lon": -1.13324, "frp": 43.26, "fetch_timestamp": "2026-07-25T01:49:00" }, "geometry": { "type": "Point", "coordinates": [ -1.13324, 44.85107 ] } },
{ "type": "Feature", "properties": { "lat": 44.85127, "lon": -1.1279, "frp": 43.26, "fetch_timestamp": "2026-07-25T01:49:00" }, "geometry": { "type": "Point", "coordinates": [ -1.1279, 44.85127 ] } },
{ "type": "Feature", "properties": { "lat": 44.85146, "lon": -1.12257, "frp": 175.76, "fetch_timestamp": "2026-07-25T01:49:00" }, "geometry": { "type": "Point", "coordinates": [ -1.12257, 44.85146 ] } },
{ "type": "Feature", "properties": { "lat": 44.85186, "lon": -1.11187, "frp": 103.31, "fetch_timestamp": "2026-07-25T01:49:00" }, "geometry": { "type": "Point", "coordinates": [ -1.11187, 44.85186 ] } },
{ "type": "Feature", "properties": { "lat": 44.85226, "lon": -1.10117, "frp": 54.61, "fetch_timestamp": "2026-07-25T01:49:00" }, "geometry": { "type": "Point", "coordinates": [ -1.10117, 44.85226 ] } },
{ "type": "Feature", "properties": { "lat": 44.85246, "lon": -1.09583, "frp": 54.61, "fetch_timestamp": "2026-07-25T01:49:00" }, "geometry": { "type": "Point", "coordinates": [ -1.09583, 44.85246 ] } },
{ "type": "Feature", "properties": { "lat": 44.85261, "lon": -1.1634, "frp": 32.95, "fetch_timestamp": "2026-07-25T01:49:00" }, "geometry": { "type": "Point", "coordinates": [ -1.1634, 44.85261 ] } },
{ "type": "Feature", "properties": { "lat": 44.85266, "lon": -1.09046, "frp": 6.28, "fetch_timestamp": "2026-07-25T01:49:00" }, "geometry": { "type": "Point", "coordinates": [ -1.09046, 44.85266 ] } },
{ "type": "Feature", "properties": { "lat": 44.85286, "lon": -1.0851, "frp": 6.28, "fetch_timestamp": "2026-07-25T01:49:00" }, "geometry": { "type": "Point", "coordinates": [ -1.0851, 44.85286 ] } },
{ "type": "Feature", "properties": { "lat": 44.85305, "lon": -1.07974, "frp": 6.53, "fetch_timestamp": "2026-07-25T01:49:00" }, "geometry": { "type": "Point", "coordinates": [ -1.07974, 44.85305 ] } },
{ "type": "Feature", "properties": { "lat": 44.85365, "lon": -1.13126, "frp": 34.68, "fetch_timestamp": "2026-07-25T01:49:00" }, "geometry": { "type": "Point", "coordinates": [ -1.13126, 44.85365 ] } },
{ "type": "Feature", "properties": { "lat": 44.85416, "lon": -1.11521, "frp": 92.52, "fetch_timestamp": "2026-07-25T01:49:00" }, "geometry": { "type": "Point", "coordinates": [ -1.11521, 44.85416 ] } },
{ "type": "Feature", "properties": { "lat": 44.85468, "lon": -1.09914, "frp": 71.39, "fetch_timestamp": "2026-07-25T01:49:00" }, "geometry": { "type": "Point", "coordinates": [ -1.09914, 44.85468 ] } },
{ "type": "Feature", "properties": { "lat": 44.85485, "lon": -1.09379, "frp": 71.39, "fetch_timestamp": "2026-07-25T01:49:00" }, "geometry": { "type": "Point", "coordinates": [ -1.09379, 44.85485 ] } },
{ "type": "Feature", "properties": { "lat": 44.85502, "lon": -1.0884, "frp": 9.95, "fetch_timestamp": "2026-07-25T01:49:00" }, "geometry": { "type": "Point", "coordinates": [ -1.0884, 44.85502 ] } },
{ "type": "Feature", "properties": { "lat": 44.85519, "lon": -1.08302, "frp": 9.95, "fetch_timestamp": "2026-07-25T01:49:00" }, "geometry": { "type": "Point", "coordinates": [ -1.08302, 44.85519 ] } },
{ "type": "Feature", "properties": { "lat": 44.85965, "lon": -1.12091, "frp": 120.04, "fetch_timestamp": "2026-07-25T01:49:00" }, "geometry": { "type": "Point", "coordinates": [ -1.12091, 44.85965 ] } },
{ "type": "Feature", "properties": { "lat": 44.86069, "lon": -1.08877, "frp": 18.34, "fetch_timestamp": "2026-07-25T01:49:00" }, "geometry": { "type": "Point", "coordinates": [ -1.08877, 44.86069 ] } },
{ "type": "Feature", "properties": { "lat": 44.86086, "lon": -1.08339, "frp": 18.34, "fetch_timestamp": "2026-07-25T01:49:00" }, "geometry": { "type": "Point", "coordinates": [ -1.08339, 44.86086 ] } },
{ "type": "Feature", "properties": { "lat": 44.86373, "lon": -1.1695, "frp": 11.0, "fetch_timestamp": "2026-07-25T01:49:00" }, "geometry": { "type": "Point", "coordinates": [ -1.1695, 44.86373 ] } },
{ "type": "Feature", "properties": { "lat": 44.87133, "lon": -1.11088, "frp": 92.11, "fetch_timestamp": "2026-07-25T01:49:00" }, "geometry": { "type": "Point", "coordinates": [ -1.11088, 44.87133 ] } },
{ "type": "Feature", "properties": { "lat": 44.87503, "lon": -1.17009, "frp": 12.33, "fetch_timestamp": "2026-07-25T01:49:00" }, "geometry": { "type": "Point", "coordinates": [ -1.17009, 44.87503 ] } },
{ "type": "Feature", "properties": { "lat": 44.88832, "lon": -1.11182, "frp": 29.68, "fetch_timestamp": "2026-07-25T01:49:00" }, "geometry": { "type": "Point", "coordinates": [ -1.11182, 44.88832 ] } },
{ "type": "Feature", "properties": { "lat": 44.89363, "lon": -1.12277, "frp": 13.78, "fetch_timestamp": "2026-07-25T01:49:00" }, "geometry": { "type": "Point", "coordinates": [ -1.12277, 44.89363 ] } },
{ "type": "Feature", "properties": { "lat": 44.89742, "lon": -1.00963, "frp": 71.32, "fetch_timestamp": "2026-07-25T01:49:00" }, "geometry": { "type": "Point", "coordinates": [ -1.00963, 44.89742 ] } },
{ "type": "Feature", "properties": { "lat": 44.90166, "lon": -1.05324, "frp": 9.79, "fetch_timestamp": "2026-07-25T01:49:00" }, "geometry": { "type": "Point", "coordinates": [ -1.05324, 44.90166 ] } },
{ "type": "Feature", "properties": { "lat": 44.90257, "lon": -1.0262, "frp": 30.61, "fetch_timestamp": "2026-07-25T01:49:00" }, "geometry": { "type": "Point", "coordinates": [ -1.0262, 44.90257 ] } },
{ "type": "Feature", "properties": { "lat": 44.90274, "lon": -1.0208, "frp": 30.61, "fetch_timestamp": "2026-07-25T01:49:00" }, "geometry": { "type": "Point", "coordinates": [ -1.0208, 44.90274 ] } },
{ "type": "Feature", "properties": { "lat": 44.90329, "lon": -1.00451, "frp": 41.67, "fetch_timestamp": "2026-07-25T01:49:00" }, "geometry": { "type": "Point", "coordinates": [ -1.00451, 44.90329 ] } },
{ "type": "Feature", "properties": { "lat": 44.90881, "lon": -1.01027, "frp": 46.23, "fetch_timestamp": "2026-07-25T01:49:00" }, "geometry": { "type": "Point", "coordinates": [ -1.01027, 44.90881 ] } },
{ "type": "Feature", "properties": { "lat": 44.9108, "lon": -1.11837, "frp": 30.24, "fetch_timestamp": "2026-07-25T01:49:00" }, "geometry": { "type": "Point", "coordinates": [ -1.11837, 44.9108 ] } },
{ "type": "Feature", "properties": { "lat": 44.92836, "lon": -1.10325, "frp": 16.44, "fetch_timestamp": "2026-07-25T01:49:00" }, "geometry": { "type": "Point", "coordinates": [ -1.10325, 44.92836 ] } },
{ "type": "Feature", "properties": { "lat": 44.82153, "lon": -1.10568, "frp": 3.2, "fetch_timestamp": "2026-07-25T01:49:00" }, "geometry": { "type": "Point", "coordinates": [ -1.10568, 44.82153 ] } },
{ "type": "Feature", "properties": { "lat": 44.82484, "lon": -1.10472, "frp": 2.12, "fetch_timestamp": "2026-07-25T01:49:00" }, "geometry": { "type": "Point", "coordinates": [ -1.10472, 44.82484 ] } },
{ "type": "Feature", "properties": { "lat": 44.83076, "lon": -1.09789, "frp": 3.23, "fetch_timestamp": "2026-07-25T01:49:00" }, "geometry": { "type": "Point", "coordinates": [ -1.09789, 44.83076 ] } },
{ "type": "Feature", "properties": { "lat": 44.83148, "lon": -1.10281, "frp": 4.34, "fetch_timestamp": "2026-07-25T01:49:00" }, "geometry": { "type": "Point", "coordinates": [ -1.10281, 44.83148 ] } },
{ "type": "Feature", "properties": { "lat": 44.86434, "lon": -1.06768, "frp": 2.92, "fetch_timestamp": "2026-07-25T01:49:00" }, "geometry": { "type": "Point", "coordinates": [ -1.06768, 44.86434 ] } },
{ "type": "Feature", "properties": { "lat": 44.78633, "lon": -1.11822, "frp": 12.8, "fetch_timestamp": "2026-07-25T01:49:00" }, "geometry": { "type": "Point", "coordinates": [ -1.11822, 44.78633 ] } },
{ "type": "Feature", "properties": { "lat": 44.78822, "lon": -1.1158, "frp": 16.15, "fetch_timestamp": "2026-07-25T01:49:00" }, "geometry": { "type": "Point", "coordinates": [ -1.1158, 44.78822 ] } },
{ "type": "Feature", "properties": { "lat": 44.78996, "lon": -1.12904, "frp": 14.15, "fetch_timestamp": "2026-07-25T01:49:00" }, "geometry": { "type": "Point", "coordinates": [ -1.12904, 44.78996 ] } },
{ "type": "Feature", "properties": { "lat": 44.81174, "lon": -1.08893, "frp": 27.02, "fetch_timestamp": "2026-07-25T01:49:00" }, "geometry": { "type": "Point", "coordinates": [ -1.08893, 44.81174 ] } },
{ "type": "Feature", "properties": { "lat": 44.81425, "lon": -1.07746, "frp": 23.51, "fetch_timestamp": "2026-07-25T01:49:00" }, "geometry": { "type": "Point", "coordinates": [ -1.07746, 44.81425 ] } },
{ "type": "Feature", "properties": { "lat": 44.81637, "lon": -1.07517, "frp": 37.47, "fetch_timestamp": "2026-07-25T01:49:00" }, "geometry": { "type": "Point", "coordinates": [ -1.07517, 44.81637 ] } },
{ "type": "Feature", "properties": { "lat": 44.82473, "lon": -1.06752, "frp": 32.63, "fetch_timestamp": "2026-07-25T01:49:00" }, "geometry": { "type": "Point", "coordinates": [ -1.06752, 44.82473 ] } },
{ "type": "Feature", "properties": { "lat": 44.82701, "lon": -1.06059, "frp": 33.67, "fetch_timestamp": "2026-07-25T01:49:00" }, "geometry": { "type": "Point", "coordinates": [ -1.06059, 44.82701 ] } },
{ "type": "Feature", "properties": { "lat": 44.82979, "lon": -1.14287, "frp": 12.6, "fetch_timestamp": "2026-07-25T01:49:00" }, "geometry": { "type": "Point", "coordinates": [ -1.14287, 44.82979 ] } },
{ "type": "Feature", "properties": { "lat": 44.83442, "lon": -1.12905, "frp": 22.75, "fetch_timestamp": "2026-07-25T01:49:00" }, "geometry": { "type": "Point", "coordinates": [ -1.12905, 44.83442 ] } },
{ "type": "Feature", "properties": { "lat": 44.83743, "lon": -1.05545, "frp": 54.35, "fetch_timestamp": "2026-07-25T01:49:00" }, "geometry": { "type": "Point", "coordinates": [ -1.05545, 44.83743 ] } },
{ "type": "Feature", "properties": { "lat": 44.83943, "lon": -1.1573, "frp": 87.18, "fetch_timestamp": "2026-07-25T01:49:00" }, "geometry": { "type": "Point", "coordinates": [ -1.1573, 44.83943 ] } },
{ "type": "Feature", "properties": { "lat": 44.84167, "lon": -1.15059, "frp": 87.18, "fetch_timestamp": "2026-07-25T01:49:00" }, "geometry": { "type": "Point", "coordinates": [ -1.15059, 44.84167 ] } },
{ "type": "Feature", "properties": { "lat": 44.84399, "lon": -1.14368, "frp": 139.69, "fetch_timestamp": "2026-07-25T01:49:00" }, "geometry": { "type": "Point", "coordinates": [ -1.14368, 44.84399 ] } },
{ "type": "Feature", "properties": { "lat": 44.85022, "lon": -1.03875, "frp": 13.59, "fetch_timestamp": "2026-07-25T01:49:00" }, "geometry": { "type": "Point", "coordinates": [ -1.03875, 44.85022 ] } },
{ "type": "Feature", "properties": { "lat": 44.85454, "lon": -1.13372, "frp": 25.73, "fetch_timestamp": "2026-07-25T01:49:00" }, "geometry": { "type": "Point", "coordinates": [ -1.13372, 44.85454 ] } },
{ "type": "Feature", "properties": { "lat": 44.85685, "lon": -1.1268, "frp": 25.73, "fetch_timestamp": "2026-07-25T01:49:00" }, "geometry": { "type": "Point", "coordinates": [ -1.1268, 44.85685 ] } },
{ "type": "Feature", "properties": { "lat": 44.85955, "lon": -1.16205, "frp": 166.21, "fetch_timestamp": "2026-07-25T01:49:00" }, "geometry": { "type": "Point", "coordinates": [ -1.16205, 44.85955 ] } },
{ "type": "Feature", "properties": { "lat": 44.86145, "lon": -1.11301, "frp": 24.11, "fetch_timestamp": "2026-07-25T01:49:00" }, "geometry": { "type": "Point", "coordinates": [ -1.11301, 44.86145 ] } },
{ "type": "Feature", "properties": { "lat": 44.86162, "lon": -1.1567, "frp": 176.56, "fetch_timestamp": "2026-07-25T01:49:00" }, "geometry": { "type": "Point", "coordinates": [ -1.1567, 44.86162 ] } },
{ "type": "Feature", "properties": { "lat": 44.8618, "lon": -1.15529, "frp": 144.7, "fetch_timestamp": "2026-07-25T01:49:00" }, "geometry": { "type": "Point", "coordinates": [ -1.15529, 44.8618 ] } },
{ "type": "Feature", "properties": { "lat": 44.86243, "lon": -1.08848, "frp": 12.68, "fetch_timestamp": "2026-07-25T01:49:00" }, "geometry": { "type": "Point", "coordinates": [ -1.08848, 44.86243 ] } },
{ "type": "Feature", "properties": { "lat": 44.863, "lon": -1.17401, "frp": 74.8, "fetch_timestamp": "2026-07-25T01:49:00" }, "geometry": { "type": "Point", "coordinates": [ -1.17401, 44.863 ] } },
{ "type": "Feature", "properties": { "lat": 44.86394, "lon": -1.14986, "frp": 114.64, "fetch_timestamp": "2026-07-25T01:49:00" }, "geometry": { "type": "Point", "coordinates": [ -1.14986, 44.86394 ] } },
{ "type": "Feature", "properties": { "lat": 44.86409, "lon": -1.14841, "frp": 144.7, "fetch_timestamp": "2026-07-25T01:49:00" }, "geometry": { "type": "Point", "coordinates": [ -1.14841, 44.86409 ] } },
{ "type": "Feature", "properties": { "lat": 44.86605, "lon": -1.09922, "frp": 44.28, "fetch_timestamp": "2026-07-25T01:49:00" }, "geometry": { "type": "Point", "coordinates": [ -1.09922, 44.86605 ] } },
{ "type": "Feature", "properties": { "lat": 44.86627, "lon": -1.14299, "frp": 114.64, "fetch_timestamp": "2026-07-25T01:49:00" }, "geometry": { "type": "Point", "coordinates": [ -1.14299, 44.86627 ] } },
{ "type": "Feature", "properties": { "lat": 44.86737, "lon": -1.11691, "frp": 24.11, "fetch_timestamp": "2026-07-25T01:49:00" }, "geometry": { "type": "Point", "coordinates": [ -1.11691, 44.86737 ] } },
{ "type": "Feature", "properties": { "lat": 44.86967, "lon": -1.10999, "frp": 44.28, "fetch_timestamp": "2026-07-25T01:49:00" }, "geometry": { "type": "Point", "coordinates": [ -1.10999, 44.86967 ] } },
{ "type": "Feature", "properties": { "lat": 44.87092, "lon": -1.12928, "frp": 21.6, "fetch_timestamp": "2026-07-25T01:49:00" }, "geometry": { "type": "Point", "coordinates": [ -1.12928, 44.87092 ] } },
{ "type": "Feature", "properties": { "lat": 44.87097, "lon": -1.12774, "frp": 15.86, "fetch_timestamp": "2026-07-25T01:49:00" }, "geometry": { "type": "Point", "coordinates": [ -1.12774, 44.87097 ] } },
{ "type": "Feature", "properties": { "lat": 44.87123, "lon": -1.17111, "frp": 19.96, "fetch_timestamp": "2026-07-25T01:49:00" }, "geometry": { "type": "Point", "coordinates": [ -1.17111, 44.87123 ] } },
{ "type": "Feature", "properties": { "lat": 44.87142, "lon": -1.16979, "frp": 34.51, "fetch_timestamp": "2026-07-25T01:49:00" }, "geometry": { "type": "Point", "coordinates": [ -1.16979, 44.87142 ] } },
{ "type": "Feature", "properties": { "lat": 44.87223, "lon": -1.14678, "frp": 114.64, "fetch_timestamp": "2026-07-25T01:49:00" }, "geometry": { "type": "Point", "coordinates": [ -1.14678, 44.87223 ] } },
{ "type": "Feature", "properties": { "lat": 44.87233, "lon": -1.14534, "frp": 92.67, "fetch_timestamp": "2026-07-25T01:49:00" }, "geometry": { "type": "Point", "coordinates": [ -1.14534, 44.87233 ] } },
{ "type": "Feature", "properties": { "lat": 44.87355, "lon": -1.16428, "frp": 19.96, "fetch_timestamp": "2026-07-25T01:49:00" }, "geometry": { "type": "Point", "coordinates": [ -1.16428, 44.87355 ] } },
{ "type": "Feature", "properties": { "lat": 44.8737, "lon": -1.16293, "frp": 32.15, "fetch_timestamp": "2026-07-25T01:49:00" }, "geometry": { "type": "Point", "coordinates": [ -1.16293, 44.8737 ] } },
{ "type": "Feature", "properties": { "lat": 44.87585, "lon": -1.15746, "frp": 40.12, "fetch_timestamp": "2026-07-25T01:49:00" }, "geometry": { "type": "Point", "coordinates": [ -1.15746, 44.87585 ] } },
{ "type": "Feature", "properties": { "lat": 44.87598, "lon": -1.15609, "frp": 32.15, "fetch_timestamp": "2026-07-25T01:49:00" }, "geometry": { "type": "Point", "coordinates": [ -1.15609, 44.87598 ] } },
{ "type": "Feature", "properties": { "lat": 44.87916, "lon": -1.12629, "frp": 21.59, "fetch_timestamp": "2026-07-25T01:49:00" }, "geometry": { "type": "Point", "coordinates": [ -1.12629, 44.87916 ] } },
{ "type": "Feature", "properties": { "lat": 44.87918, "lon": -1.12475, "frp": 15.86, "fetch_timestamp": "2026-07-25T01:49:00" }, "geometry": { "type": "Point", "coordinates": [ -1.12475, 44.87918 ] } },
{ "type": "Feature", "properties": { "lat": 44.88276, "lon": -1.13703, "frp": 45.97, "fetch_timestamp": "2026-07-25T01:49:00" }, "geometry": { "type": "Point", "coordinates": [ -1.13703, 44.88276 ] } },
{ "type": "Feature", "properties": { "lat": 44.88279, "lon": -1.13558, "frp": 134.06, "fetch_timestamp": "2026-07-25T01:49:00" }, "geometry": { "type": "Point", "coordinates": [ -1.13558, 44.88279 ] } },
{ "type": "Feature", "properties": { "lat": 44.88508, "lon": -1.13018, "frp": 59.96, "fetch_timestamp": "2026-07-25T01:49:00" }, "geometry": { "type": "Point", "coordinates": [ -1.13018, 44.88508 ] } },
{ "type": "Feature", "properties": { "lat": 44.8874, "lon": -1.12172, "frp": 71.66, "fetch_timestamp": "2026-07-25T01:49:00" }, "geometry": { "type": "Point", "coordinates": [ -1.12172, 44.8874 ] } },
{ "type": "Feature", "properties": { "lat": 44.88742, "lon": -1.12326, "frp": 59.96, "fetch_timestamp": "2026-07-25T01:49:00" }, "geometry": { "type": "Point", "coordinates": [ -1.12326, 44.88742 ] } },
{ "type": "Feature", "properties": { "lat": 44.88974, "lon": -1.1164, "frp": 163.66, "fetch_timestamp": "2026-07-25T01:49:00" }, "geometry": { "type": "Point", "coordinates": [ -1.1164, 44.88974 ] } },
{ "type": "Feature", "properties": { "lat": 44.89078, "lon": -1.09194, "frp": 37.41, "fetch_timestamp": "2026-07-25T01:49:00" }, "geometry": { "type": "Point", "coordinates": [ -1.09194, 44.89078 ] } },
{ "type": "Feature", "properties": { "lat": 44.89328, "lon": -1.12573, "frp": 71.66, "fetch_timestamp": "2026-07-25T01:49:00" }, "geometry": { "type": "Point", "coordinates": [ -1.12573, 44.89328 ] } },
{ "type": "Feature", "properties": { "lat": 44.89331, "lon": -1.12721, "frp": 59.96, "fetch_timestamp": "2026-07-25T01:49:00" }, "geometry": { "type": "Point", "coordinates": [ -1.12721, 44.89331 ] } },
{ "type": "Feature", "properties": { "lat": 44.89556, "lon": -1.11884, "frp": 71.66, "fetch_timestamp": "2026-07-25T01:49:00" }, "geometry": { "type": "Point", "coordinates": [ -1.11884, 44.89556 ] } },
{ "type": "Feature", "properties": { "lat": 44.89564, "lon": -1.12034, "frp": 163.66, "fetch_timestamp": "2026-07-25T01:49:00" }, "geometry": { "type": "Point", "coordinates": [ -1.12034, 44.89564 ] } },
{ "type": "Feature", "properties": { "lat": 44.89788, "lon": -1.00357, "frp": 18.95, "fetch_timestamp": "2026-07-25T01:49:00" }, "geometry": { "type": "Point", "coordinates": [ -1.00357, 44.89788 ] } },
{ "type": "Feature", "properties": { "lat": 44.90146, "lon": -1.12277, "frp": 20.87, "fetch_timestamp": "2026-07-25T01:49:00" }, "geometry": { "type": "Point", "coordinates": [ -1.12277, 44.90146 ] } },
{ "type": "Feature", "properties": { "lat": 44.90152, "lon": -1.01422, "frp": 18.95, "fetch_timestamp": "2026-07-25T01:49:00" }, "geometry": { "type": "Point", "coordinates": [ -1.01422, 44.90152 ] } },
{ "type": "Feature", "properties": { "lat": 44.90459, "lon": -1.05104, "frp": 10.26, "fetch_timestamp": "2026-07-25T01:49:00" }, "geometry": { "type": "Point", "coordinates": [ -1.05104, 44.90459 ] } },
{ "type": "Feature", "properties": { "lat": 44.90563, "lon": -1.06677, "frp": 86.15, "fetch_timestamp": "2026-07-25T01:49:00" }, "geometry": { "type": "Point", "coordinates": [ -1.06677, 44.90563 ] } },
{ "type": "Feature", "properties": { "lat": 44.90788, "lon": -1.05998, "frp": 86.15, "fetch_timestamp": "2026-07-25T01:49:00" }, "geometry": { "type": "Point", "coordinates": [ -1.05998, 44.90788 ] } },
{ "type": "Feature", "properties": { "lat": 44.91012, "lon": -1.05321, "frp": 18.94, "fetch_timestamp": "2026-07-25T01:49:00" }, "geometry": { "type": "Point", "coordinates": [ -1.05321, 44.91012 ] } },
{ "type": "Feature", "properties": { "lat": 44.91048, "lon": -1.05494, "frp": 62.37, "fetch_timestamp": "2026-07-25T01:49:00" }, "geometry": { "type": "Point", "coordinates": [ -1.05494, 44.91048 ] } },
{ "type": "Feature", "properties": { "lat": 44.91148, "lon": -1.07079, "frp": 86.15, "fetch_timestamp": "2026-07-25T01:49:00" }, "geometry": { "type": "Point", "coordinates": [ -1.07079, 44.91148 ] } },
{ "type": "Feature", "properties": { "lat": 44.91179, "lon": -1.07244, "frp": 175.35, "fetch_timestamp": "2026-07-25T01:49:00" }, "geometry": { "type": "Point", "coordinates": [ -1.07244, 44.91179 ] } },
{ "type": "Feature", "properties": { "lat": 44.91511, "lon": -1.08155, "frp": 285.01, "fetch_timestamp": "2026-07-25T01:49:00" }, "geometry": { "type": "Point", "coordinates": [ -1.08155, 44.91511 ] } },
{ "type": "Feature", "properties": { "lat": 44.91539, "lon": -1.08313, "frp": 204.17, "fetch_timestamp": "2026-07-25T01:49:00" }, "geometry": { "type": "Point", "coordinates": [ -1.08313, 44.91539 ] } },
{ "type": "Feature", "properties": { "lat": 44.80265, "lon": -1.21844, "frp": 10.32, "fetch_timestamp": "2026-07-25T01:49:00" }, "geometry": { "type": "Point", "coordinates": [ -1.21844, 44.80265 ] } },
{ "type": "Feature", "properties": { "lat": 44.80996, "lon": -1.0872, "frp": 78.29, "fetch_timestamp": "2026-07-25T01:49:00" }, "geometry": { "type": "Point", "coordinates": [ -1.0872, 44.80996 ] } },
{ "type": "Feature", "properties": { "lat": 44.81321, "lon": -1.19396, "frp": 12.25, "fetch_timestamp": "2026-07-25T01:49:00" }, "geometry": { "type": "Point", "coordinates": [ -1.19396, 44.81321 ] } },
{ "type": "Feature", "properties": { "lat": 44.81413, "lon": -1.18353, "frp": 7.79, "fetch_timestamp": "2026-07-25T01:49:00" }, "geometry": { "type": "Point", "coordinates": [ -1.18353, 44.81413 ] } },
{ "type": "Feature", "properties": { "lat": 44.81503, "lon": -1.07741, "frp": 171.07, "fetch_timestamp": "2026-07-25T01:49:00" }, "geometry": { "type": "Point", "coordinates": [ -1.07741, 44.81503 ] } },
{ "type": "Feature", "properties": { "lat": 44.81919, "lon": -1.17376, "frp": 8.71, "fetch_timestamp": "2026-07-25T01:49:00" }, "geometry": { "type": "Point", "coordinates": [ -1.17376, 44.81919 ] } },
{ "type": "Feature", "properties": { "lat": 44.82473, "lon": -1.1588, "frp": 7.16, "fetch_timestamp": "2026-07-25T01:49:00" }, "geometry": { "type": "Point", "coordinates": [ -1.1588, 44.82473 ] } },
{ "type": "Feature", "properties": { "lat": 44.85842, "lon": -1.11149, "frp": 129.44, "fetch_timestamp": "2026-07-25T01:49:00" }, "geometry": { "type": "Point", "coordinates": [ -1.11149, 44.85842 ] } },
{ "type": "Feature", "properties": { "lat": 44.85889, "lon": -1.10624, "frp": 129.44, "fetch_timestamp": "2026-07-25T01:49:00" }, "geometry": { "type": "Point", "coordinates": [ -1.10624, 44.85889 ] } },
{ "type": "Feature", "properties": { "lat": 44.85936, "lon": -1.10099, "frp": 92.05, "fetch_timestamp": "2026-07-25T01:49:00" }, "geometry": { "type": "Point", "coordinates": [ -1.10099, 44.85936 ] } },
{ "type": "Feature", "properties": { "lat": 44.87267, "lon": -1.1405, "frp": 27.92, "fetch_timestamp": "2026-07-25T01:49:00" }, "geometry": { "type": "Point", "coordinates": [ -1.1405, 44.87267 ] } },
{ "type": "Feature", "properties": { "lat": 44.8773, "lon": -1.13596, "frp": 23.78, "fetch_timestamp": "2026-07-25T01:49:00" }, "geometry": { "type": "Point", "coordinates": [ -1.13596, 44.8773 ] } },
{ "type": "Feature", "properties": { "lat": 44.8811, "lon": -1.09402, "frp": 24.63, "fetch_timestamp": "2026-07-25T01:49:00" }, "geometry": { "type": "Point", "coordinates": [ -1.09402, 44.8811 ] } },
{ "type": "Feature", "properties": { "lat": 44.88252, "lon": -1.07823, "frp": 18.17, "fetch_timestamp": "2026-07-25T01:49:00" }, "geometry": { "type": "Point", "coordinates": [ -1.07823, 44.88252 ] } },
{ "type": "Feature", "properties": { "lat": 44.883, "lon": -1.07297, "frp": 12.93, "fetch_timestamp": "2026-07-25T01:49:00" }, "geometry": { "type": "Point", "coordinates": [ -1.07297, 44.883 ] } },
{ "type": "Feature", "properties": { "lat": 44.88655, "lon": -1.1269, "frp": 32.3, "fetch_timestamp": "2026-07-25T01:49:00" }, "geometry": { "type": "Point", "coordinates": [ -1.1269, 44.88655 ] } },
{ "type": "Feature", "properties": { "lat": 44.88668, "lon": -1.07896, "frp": 11.15, "fetch_timestamp": "2026-07-25T01:49:00" }, "geometry": { "type": "Point", "coordinates": [ -1.07896, 44.88668 ] } },
{ "type": "Feature", "properties": { "lat": 44.88764, "lon": -1.0684, "frp": 9.17, "fetch_timestamp": "2026-07-25T01:49:00" }, "geometry": { "type": "Point", "coordinates": [ -1.0684, 44.88764 ] } },
{ "type": "Feature", "properties": { "lat": 44.89085, "lon": -1.07965, "frp": 11.15, "fetch_timestamp": "2026-07-25T01:49:00" }, "geometry": { "type": "Point", "coordinates": [ -1.07965, 44.89085 ] } },
{ "type": "Feature", "properties": { "lat": 44.89132, "lon": -1.0744, "frp": 9.17, "fetch_timestamp": "2026-07-25T01:49:00" }, "geometry": { "type": "Point", "coordinates": [ -1.0744, 44.89132 ] } },
{ "type": "Feature", "properties": { "lat": 44.8918, "lon": -1.06912, "frp": 9.17, "fetch_timestamp": "2026-07-25T01:49:00" }, "geometry": { "type": "Point", "coordinates": [ -1.06912, 44.8918 ] } },
{ "type": "Feature", "properties": { "lat": 44.89989, "lon": -1.07907, "frp": 26.5, "fetch_timestamp": "2026-07-25T01:49:00" }, "geometry": { "type": "Point", "coordinates": [ -1.07907, 44.89989 ] } },
{ "type": "Feature", "properties": { "lat": 44.92303, "lon": -1.10438, "frp": 212.72, "fetch_timestamp": "2026-07-25T01:49:00" }, "geometry": { "type": "Point", "coordinates": [ -1.10438, 44.92303 ] } },
{ "type": "Feature", "properties": { "lat": 44.92395, "lon": -1.09384, "frp": 82.65, "fetch_timestamp": "2026-07-25T01:49:00" }, "geometry": { "type": "Point", "coordinates": [ -1.09384, 44.92395 ] } },
{ "type": "Feature", "properties": { "lat": 44.92857, "lon": -1.08928, "frp": 99.01, "fetch_timestamp": "2026-07-25T01:49:00" }, "geometry": { "type": "Point", "coordinates": [ -1.08928, 44.92857 ] } },
{ "type": "Feature", "properties": { "lat": 44.77858, "lon": -1.20878, "frp": 4.2, "fetch_timestamp": "2026-07-25T01:49:00" }, "geometry": { "type": "Point", "coordinates": [ -1.20878, 44.77858 ] } },
{ "type": "Feature", "properties": { "lat": 44.77928, "lon": -1.21567, "frp": 3.9, "fetch_timestamp": "2026-07-25T01:49:00" }, "geometry": { "type": "Point", "coordinates": [ -1.21567, 44.77928 ] } },
{ "type": "Feature", "properties": { "lat": 44.77997, "lon": -1.22259, "frp": 3.9, "fetch_timestamp": "2026-07-25T01:49:00" }, "geometry": { "type": "Point", "coordinates": [ -1.22259, 44.77997 ] } },
{ "type": "Feature", "properties": { "lat": 44.78248, "lon": -1.20797, "frp": 5.92, "fetch_timestamp": "2026-07-25T01:49:00" }, "geometry": { "type": "Point", "coordinates": [ -1.20797, 44.78248 ] } },
{ "type": "Feature", "properties": { "lat": 44.78317, "lon": -1.21487, "frp": 3.0, "fetch_timestamp": "2026-07-25T01:49:00" }, "geometry": { "type": "Point", "coordinates": [ -1.21487, 44.78317 ] } },
{ "type": "Feature", "properties": { "lat": 44.78387, "lon": -1.22179, "frp": 3.0, "fetch_timestamp": "2026-07-25T01:49:00" }, "geometry": { "type": "Point", "coordinates": [ -1.22179, 44.78387 ] } },
{ "type": "Feature", "properties": { "lat": 44.78456, "lon": -1.22871, "frp": 2.18, "fetch_timestamp": "2026-07-25T01:49:00" }, "geometry": { "type": "Point", "coordinates": [ -1.22871, 44.78456 ] } },
{ "type": "Feature", "properties": { "lat": 44.80796, "lon": -1.2239, "frp": 2.7, "fetch_timestamp": "2026-07-25T01:49:00" }, "geometry": { "type": "Point", "coordinates": [ -1.2239, 44.80796 ] } },
{ "type": "Feature", "properties": { "lat": 44.86314, "lon": -0.91439, "frp": 2.93, "fetch_timestamp": "2026-07-25T01:49:00" }, "geometry": { "type": "Point", "coordinates": [ -0.91439, 44.86314 ] } },
{ "type": "Feature", "properties": { "lat": 44.86699, "lon": -0.91357, "frp": 2.84, "fetch_timestamp": "2026-07-25T01:49:00" }, "geometry": { "type": "Point", "coordinates": [ -0.91357, 44.86699 ] } },
{ "type": "Feature", "properties": { "lat": 44.87083, "lon": -0.91276, "frp": 2.84, "fetch_timestamp": "2026-07-25T01:49:00" }, "geometry": { "type": "Point", "coordinates": [ -0.91276, 44.87083 ] } },
{ "type": "Feature", "properties": { "lat": 44.87468, "lon": -0.91195, "frp": 4.06, "fetch_timestamp": "2026-07-25T01:49:00" }, "geometry": { "type": "Point", "coordinates": [ -0.91195, 44.87468 ] } },
{ "type": "Feature", "properties": { "lat": 44.87853, "lon": -0.91115, "frp": 4.06, "fetch_timestamp": "2026-07-25T01:49:00" }, "geometry": { "type": "Point", "coordinates": [ -0.91115, 44.87853 ] } },
{ "type": "Feature", "properties": { "lat": 44.87923, "lon": -0.91787, "frp": 4.06, "fetch_timestamp": "2026-07-25T01:49:00" }, "geometry": { "type": "Point", "coordinates": [ -0.91787, 44.87923 ] } },
{ "type": "Feature", "properties": { "lat": 44.88238, "lon": -0.91034, "frp": 3.27, "fetch_timestamp": "2026-07-25T01:49:00" }, "geometry": { "type": "Point", "coordinates": [ -0.91034, 44.88238 ] } },
{ "type": "Feature", "properties": { "lat": 44.88622, "lon": -0.90953, "frp": 3.27, "fetch_timestamp": "2026-07-25T01:49:00" }, "geometry": { "type": "Point", "coordinates": [ -0.90953, 44.88622 ] } },
{ "type": "Feature", "properties": { "lat": 44.89462, "lon": -0.91462, "frp": 4.08, "fetch_timestamp": "2026-07-25T01:49:00" }, "geometry": { "type": "Point", "coordinates": [ -0.91462, 44.89462 ] } },
{ "type": "Feature", "properties": { "lat": 44.89533, "lon": -0.92135, "frp": 7.09, "fetch_timestamp": "2026-07-25T01:49:00" }, "geometry": { "type": "Point", "coordinates": [ -0.92135, 44.89533 ] } },
{ "type": "Feature", "properties": { "lat": 44.89917, "lon": -0.92054, "frp": 2.5, "fetch_timestamp": "2026-07-25T01:49:00" }, "geometry": { "type": "Point", "coordinates": [ -0.92054, 44.89917 ] } }
]
}
