{
"type": "FeatureCollection",
"name": "zone_active_points",
"crs": { "type": "name", "properties": { "name": "urn:ogc:def:crs:OGC:1.3:CRS84" } },
"features": [
{ "type": "Feature", "properties": { "lat": 44.74623, "lon": -1.02193, "frp": 1.82, "fetch_timestamp": "2026-07-27T01:32:00" }, "geometry": { "type": "Point", "coordinates": [ -1.02193, 44.74623 ] } },
{ "type": "Feature", "properties": { "lat": 44.749, "lon": -0.91965, "frp": 2.0, "fetch_timestamp": "2026-07-27T01:32:00" }, "geometry": { "type": "Point", "coordinates": [ -0.91965, 44.749 ] } },
{ "type": "Feature", "properties": { "lat": 44.75051, "lon": -1.02693, "frp": 6.82, "fetch_timestamp": "2026-07-27T01:32:00" }, "geometry": { "type": "Point", "coordinates": [ -1.02693, 44.75051 ] } },
{ "type": "Feature", "properties": { "lat": 44.75531, "lon": -0.942, "frp": 14.28, "fetch_timestamp": "2026-07-27T01:32:00" }, "geometry": { "type": "Point", "coordinates": [ -0.942, 44.75531 ] } },
{ "type": "Feature", "properties": { "lat": 44.75925, "lon": -1.00688, "frp": 1.67, "fetch_timestamp": "2026-07-27T01:32:00" }, "geometry": { "type": "Point", "coordinates": [ -1.00688, 44.75925 ] } },
{ "type": "Feature", "properties": { "lat": 44.76506, "lon": -0.99351, "frp": 1.11, "fetch_timestamp": "2026-07-27T01:32:00" }, "geometry": { "type": "Point", "coordinates": [ -0.99351, 44.76506 ] } },
{ "type": "Feature", "properties": { "lat": 44.76772, "lon": -0.89139, "frp": 0.65, "fetch_timestamp": "2026-07-27T01:32:00" }, "geometry": { "type": "Point", "coordinates": [ -0.89139, 44.76772 ] } },
{ "type": "Feature", "properties": { "lat": 44.7678, "lon": -1.01685, "frp": 4.01, "fetch_timestamp": "2026-07-27T01:32:00" }, "geometry": { "type": "Point", "coordinates": [ -1.01685, 44.7678 ] } },
{ "type": "Feature", "properties": { "lat": 44.77087, "lon": -0.98015, "frp": 2.26, "fetch_timestamp": "2026-07-27T01:32:00" }, "geometry": { "type": "Point", "coordinates": [ -0.98015, 44.77087 ] } },
{ "type": "Feature", "properties": { "lat": 44.7713, "lon": -0.89054, "frp": 0.65, "fetch_timestamp": "2026-07-27T01:32:00" }, "geometry": { "type": "Point", "coordinates": [ -0.89054, 44.7713 ] } },
{ "type": "Feature", "properties": { "lat": 44.77155, "lon": -0.98598, "frp": 0.62, "fetch_timestamp": "2026-07-27T01:32:00" }, "geometry": { "type": "Point", "coordinates": [ -0.98598, 44.77155 ] } },
{ "type": "Feature", "properties": { "lat": 44.77454, "lon": -1.20257, "frp": 1.89, "fetch_timestamp": "2026-07-27T01:32:00" }, "geometry": { "type": "Point", "coordinates": [ -1.20257, 44.77454 ] } },
{ "type": "Feature", "properties": { "lat": 44.7759, "lon": -1.21442, "frp": 1.96, "fetch_timestamp": "2026-07-27T01:32:00" }, "geometry": { "type": "Point", "coordinates": [ -1.21442, 44.7759 ] } },
{ "type": "Feature", "properties": { "lat": 44.77953, "lon": -1.21358, "frp": 1.96, "fetch_timestamp": "2026-07-27T01:32:00" }, "geometry": { "type": "Point", "coordinates": [ -1.21358, 44.77953 ] } },
{ "type": "Feature", "properties": { "lat": 44.7809, "lon": -1.22549, "frp": 1.54, "fetch_timestamp": "2026-07-27T01:32:00" }, "geometry": { "type": "Point", "coordinates": [ -1.22549, 44.7809 ] } },
{ "type": "Feature", "properties": { "lat": 44.78232, "lon": -0.98343, "frp": 1.62, "fetch_timestamp": "2026-07-27T01:32:00" }, "geometry": { "type": "Point", "coordinates": [ -0.98343, 44.78232 ] } },
{ "type": "Feature", "properties": { "lat": 44.78315, "lon": -0.9593, "frp": 1.92, "fetch_timestamp": "2026-07-27T01:32:00" }, "geometry": { "type": "Point", "coordinates": [ -0.9593, 44.78315 ] } },
{ "type": "Feature", "properties": { "lat": 44.79019, "lon": -0.98757, "frp": 2.5, "fetch_timestamp": "2026-07-27T01:32:00" }, "geometry": { "type": "Point", "coordinates": [ -0.98757, 44.79019 ] } },
{ "type": "Feature", "properties": { "lat": 44.79737, "lon": -0.98588, "frp": 2.65, "fetch_timestamp": "2026-07-27T01:32:00" }, "geometry": { "type": "Point", "coordinates": [ -0.98588, 44.79737 ] } },
{ "type": "Feature", "properties": { "lat": 44.79971, "lon": -1.09972, "frp": 13.55, "fetch_timestamp": "2026-07-27T01:32:00" }, "geometry": { "type": "Point", "coordinates": [ -1.09972, 44.79971 ] } },
{ "type": "Feature", "properties": { "lat": 44.80264, "lon": -1.22044, "frp": 0.7, "fetch_timestamp": "2026-07-27T01:32:00" }, "geometry": { "type": "Point", "coordinates": [ -1.22044, 44.80264 ] } },
{ "type": "Feature", "properties": { "lat": 44.80626, "lon": -1.2196, "frp": 0.72, "fetch_timestamp": "2026-07-27T01:32:00" }, "geometry": { "type": "Point", "coordinates": [ -1.2196, 44.80626 ] } },
{ "type": "Feature", "properties": { "lat": 44.80988, "lon": -1.21875, "frp": 0.72, "fetch_timestamp": "2026-07-27T01:32:00" }, "geometry": { "type": "Point", "coordinates": [ -1.21875, 44.80988 ] } },
{ "type": "Feature", "properties": { "lat": 44.81281, "lon": -1.21194, "frp": 1.62, "fetch_timestamp": "2026-07-27T01:32:00" }, "geometry": { "type": "Point", "coordinates": [ -1.21194, 44.81281 ] } },
{ "type": "Feature", "properties": { "lat": 44.81351, "lon": -1.21792, "frp": 0.81, "fetch_timestamp": "2026-07-27T01:32:00" }, "geometry": { "type": "Point", "coordinates": [ -1.21792, 44.81351 ] } },
{ "type": "Feature", "properties": { "lat": 44.81575, "lon": -1.20518, "frp": 1.62, "fetch_timestamp": "2026-07-27T01:32:00" }, "geometry": { "type": "Point", "coordinates": [ -1.20518, 44.81575 ] } },
{ "type": "Feature", "properties": { "lat": 44.81799, "lon": -1.19246, "frp": 0.97, "fetch_timestamp": "2026-07-27T01:32:00" }, "geometry": { "type": "Point", "coordinates": [ -1.19246, 44.81799 ] } },
{ "type": "Feature", "properties": { "lat": 44.82161, "lon": -1.19162, "frp": 0.97, "fetch_timestamp": "2026-07-27T01:32:00" }, "geometry": { "type": "Point", "coordinates": [ -1.19162, 44.82161 ] } },
{ "type": "Feature", "properties": { "lat": 44.82384, "lon": -1.17898, "frp": 0.55, "fetch_timestamp": "2026-07-27T01:32:00" }, "geometry": { "type": "Point", "coordinates": [ -1.17898, 44.82384 ] } },
{ "type": "Feature", "properties": { "lat": 44.829, "lon": -1.15955, "frp": 1.46, "fetch_timestamp": "2026-07-27T01:32:00" }, "geometry": { "type": "Point", "coordinates": [ -1.15955, 44.829 ] } },
{ "type": "Feature", "properties": { "lat": 44.82969, "lon": -1.16544, "frp": 1.42, "fetch_timestamp": "2026-07-27T01:32:00" }, "geometry": { "type": "Point", "coordinates": [ -1.16544, 44.82969 ] } },
{ "type": "Feature", "properties": { "lat": 44.83625, "lon": -0.9408, "frp": 2.38, "fetch_timestamp": "2026-07-27T01:32:00" }, "geometry": { "type": "Point", "coordinates": [ -0.9408, 44.83625 ] } },
{ "type": "Feature", "properties": { "lat": 44.85101, "lon": -1.02602, "frp": 4.02, "fetch_timestamp": "2026-07-27T01:32:00" }, "geometry": { "type": "Point", "coordinates": [ -1.02602, 44.85101 ] } },
{ "type": "Feature", "properties": { "lat": 44.85943, "lon": -0.93998, "frp": 2.25, "fetch_timestamp": "2026-07-27T01:32:00" }, "geometry": { "type": "Point", "coordinates": [ -0.93998, 44.85943 ] } },
{ "type": "Feature", "properties": { "lat": 44.86097, "lon": -0.92168, "frp": 1.87, "fetch_timestamp": "2026-07-27T01:32:00" }, "geometry": { "type": "Point", "coordinates": [ -0.92168, 44.86097 ] } },
{ "type": "Feature", "properties": { "lat": 44.86644, "lon": -0.96828, "frp": 4.22, "fetch_timestamp": "2026-07-27T01:32:00" }, "geometry": { "type": "Point", "coordinates": [ -0.96828, 44.86644 ] } },
{ "type": "Feature", "properties": { "lat": 44.86707, "lon": -1.10086, "frp": 3.76, "fetch_timestamp": "2026-07-27T01:32:00" }, "geometry": { "type": "Point", "coordinates": [ -1.10086, 44.86707 ] } },
{ "type": "Feature", "properties": { "lat": 44.86866, "lon": -0.95578, "frp": 2.35, "fetch_timestamp": "2026-07-27T01:32:00" }, "geometry": { "type": "Point", "coordinates": [ -0.95578, 44.86866 ] } },
{ "type": "Feature", "properties": { "lat": 44.87592, "lon": -1.17784, "frp": 2.61, "fetch_timestamp": "2026-07-27T01:32:00" }, "geometry": { "type": "Point", "coordinates": [ -1.17784, 44.87592 ] } },
{ "type": "Feature", "properties": { "lat": 44.88041, "lon": -0.89913, "frp": 4.38, "fetch_timestamp": "2026-07-27T01:32:00" }, "geometry": { "type": "Point", "coordinates": [ -0.89913, 44.88041 ] } },
{ "type": "Feature", "properties": { "lat": 44.88248, "lon": -1.17022, "frp": 2.73, "fetch_timestamp": "2026-07-27T01:32:00" }, "geometry": { "type": "Point", "coordinates": [ -1.17022, 44.88248 ] } },
{ "type": "Feature", "properties": { "lat": 44.88302, "lon": -0.95238, "frp": 2.08, "fetch_timestamp": "2026-07-27T01:32:00" }, "geometry": { "type": "Point", "coordinates": [ -0.95238, 44.88302 ] } },
{ "type": "Feature", "properties": { "lat": 44.88356, "lon": -0.98829, "frp": 4.72, "fetch_timestamp": "2026-07-27T01:32:00" }, "geometry": { "type": "Point", "coordinates": [ -0.98829, 44.88356 ] } },
{ "type": "Feature", "properties": { "lat": 44.88494, "lon": -1.00001, "frp": 7.26, "fetch_timestamp": "2026-07-27T01:32:00" }, "geometry": { "type": "Point", "coordinates": [ -1.00001, 44.88494 ] } },
{ "type": "Feature", "properties": { "lat": 44.88619, "lon": -0.88584, "frp": 3.45, "fetch_timestamp": "2026-07-27T01:32:00" }, "geometry": { "type": "Point", "coordinates": [ -0.88584, 44.88619 ] } },
{ "type": "Feature", "properties": { "lat": 44.88649, "lon": -1.10848, "frp": 1.78, "fetch_timestamp": "2026-07-27T01:32:00" }, "geometry": { "type": "Point", "coordinates": [ -1.10848, 44.88649 ] } },
{ "type": "Feature", "properties": { "lat": 44.8901, "lon": -1.10764, "frp": 1.78, "fetch_timestamp": "2026-07-27T01:32:00" }, "geometry": { "type": "Point", "coordinates": [ -1.10764, 44.8901 ] } },
{ "type": "Feature", "properties": { "lat": 44.89241, "lon": -0.93818, "frp": 1.36, "fetch_timestamp": "2026-07-27T01:32:00" }, "geometry": { "type": "Point", "coordinates": [ -0.93818, 44.89241 ] } },
{ "type": "Feature", "properties": { "lat": 44.90236, "lon": -0.95984, "frp": 3.84, "fetch_timestamp": "2026-07-27T01:32:00" }, "geometry": { "type": "Point", "coordinates": [ -0.95984, 44.90236 ] } },
{ "type": "Feature", "properties": { "lat": 44.90317, "lon": -0.93563, "frp": 2.02, "fetch_timestamp": "2026-07-27T01:32:00" }, "geometry": { "type": "Point", "coordinates": [ -0.93563, 44.90317 ] } },
{ "type": "Feature", "properties": { "lat": 44.9245, "lon": -0.99071, "frp": 4.35, "fetch_timestamp": "2026-07-27T01:32:00" }, "geometry": { "type": "Point", "coordinates": [ -0.99071, 44.9245 ] } },
{ "type": "Feature", "properties": { "lat": 44.93169, "lon": -0.98902, "frp": 3.36, "fetch_timestamp": "2026-07-27T01:32:00" }, "geometry": { "type": "Point", "coordinates": [ -0.98902, 44.93169 ] } },
{ "type": "Feature", "properties": { "lat": 44.93344, "lon": -1.09754, "frp": 4.27, "fetch_timestamp": "2026-07-27T01:32:00" }, "geometry": { "type": "Point", "coordinates": [ -1.09754, 44.93344 ] } },
{ "type": "Feature", "properties": { "lat": 44.93414, "lon": -1.10345, "frp": 4.27, "fetch_timestamp": "2026-07-27T01:32:00" }, "geometry": { "type": "Point", "coordinates": [ -1.10345, 44.93414 ] } },
{ "type": "Feature", "properties": { "lat": 44.93636, "lon": -1.09078, "frp": 1.5, "fetch_timestamp": "2026-07-27T01:32:00" }, "geometry": { "type": "Point", "coordinates": [ -1.09078, 44.93636 ] } },
{ "type": "Feature", "properties": { "lat": 44.93706, "lon": -1.09669, "frp": 3.52, "fetch_timestamp": "2026-07-27T01:32:00" }, "geometry": { "type": "Point", "coordinates": [ -1.09669, 44.93706 ] } },
{ "type": "Feature", "properties": { "lat": 44.93748, "lon": -0.97562, "frp": 1.12, "fetch_timestamp": "2026-07-27T01:32:00" }, "geometry": { "type": "Point", "coordinates": [ -0.97562, 44.93748 ] } },
{ "type": "Feature", "properties": { "lat": 44.94439, "lon": -1.06463, "frp": 3.67, "fetch_timestamp": "2026-07-27T01:32:00" }, "geometry": { "type": "Point", "coordinates": [ -1.06463, 44.94439 ] } },
{ "type": "Feature", "properties": { "lat": 44.9473, "lon": -1.0579, "frp": 6.02, "fetch_timestamp": "2026-07-27T01:32:00" }, "geometry": { "type": "Point", "coordinates": [ -1.0579, 44.9473 ] } },
{ "type": "Feature", "properties": { "lat": 44.71883, "lon": -0.84132, "frp": 6.8, "fetch_timestamp": "2026-07-27T01:32:00" }, "geometry": { "type": "Point", "coordinates": [ -0.84132, 44.71883 ] } },
{ "type": "Feature", "properties": { "lat": 44.7247, "lon": -0.85467, "frp": 137.14, "fetch_timestamp": "2026-07-27T01:32:00" }, "geometry": { "type": "Point", "coordinates": [ -0.85467, 44.7247 ] } },
{ "type": "Feature", "properties": { "lat": 44.72989, "lon": -0.87386, "frp": 17.44, "fetch_timestamp": "2026-07-27T01:32:00" }, "geometry": { "type": "Point", "coordinates": [ -0.87386, 44.72989 ] } },
{ "type": "Feature", "properties": { "lat": 44.73146, "lon": -0.89221, "frp": 20.04, "fetch_timestamp": "2026-07-27T01:32:00" }, "geometry": { "type": "Point", "coordinates": [ -0.89221, 44.73146 ] } },
{ "type": "Feature", "properties": { "lat": 44.7335, "lon": -0.87466, "frp": 6.73, "fetch_timestamp": "2026-07-27T01:32:00" }, "geometry": { "type": "Point", "coordinates": [ -0.87466, 44.7335 ] } },
{ "type": "Feature", "properties": { "lat": 44.73507, "lon": -0.89302, "frp": 20.04, "fetch_timestamp": "2026-07-27T01:32:00" }, "geometry": { "type": "Point", "coordinates": [ -0.89302, 44.73507 ] } },
{ "type": "Feature", "properties": { "lat": 44.73534, "lon": -0.89505, "frp": 6.98, "fetch_timestamp": "2026-07-27T01:32:00" }, "geometry": { "type": "Point", "coordinates": [ -0.89505, 44.73534 ] } },
{ "type": "Feature", "properties": { "lat": 44.73574, "lon": -0.88716, "frp": 13.79, "fetch_timestamp": "2026-07-27T01:32:00" }, "geometry": { "type": "Point", "coordinates": [ -0.88716, 44.73574 ] } },
{ "type": "Feature", "properties": { "lat": 44.73577, "lon": -0.79072, "frp": 8.77, "fetch_timestamp": "2026-07-27T01:32:00" }, "geometry": { "type": "Point", "coordinates": [ -0.79072, 44.73577 ] } },
{ "type": "Feature", "properties": { "lat": 44.736, "lon": -0.88919, "frp": 6.98, "fetch_timestamp": "2026-07-27T01:32:00" }, "geometry": { "type": "Point", "coordinates": [ -0.88919, 44.736 ] } },
{ "type": "Feature", "properties": { "lat": 44.73643, "lon": -0.88131, "frp": 13.79, "fetch_timestamp": "2026-07-27T01:32:00" }, "geometry": { "type": "Point", "coordinates": [ -0.88131, 44.73643 ] } },
{ "type": "Feature", "properties": { "lat": 44.73645, "lon": -0.78481, "frp": 8.77, "fetch_timestamp": "2026-07-27T01:32:00" }, "geometry": { "type": "Point", "coordinates": [ -0.78481, 44.73645 ] } },
{ "type": "Feature", "properties": { "lat": 44.73736, "lon": -0.80922, "frp": 125.64, "fetch_timestamp": "2026-07-27T01:32:00" }, "geometry": { "type": "Point", "coordinates": [ -0.80922, 44.73736 ] } },
{ "type": "Feature", "properties": { "lat": 44.73799, "lon": -0.89967, "frp": 5.76, "fetch_timestamp": "2026-07-27T01:32:00" }, "geometry": { "type": "Point", "coordinates": [ -0.89967, 44.73799 ] } },
{ "type": "Feature", "properties": { "lat": 44.7394, "lon": -0.79152, "frp": 8.77, "fetch_timestamp": "2026-07-27T01:32:00" }, "geometry": { "type": "Point", "coordinates": [ -0.79152, 44.7394 ] } },
{ "type": "Feature", "properties": { "lat": 44.74097, "lon": -0.81002, "frp": 94.27, "fetch_timestamp": "2026-07-27T01:32:00" }, "geometry": { "type": "Point", "coordinates": [ -0.81002, 44.74097 ] } },
{ "type": "Feature", "properties": { "lat": 44.74344, "lon": -0.85279, "frp": 25.0, "fetch_timestamp": "2026-07-27T01:32:00" }, "geometry": { "type": "Point", "coordinates": [ -0.85279, 44.74344 ] } },
{ "type": "Feature", "properties": { "lat": 44.74412, "lon": -0.84691, "frp": 25.0, "fetch_timestamp": "2026-07-27T01:32:00" }, "geometry": { "type": "Point", "coordinates": [ -0.84691, 44.74412 ] } },
{ "type": "Feature", "properties": { "lat": 44.74421, "lon": -0.84889, "frp": 28.09, "fetch_timestamp": "2026-07-27T01:32:00" }, "geometry": { "type": "Point", "coordinates": [ -0.84889, 44.74421 ] } },
{ "type": "Feature", "properties": { "lat": 44.74584, "lon": -0.80094, "frp": 9.68, "fetch_timestamp": "2026-07-27T01:32:00" }, "geometry": { "type": "Point", "coordinates": [ -0.80094, 44.74584 ] } },
{ "type": "Feature", "properties": { "lat": 44.74669, "lon": -1.02302, "frp": 7.17, "fetch_timestamp": "2026-07-27T01:32:00" }, "geometry": { "type": "Point", "coordinates": [ -1.02302, 44.74669 ] } },
{ "type": "Feature", "properties": { "lat": 44.74773, "lon": -0.84771, "frp": 25.0, "fetch_timestamp": "2026-07-27T01:32:00" }, "geometry": { "type": "Point", "coordinates": [ -0.84771, 44.74773 ] } },
{ "type": "Feature", "properties": { "lat": 44.74782, "lon": -0.8497, "frp": 36.81, "fetch_timestamp": "2026-07-27T01:32:00" }, "geometry": { "type": "Point", "coordinates": [ -0.8497, 44.74782 ] } },
{ "type": "Feature", "properties": { "lat": 44.75823, "lon": -0.95408, "frp": 8.29, "fetch_timestamp": "2026-07-27T01:32:00" }, "geometry": { "type": "Point", "coordinates": [ -0.95408, 44.75823 ] } },
{ "type": "Feature", "properties": { "lat": 44.75917, "lon": -0.97818, "frp": 63.73, "fetch_timestamp": "2026-07-27T01:32:00" }, "geometry": { "type": "Point", "coordinates": [ -0.97818, 44.75917 ] } },
{ "type": "Feature", "properties": { "lat": 44.7613, "lon": -1.05603, "frp": 3.24, "fetch_timestamp": "2026-07-27T01:32:00" }, "geometry": { "type": "Point", "coordinates": [ -1.05603, 44.7613 ] } },
{ "type": "Feature", "properties": { "lat": 44.7621, "lon": -0.9848, "frp": 19.76, "fetch_timestamp": "2026-07-27T01:32:00" }, "geometry": { "type": "Point", "coordinates": [ -0.9848, 44.7621 ] } },
{ "type": "Feature", "properties": { "lat": 44.7633, "lon": -1.03868, "frp": 44.61, "fetch_timestamp": "2026-07-27T01:32:00" }, "geometry": { "type": "Point", "coordinates": [ -1.03868, 44.7633 ] } },
{ "type": "Feature", "properties": { "lat": 44.76353, "lon": -0.90735, "frp": 18.6, "fetch_timestamp": "2026-07-27T01:32:00" }, "geometry": { "type": "Point", "coordinates": [ -0.90735, 44.76353 ] } },
{ "type": "Feature", "properties": { "lat": 44.76396, "lon": -1.03289, "frp": 2.35, "fetch_timestamp": "2026-07-27T01:32:00" }, "geometry": { "type": "Point", "coordinates": [ -1.03289, 44.76396 ] } },
{ "type": "Feature", "properties": { "lat": 44.76419, "lon": -0.90149, "frp": 16.35, "fetch_timestamp": "2026-07-27T01:32:00" }, "geometry": { "type": "Point", "coordinates": [ -0.90149, 44.76419 ] } },
{ "type": "Feature", "properties": { "lat": 44.7657, "lon": -0.98562, "frp": 19.76, "fetch_timestamp": "2026-07-27T01:32:00" }, "geometry": { "type": "Point", "coordinates": [ -0.98562, 44.7657 ] } },
{ "type": "Feature", "properties": { "lat": 44.76618, "lon": -0.88393, "frp": 17.3, "fetch_timestamp": "2026-07-27T01:32:00" }, "geometry": { "type": "Point", "coordinates": [ -0.88393, 44.76618 ] } },
{ "type": "Feature", "properties": { "lat": 44.76647, "lon": -0.914, "frp": 18.6, "fetch_timestamp": "2026-07-27T01:32:00" }, "geometry": { "type": "Point", "coordinates": [ -0.914, 44.76647 ] } },
{ "type": "Feature", "properties": { "lat": 44.76713, "lon": -0.90815, "frp": 18.6, "fetch_timestamp": "2026-07-27T01:32:00" }, "geometry": { "type": "Point", "coordinates": [ -0.90815, 44.76713 ] } },
{ "type": "Feature", "properties": { "lat": 44.7678, "lon": -0.9023, "frp": 16.35, "fetch_timestamp": "2026-07-27T01:32:00" }, "geometry": { "type": "Point", "coordinates": [ -0.9023, 44.7678 ] } },
{ "type": "Feature", "properties": { "lat": 44.76912, "lon": -0.89059, "frp": 17.3, "fetch_timestamp": "2026-07-27T01:32:00" }, "geometry": { "type": "Point", "coordinates": [ -0.89059, 44.76912 ] } },
{ "type": "Feature", "properties": { "lat": 44.77262, "lon": -0.95731, "frp": 12.3, "fetch_timestamp": "2026-07-27T01:32:00" }, "geometry": { "type": "Point", "coordinates": [ -0.95731, 44.77262 ] } },
{ "type": "Feature", "properties": { "lat": 44.77355, "lon": -0.98142, "frp": 9.02, "fetch_timestamp": "2026-07-27T01:32:00" }, "geometry": { "type": "Point", "coordinates": [ -0.98142, 44.77355 ] } },
{ "type": "Feature", "properties": { "lat": 44.77622, "lon": -0.95812, "frp": 12.3, "fetch_timestamp": "2026-07-27T01:32:00" }, "geometry": { "type": "Point", "coordinates": [ -0.95812, 44.77622 ] } },
{ "type": "Feature", "properties": { "lat": 44.81731, "lon": -1.18862, "frp": 5.95, "fetch_timestamp": "2026-07-27T01:32:00" }, "geometry": { "type": "Point", "coordinates": [ -1.18862, 44.81731 ] } },
{ "type": "Feature", "properties": { "lat": 44.82023, "lon": -1.19518, "frp": 5.95, "fetch_timestamp": "2026-07-27T01:32:00" }, "geometry": { "type": "Point", "coordinates": [ -1.19518, 44.82023 ] } },
{ "type": "Feature", "properties": { "lat": 44.82088, "lon": -1.18944, "frp": 5.95, "fetch_timestamp": "2026-07-27T01:32:00" }, "geometry": { "type": "Point", "coordinates": [ -1.18944, 44.82088 ] } },
{ "type": "Feature", "properties": { "lat": 44.84021, "lon": -1.11692, "frp": 3.56, "fetch_timestamp": "2026-07-27T01:32:00" }, "geometry": { "type": "Point", "coordinates": [ -1.11692, 44.84021 ] } },
{ "type": "Feature", "properties": { "lat": 44.84101, "lon": -0.97263, "frp": 3.34, "fetch_timestamp": "2026-07-27T01:32:00" }, "geometry": { "type": "Point", "coordinates": [ -0.97263, 44.84101 ] } },
{ "type": "Feature", "properties": { "lat": 44.84399, "lon": -0.98669, "frp": 8.56, "fetch_timestamp": "2026-07-27T01:32:00" }, "geometry": { "type": "Point", "coordinates": [ -0.98669, 44.84399 ] } },
{ "type": "Feature", "properties": { "lat": 44.84829, "lon": -1.14246, "frp": 2.24, "fetch_timestamp": "2026-07-27T01:32:00" }, "geometry": { "type": "Point", "coordinates": [ -1.14246, 44.84829 ] } },
{ "type": "Feature", "properties": { "lat": 44.85287, "lon": -0.94067, "frp": 28.3, "fetch_timestamp": "2026-07-27T01:32:00" }, "geometry": { "type": "Point", "coordinates": [ -0.94067, 44.85287 ] } },
{ "type": "Feature", "properties": { "lat": 44.85345, "lon": -1.00079, "frp": 4.66, "fetch_timestamp": "2026-07-27T01:32:00" }, "geometry": { "type": "Point", "coordinates": [ -1.00079, 44.85345 ] } },
{ "type": "Feature", "properties": { "lat": 44.85353, "lon": -0.9348, "frp": 28.3, "fetch_timestamp": "2026-07-27T01:32:00" }, "geometry": { "type": "Point", "coordinates": [ -0.9348, 44.85353 ] } },
{ "type": "Feature", "properties": { "lat": 44.85382, "lon": -0.96494, "frp": 9.77, "fetch_timestamp": "2026-07-27T01:32:00" }, "geometry": { "type": "Point", "coordinates": [ -0.96494, 44.85382 ] } },
{ "type": "Feature", "properties": { "lat": 44.85389, "lon": -0.89872, "frp": 5.51, "fetch_timestamp": "2026-07-27T01:32:00" }, "geometry": { "type": "Point", "coordinates": [ -0.89872, 44.85389 ] } },
{ "type": "Feature", "properties": { "lat": 44.85515, "lon": -0.95322, "frp": 23.67, "fetch_timestamp": "2026-07-27T01:32:00" }, "geometry": { "type": "Point", "coordinates": [ -0.95322, 44.85515 ] } },
{ "type": "Feature", "properties": { "lat": 44.85648, "lon": -0.94148, "frp": 28.3, "fetch_timestamp": "2026-07-27T01:32:00" }, "geometry": { "type": "Point", "coordinates": [ -0.94148, 44.85648 ] } },
{ "type": "Feature", "properties": { "lat": 44.86111, "lon": -0.90033, "frp": 28.72, "fetch_timestamp": "2026-07-27T01:32:00" }, "geometry": { "type": "Point", "coordinates": [ -0.90033, 44.86111 ] } },
{ "type": "Feature", "properties": { "lat": 44.86634, "lon": -0.91961, "frp": 115.83, "fetch_timestamp": "2026-07-27T01:32:00" }, "geometry": { "type": "Point", "coordinates": [ -0.91961, 44.86634 ] } },
{ "type": "Feature", "properties": { "lat": 44.8664, "lon": -1.17624, "frp": 4.43, "fetch_timestamp": "2026-07-27T01:32:00" }, "geometry": { "type": "Point", "coordinates": [ -1.17624, 44.8664 ] } },
{ "type": "Feature", "properties": { "lat": 44.87184, "lon": -0.96895, "frp": 14.3, "fetch_timestamp": "2026-07-27T01:32:00" }, "geometry": { "type": "Point", "coordinates": [ -0.96895, 44.87184 ] } },
{ "type": "Feature", "properties": { "lat": 44.87477, "lon": -0.97561, "frp": 69.33, "fetch_timestamp": "2026-07-27T01:32:00" }, "geometry": { "type": "Point", "coordinates": [ -0.97561, 44.87477 ] } },
{ "type": "Feature", "properties": { "lat": 44.87544, "lon": -0.96976, "frp": 14.3, "fetch_timestamp": "2026-07-27T01:32:00" }, "geometry": { "type": "Point", "coordinates": [ -0.96976, 44.87544 ] } },
{ "type": "Feature", "properties": { "lat": 44.87621, "lon": -0.89769, "frp": 26.86, "fetch_timestamp": "2026-07-27T01:32:00" }, "geometry": { "type": "Point", "coordinates": [ -0.89769, 44.87621 ] } },
{ "type": "Feature", "properties": { "lat": 44.88131, "lon": -0.98308, "frp": 46.76, "fetch_timestamp": "2026-07-27T01:32:00" }, "geometry": { "type": "Point", "coordinates": [ -0.98308, 44.88131 ] } },
{ "type": "Feature", "properties": { "lat": 44.88205, "lon": -1.16795, "frp": 7.17, "fetch_timestamp": "2026-07-27T01:32:00" }, "geometry": { "type": "Point", "coordinates": [ -1.16795, 44.88205 ] } },
{ "type": "Feature", "properties": { "lat": 44.8865, "lon": -1.00221, "frp": 13.53, "fetch_timestamp": "2026-07-27T01:32:00" }, "geometry": { "type": "Point", "coordinates": [ -1.00221, 44.8865 ] } },
{ "type": "Feature", "properties": { "lat": 44.89772, "lon": -0.96874, "frp": 44.37, "fetch_timestamp": "2026-07-27T01:32:00" }, "geometry": { "type": "Point", "coordinates": [ -0.96874, 44.89772 ] } },
{ "type": "Feature", "properties": { "lat": 44.91281, "lon": -0.9661, "frp": 29.74, "fetch_timestamp": "2026-07-27T01:32:00" }, "geometry": { "type": "Point", "coordinates": [ -0.9661, 44.91281 ] } },
{ "type": "Feature", "properties": { "lat": 44.91573, "lon": -0.97278, "frp": 9.75, "fetch_timestamp": "2026-07-27T01:32:00" }, "geometry": { "type": "Point", "coordinates": [ -0.97278, 44.91573 ] } },
{ "type": "Feature", "properties": { "lat": 44.91641, "lon": -0.96692, "frp": 7.84, "fetch_timestamp": "2026-07-27T01:32:00" }, "geometry": { "type": "Point", "coordinates": [ -0.96692, 44.91641 ] } },
{ "type": "Feature", "properties": { "lat": 44.93023, "lon": -1.10165, "frp": 5.46, "fetch_timestamp": "2026-07-27T01:32:00" }, "geometry": { "type": "Point", "coordinates": [ -1.10165, 44.93023 ] } },
{ "type": "Feature", "properties": { "lat": 44.73571, "lon": -0.81347, "frp": 1.52, "fetch_timestamp": "2026-07-27T01:32:00" }, "geometry": { "type": "Point", "coordinates": [ -0.81347, 44.73571 ] } },
{ "type": "Feature", "properties": { "lat": 44.77559, "lon": -0.88832, "frp": 1.21, "fetch_timestamp": "2026-07-27T01:32:00" }, "geometry": { "type": "Point", "coordinates": [ -0.88832, 44.77559 ] } },
{ "type": "Feature", "properties": { "lat": 44.77715, "lon": -0.88187, "frp": 1.16, "fetch_timestamp": "2026-07-27T01:32:00" }, "geometry": { "type": "Point", "coordinates": [ -0.88187, 44.77715 ] } },
{ "type": "Feature", "properties": { "lat": 44.77764, "lon": -0.88806, "frp": 1.79, "fetch_timestamp": "2026-07-27T01:32:00" }, "geometry": { "type": "Point", "coordinates": [ -0.88806, 44.77764 ] } },
{ "type": "Feature", "properties": { "lat": 44.87758, "lon": -0.98004, "frp": 0.98, "fetch_timestamp": "2026-07-27T01:32:00" }, "geometry": { "type": "Point", "coordinates": [ -0.98004, 44.87758 ] } },
{ "type": "Feature", "properties": { "lat": 44.88014, "lon": -0.89721, "frp": 1.11, "fetch_timestamp": "2026-07-27T01:32:00" }, "geometry": { "type": "Point", "coordinates": [ -0.89721, 44.88014 ] } },
{ "type": "Feature", "properties": { "lat": 44.88251, "lon": -0.896, "frp": 0.8, "fetch_timestamp": "2026-07-27T01:32:00" }, "geometry": { "type": "Point", "coordinates": [ -0.896, 44.88251 ] } },
{ "type": "Feature", "properties": { "lat": 44.89452, "lon": -0.87526, "frp": 0.62, "fetch_timestamp": "2026-07-27T01:32:00" }, "geometry": { "type": "Point", "coordinates": [ -0.87526, 44.89452 ] } },
{ "type": "Feature", "properties": { "lat": 44.89899, "lon": -0.87455, "frp": 0.62, "fetch_timestamp": "2026-07-27T01:32:00" }, "geometry": { "type": "Point", "coordinates": [ -0.87455, 44.89899 ] } },
{ "type": "Feature", "properties": { "lat": 44.80283, "lon": -1.10578, "frp": 5.93, "fetch_timestamp": "2026-07-27T01:32:00" }, "geometry": { "type": "Point", "coordinates": [ -1.10578, 44.80283 ] } },
{ "type": "Feature", "properties": { "lat": 44.82067, "lon": -0.99585, "frp": 2.02, "fetch_timestamp": "2026-07-27T01:32:00" }, "geometry": { "type": "Point", "coordinates": [ -0.99585, 44.82067 ] } },
{ "type": "Feature", "properties": { "lat": 44.8866, "lon": -0.9191, "frp": 2.23, "fetch_timestamp": "2026-07-27T01:32:00" }, "geometry": { "type": "Point", "coordinates": [ -0.9191, 44.8866 ] } },
{ "type": "Feature", "properties": { "lat": 44.70958, "lon": -0.82133, "frp": 1.3, "fetch_timestamp": "2026-07-27T01:32:00" }, "geometry": { "type": "Point", "coordinates": [ -0.82133, 44.70958 ] } },
{ "type": "Feature", "properties": { "lat": 44.71114, "lon": -0.82643, "frp": 1.04, "fetch_timestamp": "2026-07-27T01:32:00" }, "geometry": { "type": "Point", "coordinates": [ -0.82643, 44.71114 ] } },
{ "type": "Feature", "properties": { "lat": 44.71269, "lon": -0.83153, "frp": 1.04, "fetch_timestamp": "2026-07-27T01:32:00" }, "geometry": { "type": "Point", "coordinates": [ -0.83153, 44.71269 ] } },
{ "type": "Feature", "properties": { "lat": 44.71399, "lon": -0.79455, "frp": 0.35, "fetch_timestamp": "2026-07-27T01:32:00" }, "geometry": { "type": "Point", "coordinates": [ -0.79455, 44.71399 ] } },
{ "type": "Feature", "properties": { "lat": 44.71489, "lon": -0.81815, "frp": 2.24, "fetch_timestamp": "2026-07-27T01:32:00" }, "geometry": { "type": "Point", "coordinates": [ -0.81815, 44.71489 ] } },
{ "type": "Feature", "properties": { "lat": 44.71554, "lon": -0.79965, "frp": 1.1, "fetch_timestamp": "2026-07-27T01:32:00" }, "geometry": { "type": "Point", "coordinates": [ -0.79965, 44.71554 ] } },
{ "type": "Feature", "properties": { "lat": 44.7158, "lon": -0.84173, "frp": 2.11, "fetch_timestamp": "2026-07-27T01:32:00" }, "geometry": { "type": "Point", "coordinates": [ -0.84173, 44.7158 ] } },
{ "type": "Feature", "properties": { "lat": 44.71646, "lon": -0.82328, "frp": 10.01, "fetch_timestamp": "2026-07-27T01:32:00" }, "geometry": { "type": "Point", "coordinates": [ -0.82328, 44.71646 ] } },
{ "type": "Feature", "properties": { "lat": 44.71709, "lon": -0.80474, "frp": 1.1, "fetch_timestamp": "2026-07-27T01:32:00" }, "geometry": { "type": "Point", "coordinates": [ -0.80474, 44.71709 ] } },
{ "type": "Feature", "properties": { "lat": 44.71736, "lon": -0.84682, "frp": 1.21, "fetch_timestamp": "2026-07-27T01:32:00" }, "geometry": { "type": "Point", "coordinates": [ -0.84682, 44.71736 ] } },
{ "type": "Feature", "properties": { "lat": 44.71801, "lon": -0.82837, "frp": 10.01, "fetch_timestamp": "2026-07-27T01:32:00" }, "geometry": { "type": "Point", "coordinates": [ -0.82837, 44.71801 ] } },
{ "type": "Feature", "properties": { "lat": 44.71891, "lon": -0.85192, "frp": 1.21, "fetch_timestamp": "2026-07-27T01:32:00" }, "geometry": { "type": "Point", "coordinates": [ -0.85192, 44.71891 ] } },
{ "type": "Feature", "properties": { "lat": 44.71956, "lon": -0.83348, "frp": 46.67, "fetch_timestamp": "2026-07-27T01:32:00" }, "geometry": { "type": "Point", "coordinates": [ -0.83348, 44.71956 ] } },
{ "type": "Feature", "properties": { "lat": 44.72112, "lon": -0.83857, "frp": 46.67, "fetch_timestamp": "2026-07-27T01:32:00" }, "geometry": { "type": "Point", "coordinates": [ -0.83857, 44.72112 ] } },
{ "type": "Feature", "properties": { "lat": 44.72266, "lon": -0.84367, "frp": 90.58, "fetch_timestamp": "2026-07-27T01:32:00" }, "geometry": { "type": "Point", "coordinates": [ -0.84367, 44.72266 ] } },
{ "type": "Feature", "properties": { "lat": 44.72333, "lon": -0.82522, "frp": 10.01, "fetch_timestamp": "2026-07-27T01:32:00" }, "geometry": { "type": "Point", "coordinates": [ -0.82522, 44.72333 ] } },
{ "type": "Feature", "properties": { "lat": 44.72356, "lon": -0.86717, "frp": 1.45, "fetch_timestamp": "2026-07-27T01:32:00" }, "geometry": { "type": "Point", "coordinates": [ -0.86717, 44.72356 ] } },
{ "type": "Feature", "properties": { "lat": 44.72422, "lon": -0.84876, "frp": 90.58, "fetch_timestamp": "2026-07-27T01:32:00" }, "geometry": { "type": "Point", "coordinates": [ -0.84876, 44.72422 ] } },
{ "type": "Feature", "properties": { "lat": 44.72487, "lon": -0.83031, "frp": 46.67, "fetch_timestamp": "2026-07-27T01:32:00" }, "geometry": { "type": "Point", "coordinates": [ -0.83031, 44.72487 ] } },
{ "type": "Feature", "properties": { "lat": 44.72577, "lon": -0.85386, "frp": 13.89, "fetch_timestamp": "2026-07-27T01:32:00" }, "geometry": { "type": "Point", "coordinates": [ -0.85386, 44.72577 ] } },
{ "type": "Feature", "properties": { "lat": 44.72643, "lon": -0.83542, "frp": 46.67, "fetch_timestamp": "2026-07-27T01:32:00" }, "geometry": { "type": "Point", "coordinates": [ -0.83542, 44.72643 ] } },
{ "type": "Feature", "properties": { "lat": 44.72732, "lon": -0.85895, "frp": 13.89, "fetch_timestamp": "2026-07-27T01:32:00" }, "geometry": { "type": "Point", "coordinates": [ -0.85895, 44.72732 ] } },
{ "type": "Feature", "properties": { "lat": 44.72886, "lon": -0.86402, "frp": 6.08, "fetch_timestamp": "2026-07-27T01:32:00" }, "geometry": { "type": "Point", "coordinates": [ -0.86402, 44.72886 ] } },
{ "type": "Feature", "properties": { "lat": 44.72952, "lon": -0.84558, "frp": 90.58, "fetch_timestamp": "2026-07-27T01:32:00" }, "geometry": { "type": "Point", "coordinates": [ -0.84558, 44.72952 ] } },
{ "type": "Feature", "properties": { "lat": 44.73018, "lon": -0.82713, "frp": 4.76, "fetch_timestamp": "2026-07-27T01:32:00" }, "geometry": { "type": "Point", "coordinates": [ -0.82713, 44.73018 ] } },
{ "type": "Feature", "properties": { "lat": 44.7304, "lon": -0.86908, "frp": 6.08, "fetch_timestamp": "2026-07-27T01:32:00" }, "geometry": { "type": "Point", "coordinates": [ -0.86908, 44.7304 ] } },
{ "type": "Feature", "properties": { "lat": 44.73107, "lon": -0.85067, "frp": 13.89, "fetch_timestamp": "2026-07-27T01:32:00" }, "geometry": { "type": "Point", "coordinates": [ -0.85067, 44.73107 ] } },
{ "type": "Feature", "properties": { "lat": 44.73173, "lon": -0.83222, "frp": 4.76, "fetch_timestamp": "2026-07-27T01:32:00" }, "geometry": { "type": "Point", "coordinates": [ -0.83222, 44.73173 ] } },
{ "type": "Feature", "properties": { "lat": 44.73194, "lon": -0.87413, "frp": 4.12, "fetch_timestamp": "2026-07-27T01:32:00" }, "geometry": { "type": "Point", "coordinates": [ -0.87413, 44.73194 ] } },
{ "type": "Feature", "properties": { "lat": 44.73261, "lon": -0.85576, "frp": 13.89, "fetch_timestamp": "2026-07-27T01:32:00" }, "geometry": { "type": "Point", "coordinates": [ -0.85576, 44.73261 ] } },
{ "type": "Feature", "properties": { "lat": 44.73328, "lon": -0.83732, "frp": 4.84, "fetch_timestamp": "2026-07-27T01:32:00" }, "geometry": { "type": "Point", "coordinates": [ -0.83732, 44.73328 ] } },
{ "type": "Feature", "properties": { "lat": 44.73347, "lon": -0.87918, "frp": 4.12, "fetch_timestamp": "2026-07-27T01:32:00" }, "geometry": { "type": "Point", "coordinates": [ -0.87918, 44.73347 ] } },
{ "type": "Feature", "properties": { "lat": 44.73394, "lon": -0.81884, "frp": 1.45, "fetch_timestamp": "2026-07-27T01:32:00" }, "geometry": { "type": "Point", "coordinates": [ -0.81884, 44.73394 ] } },
{ "type": "Feature", "properties": { "lat": 44.73416, "lon": -0.86084, "frp": 6.08, "fetch_timestamp": "2026-07-27T01:32:00" }, "geometry": { "type": "Point", "coordinates": [ -0.86084, 44.73416 ] } },
{ "type": "Feature", "properties": { "lat": 44.73482, "lon": -0.84239, "frp": 4.84, "fetch_timestamp": "2026-07-27T01:32:00" }, "geometry": { "type": "Point", "coordinates": [ -0.84239, 44.73482 ] } },
{ "type": "Feature", "properties": { "lat": 44.73501, "lon": -0.88423, "frp": 11.24, "fetch_timestamp": "2026-07-27T01:32:00" }, "geometry": { "type": "Point", "coordinates": [ -0.88423, 44.73501 ] } },
{ "type": "Feature", "properties": { "lat": 44.73548, "lon": -0.82393, "frp": 4.76, "fetch_timestamp": "2026-07-27T01:32:00" }, "geometry": { "type": "Point", "coordinates": [ -0.82393, 44.73548 ] } },
{ "type": "Feature", "properties": { "lat": 44.7357, "lon": -0.86591, "frp": 6.08, "fetch_timestamp": "2026-07-27T01:32:00" }, "geometry": { "type": "Point", "coordinates": [ -0.86591, 44.7357 ] } },
{ "type": "Feature", "properties": { "lat": 44.73614, "lon": -0.80543, "frp": 0.62, "fetch_timestamp": "2026-07-27T01:32:00" }, "geometry": { "type": "Point", "coordinates": [ -0.80543, 44.73614 ] } },
{ "type": "Feature", "properties": { "lat": 44.73636, "lon": -0.84746, "frp": 2.43, "fetch_timestamp": "2026-07-27T01:32:00" }, "geometry": { "type": "Point", "coordinates": [ -0.84746, 44.73636 ] } },
{ "type": "Feature", "properties": { "lat": 44.73655, "lon": -0.88929, "frp": 11.24, "fetch_timestamp": "2026-07-27T01:32:00" }, "geometry": { "type": "Point", "coordinates": [ -0.88929, 44.73655 ] } },
{ "type": "Feature", "properties": { "lat": 44.73703, "lon": -0.82902, "frp": 4.76, "fetch_timestamp": "2026-07-27T01:32:00" }, "geometry": { "type": "Point", "coordinates": [ -0.82902, 44.73703 ] } },
{ "type": "Feature", "properties": { "lat": 44.73724, "lon": -0.87097, "frp": 4.12, "fetch_timestamp": "2026-07-27T01:32:00" }, "geometry": { "type": "Point", "coordinates": [ -0.87097, 44.73724 ] } },
{ "type": "Feature", "properties": { "lat": 44.7379, "lon": -0.85255, "frp": 2.43, "fetch_timestamp": "2026-07-27T01:32:00" }, "geometry": { "type": "Point", "coordinates": [ -0.85255, 44.7379 ] } },
{ "type": "Feature", "properties": { "lat": 44.73809, "lon": -0.89436, "frp": 7.35, "fetch_timestamp": "2026-07-27T01:32:00" }, "geometry": { "type": "Point", "coordinates": [ -0.89436, 44.73809 ] } },
{ "type": "Feature", "properties": { "lat": 44.73877, "lon": -0.87604, "frp": 4.12, "fetch_timestamp": "2026-07-27T01:32:00" }, "geometry": { "type": "Point", "coordinates": [ -0.87604, 44.73877 ] } },
{ "type": "Feature", "properties": { "lat": 44.73962, "lon": -0.89942, "frp": 7.35, "fetch_timestamp": "2026-07-27T01:32:00" }, "geometry": { "type": "Point", "coordinates": [ -0.89942, 44.73962 ] } },
{ "type": "Feature", "properties": { "lat": 44.74031, "lon": -0.8811, "frp": 11.24, "fetch_timestamp": "2026-07-27T01:32:00" }, "geometry": { "type": "Point", "coordinates": [ -0.8811, 44.74031 ] } },
{ "type": "Feature", "properties": { "lat": 44.74115, "lon": -0.90446, "frp": 5.96, "fetch_timestamp": "2026-07-27T01:32:00" }, "geometry": { "type": "Point", "coordinates": [ -0.90446, 44.74115 ] } },
{ "type": "Feature", "properties": { "lat": 44.74185, "lon": -0.88615, "frp": 11.24, "fetch_timestamp": "2026-07-27T01:32:00" }, "geometry": { "type": "Point", "coordinates": [ -0.88615, 44.74185 ] } },
{ "type": "Feature", "properties": { "lat": 44.7432, "lon": -0.84936, "frp": 2.43, "fetch_timestamp": "2026-07-27T01:32:00" }, "geometry": { "type": "Point", "coordinates": [ -0.84936, 44.7432 ] } },
{ "type": "Feature", "properties": { "lat": 44.74339, "lon": -0.89122, "frp": 7.35, "fetch_timestamp": "2026-07-27T01:32:00" }, "geometry": { "type": "Point", "coordinates": [ -0.89122, 44.74339 ] } },
{ "type": "Feature", "properties": { "lat": 44.74492, "lon": -0.89628, "frp": 7.35, "fetch_timestamp": "2026-07-27T01:32:00" }, "geometry": { "type": "Point", "coordinates": [ -0.89628, 44.74492 ] } },
{ "type": "Feature", "properties": { "lat": 44.74561, "lon": -0.87795, "frp": 2.46, "fetch_timestamp": "2026-07-27T01:32:00" }, "geometry": { "type": "Point", "coordinates": [ -0.87795, 44.74561 ] } },
{ "type": "Feature", "properties": { "lat": 44.74672, "lon": -1.0253, "frp": 1.55, "fetch_timestamp": "2026-07-27T01:32:00" }, "geometry": { "type": "Point", "coordinates": [ -1.0253, 44.74672 ] } },
{ "type": "Feature", "properties": { "lat": 44.74682, "lon": -1.03798, "frp": 1.93, "fetch_timestamp": "2026-07-27T01:32:00" }, "geometry": { "type": "Point", "coordinates": [ -1.03798, 44.74682 ] } },
{ "type": "Feature", "properties": { "lat": 44.74715, "lon": -0.88302, "frp": 2.46, "fetch_timestamp": "2026-07-27T01:32:00" }, "geometry": { "type": "Point", "coordinates": [ -0.88302, 44.74715 ] } },
{ "type": "Feature", "properties": { "lat": 44.74822, "lon": -1.03028, "frp": 3.98, "fetch_timestamp": "2026-07-27T01:32:00" }, "geometry": { "type": "Point", "coordinates": [ -1.03028, 44.74822 ] } },
{ "type": "Feature", "properties": { "lat": 44.74831, "lon": -1.04298, "frp": 1.93, "fetch_timestamp": "2026-07-27T01:32:00" }, "geometry": { "type": "Point", "coordinates": [ -1.04298, 44.74831 ] } },
{ "type": "Feature", "properties": { "lat": 44.74869, "lon": -0.88809, "frp": 4.1, "fetch_timestamp": "2026-07-27T01:32:00" }, "geometry": { "type": "Point", "coordinates": [ -0.88809, 44.74869 ] } },
{ "type": "Feature", "properties": { "lat": 44.74879, "lon": -0.92961, "frp": 1.84, "fetch_timestamp": "2026-07-27T01:32:00" }, "geometry": { "type": "Point", "coordinates": [ -0.92961, 44.74879 ] } },
{ "type": "Feature", "properties": { "lat": 44.74911, "lon": -1.02485, "frp": 1.8, "fetch_timestamp": "2026-07-27T01:32:00" }, "geometry": { "type": "Point", "coordinates": [ -1.02485, 44.74911 ] } },
{ "type": "Feature", "properties": { "lat": 44.7498, "lon": -1.04797, "frp": 2.32, "fetch_timestamp": "2026-07-27T01:32:00" }, "geometry": { "type": "Point", "coordinates": [ -1.04797, 44.7498 ] } },
{ "type": "Feature", "properties": { "lat": 44.75032, "lon": -0.93465, "frp": 2.35, "fetch_timestamp": "2026-07-27T01:32:00" }, "geometry": { "type": "Point", "coordinates": [ -0.93465, 44.75032 ] } },
{ "type": "Feature", "properties": { "lat": 44.7506, "lon": -1.02986, "frp": 1.8, "fetch_timestamp": "2026-07-27T01:32:00" }, "geometry": { "type": "Point", "coordinates": [ -1.02986, 44.7506 ] } },
{ "type": "Feature", "properties": { "lat": 44.7509, "lon": -0.87478, "frp": 2.46, "fetch_timestamp": "2026-07-27T01:32:00" }, "geometry": { "type": "Point", "coordinates": [ -0.87478, 44.7509 ] } },
{ "type": "Feature", "properties": { "lat": 44.75127, "lon": -1.0403, "frp": 4.3, "fetch_timestamp": "2026-07-27T01:32:00" }, "geometry": { "type": "Point", "coordinates": [ -1.0403, 44.75127 ] } },
{ "type": "Feature", "properties": { "lat": 44.75184, "lon": -0.93969, "frp": 2.35, "fetch_timestamp": "2026-07-27T01:32:00" }, "geometry": { "type": "Point", "coordinates": [ -0.93969, 44.75184 ] } },
{ "type": "Feature", "properties": { "lat": 44.75211, "lon": -1.03492, "frp": 2.94, "fetch_timestamp": "2026-07-27T01:32:00" }, "geometry": { "type": "Point", "coordinates": [ -1.03492, 44.75211 ] } },
{ "type": "Feature", "properties": { "lat": 44.75245, "lon": -0.87988, "frp": 2.46, "fetch_timestamp": "2026-07-27T01:32:00" }, "geometry": { "type": "Point", "coordinates": [ -0.87988, 44.75245 ] } },
{ "type": "Feature", "properties": { "lat": 44.75277, "lon": -1.04523, "frp": 4.3, "fetch_timestamp": "2026-07-27T01:32:00" }, "geometry": { "type": "Point", "coordinates": [ -1.04523, 44.75277 ] } },
{ "type": "Feature", "properties": { "lat": 44.75337, "lon": -0.94471, "frp": 2.71, "fetch_timestamp": "2026-07-27T01:32:00" }, "geometry": { "type": "Point", "coordinates": [ -0.94471, 44.75337 ] } },
{ "type": "Feature", "properties": { "lat": 44.7535, "lon": -1.02718, "frp": 2.92, "fetch_timestamp": "2026-07-27T01:32:00" }, "geometry": { "type": "Point", "coordinates": [ -1.02718, 44.7535 ] } },
{ "type": "Feature", "properties": { "lat": 44.75359, "lon": -1.03991, "frp": 2.94, "fetch_timestamp": "2026-07-27T01:32:00" }, "geometry": { "type": "Point", "coordinates": [ -1.03991, 44.75359 ] } },
{ "type": "Feature", "properties": { "lat": 44.75399, "lon": -0.88497, "frp": 4.1, "fetch_timestamp": "2026-07-27T01:32:00" }, "geometry": { "type": "Point", "coordinates": [ -0.88497, 44.75399 ] } },
{ "type": "Feature", "properties": { "lat": 44.75409, "lon": -0.92652, "frp": 1.84, "fetch_timestamp": "2026-07-27T01:32:00" }, "geometry": { "type": "Point", "coordinates": [ -0.92652, 44.75409 ] } },
{ "type": "Feature", "properties": { "lat": 44.75436, "lon": -1.02169, "frp": 1.8, "fetch_timestamp": "2026-07-27T01:32:00" }, "geometry": { "type": "Point", "coordinates": [ -1.02169, 44.75436 ] } },
{ "type": "Feature", "properties": { "lat": 44.75507, "lon": -1.04488, "frp": 5.07, "fetch_timestamp": "2026-07-27T01:32:00" }, "geometry": { "type": "Point", "coordinates": [ -1.04488, 44.75507 ] } },
{ "type": "Feature", "properties": { "lat": 44.75552, "lon": -0.89002, "frp": 4.1, "fetch_timestamp": "2026-07-27T01:32:00" }, "geometry": { "type": "Point", "coordinates": [ -0.89002, 44.75552 ] } },
{ "type": "Feature", "properties": { "lat": 44.75562, "lon": -0.93155, "frp": 2.35, "fetch_timestamp": "2026-07-27T01:32:00" }, "geometry": { "type": "Point", "coordinates": [ -0.93155, 44.75562 ] } },
{ "type": "Feature", "properties": { "lat": 44.75586, "lon": -1.02673, "frp": 1.8, "fetch_timestamp": "2026-07-27T01:32:00" }, "geometry": { "type": "Point", "coordinates": [ -1.02673, 44.75586 ] } },
{ "type": "Feature", "properties": { "lat": 44.75634, "lon": -0.91334, "frp": 2.86, "fetch_timestamp": "2026-07-27T01:32:00" }, "geometry": { "type": "Point", "coordinates": [ -0.91334, 44.75634 ] } },
{ "type": "Feature", "properties": { "lat": 44.75655, "lon": -1.03722, "frp": 3.06, "fetch_timestamp": "2026-07-27T01:32:00" }, "geometry": { "type": "Point", "coordinates": [ -1.03722, 44.75655 ] } },
{ "type": "Feature", "properties": { "lat": 44.75705, "lon": -0.89505, "frp": 5.25, "fetch_timestamp": "2026-07-27T01:32:00" }, "geometry": { "type": "Point", "coordinates": [ -0.89505, 44.75705 ] } },
{ "type": "Feature", "properties": { "lat": 44.75714, "lon": -0.93657, "frp": 2.35, "fetch_timestamp": "2026-07-27T01:32:00" }, "geometry": { "type": "Point", "coordinates": [ -0.93657, 44.75714 ] } },
{ "type": "Feature", "properties": { "lat": 44.75736, "lon": -1.03176, "frp": 2.94, "fetch_timestamp": "2026-07-27T01:32:00" }, "geometry": { "type": "Point", "coordinates": [ -1.03176, 44.75736 ] } },
{ "type": "Feature", "properties": { "lat": 44.75787, "lon": -0.91838, "frp": 1.66, "fetch_timestamp": "2026-07-27T01:32:00" }, "geometry": { "type": "Point", "coordinates": [ -0.91838, 44.75787 ] } },
{ "type": "Feature", "properties": { "lat": 44.75793, "lon": -0.95976, "frp": 3.84, "fetch_timestamp": "2026-07-27T01:32:00" }, "geometry": { "type": "Point", "coordinates": [ -0.95976, 44.75793 ] } },
{ "type": "Feature", "properties": { "lat": 44.75803, "lon": -1.05481, "frp": 3.42, "fetch_timestamp": "2026-07-27T01:32:00" }, "geometry": { "type": "Point", "coordinates": [ -1.05481, 44.75803 ] } },
{ "type": "Feature", "properties": { "lat": 44.75805, "lon": -1.04216, "frp": 3.06, "fetch_timestamp": "2026-07-27T01:32:00" }, "geometry": { "type": "Point", "coordinates": [ -1.04216, 44.75805 ] } },
{ "type": "Feature", "properties": { "lat": 44.75857, "lon": -0.90008, "frp": 5.25, "fetch_timestamp": "2026-07-27T01:32:00" }, "geometry": { "type": "Point", "coordinates": [ -0.90008, 44.75857 ] } },
{ "type": "Feature", "properties": { "lat": 44.75866, "lon": -0.94158, "frp": 2.71, "fetch_timestamp": "2026-07-27T01:32:00" }, "geometry": { "type": "Point", "coordinates": [ -0.94158, 44.75866 ] } },
{ "type": "Feature", "properties": { "lat": 44.75876, "lon": -1.02405, "frp": 2.92, "fetch_timestamp": "2026-07-27T01:32:00" }, "geometry": { "type": "Point", "coordinates": [ -1.02405, 44.75876 ] } },
{ "type": "Feature", "properties": { "lat": 44.75885, "lon": -1.03679, "frp": 2.94, "fetch_timestamp": "2026-07-27T01:32:00" }, "geometry": { "type": "Point", "coordinates": [ -1.03679, 44.75885 ] } },
{ "type": "Feature", "properties": { "lat": 44.75928, "lon": -0.8818, "frp": 10.79, "fetch_timestamp": "2026-07-27T01:32:00" }, "geometry": { "type": "Point", "coordinates": [ -0.8818, 44.75928 ] } },
{ "type": "Feature", "properties": { "lat": 44.75951, "lon": -1.0598, "frp": 3.42, "fetch_timestamp": "2026-07-27T01:32:00" }, "geometry": { "type": "Point", "coordinates": [ -1.0598, 44.75951 ] } },
{ "type": "Feature", "properties": { "lat": 44.76018, "lon": -0.94662, "frp": 2.71, "fetch_timestamp": "2026-07-27T01:32:00" }, "geometry": { "type": "Point", "coordinates": [ -0.94662, 44.76018 ] } },
{ "type": "Feature", "properties": { "lat": 44.76028, "lon": -1.02907, "frp": 2.92, "fetch_timestamp": "2026-07-27T01:32:00" }, "geometry": { "type": "Point", "coordinates": [ -1.02907, 44.76028 ] } },
{ "type": "Feature", "properties": { "lat": 44.76033, "lon": -1.04175, "frp": 5.07, "fetch_timestamp": "2026-07-27T01:32:00" }, "geometry": { "type": "Point", "coordinates": [ -1.04175, 44.76033 ] } },
{ "type": "Feature", "properties": { "lat": 44.76081, "lon": -0.88686, "frp": 10.79, "fetch_timestamp": "2026-07-27T01:32:00" }, "geometry": { "type": "Point", "coordinates": [ -0.88686, 44.76081 ] } },
{ "type": "Feature", "properties": { "lat": 44.76099, "lon": -1.06478, "frp": 6.13, "fetch_timestamp": "2026-07-27T01:32:00" }, "geometry": { "type": "Point", "coordinates": [ -1.06478, 44.76099 ] } },
{ "type": "Feature", "properties": { "lat": 44.76105, "lon": -1.05207, "frp": 4.03, "fetch_timestamp": "2026-07-27T01:32:00" }, "geometry": { "type": "Point", "coordinates": [ -1.05207, 44.76105 ] } },
{ "type": "Feature", "properties": { "lat": 44.76112, "lon": -1.02356, "frp": 3.04, "fetch_timestamp": "2026-07-27T01:32:00" }, "geometry": { "type": "Point", "coordinates": [ -1.02356, 44.76112 ] } },
{ "type": "Feature", "properties": { "lat": 44.76162, "lon": -0.91016, "frp": 2.86, "fetch_timestamp": "2026-07-27T01:32:00" }, "geometry": { "type": "Point", "coordinates": [ -0.91016, 44.76162 ] } },
{ "type": "Feature", "properties": { "lat": 44.76171, "lon": -0.95166, "frp": 3.84, "fetch_timestamp": "2026-07-27T01:32:00" }, "geometry": { "type": "Point", "coordinates": [ -0.95166, 44.76171 ] } },
{ "type": "Feature", "properties": { "lat": 44.76181, "lon": -1.03408, "frp": 3.06, "fetch_timestamp": "2026-07-27T01:32:00" }, "geometry": { "type": "Point", "coordinates": [ -1.03408, 44.76181 ] } },
{ "type": "Feature", "properties": { "lat": 44.76234, "lon": -0.89189, "frp": 9.8, "fetch_timestamp": "2026-07-27T01:32:00" }, "geometry": { "type": "Point", "coordinates": [ -0.89189, 44.76234 ] } },
{ "type": "Feature", "properties": { "lat": 44.76242, "lon": -0.93343, "frp": 1.85, "fetch_timestamp": "2026-07-27T01:32:00" }, "geometry": { "type": "Point", "coordinates": [ -0.93343, 44.76242 ] } },
{ "type": "Feature", "properties": { "lat": 44.76256, "lon": -1.05704, "frp": 4.72, "fetch_timestamp": "2026-07-27T01:32:00" }, "geometry": { "type": "Point", "coordinates": [ -1.05704, 44.76256 ] } },
{ "type": "Feature", "properties": { "lat": 44.76262, "lon": -1.02861, "frp": 2.48, "fetch_timestamp": "2026-07-27T01:32:00" }, "geometry": { "type": "Point", "coordinates": [ -1.02861, 44.76262 ] } },
{ "type": "Feature", "properties": { "lat": 44.76315, "lon": -0.91521, "frp": 1.66, "fetch_timestamp": "2026-07-27T01:32:00" }, "geometry": { "type": "Point", "coordinates": [ -0.91521, 44.76315 ] } },
{ "type": "Feature", "properties": { "lat": 44.76323, "lon": -0.95669, "frp": 3.84, "fetch_timestamp": "2026-07-27T01:32:00" }, "geometry": { "type": "Point", "coordinates": [ -0.95669, 44.76323 ] } },
{ "type": "Feature", "properties": { "lat": 44.76329, "lon": -1.0517, "frp": 3.42, "fetch_timestamp": "2026-07-27T01:32:00" }, "geometry": { "type": "Point", "coordinates": [ -1.0517, 44.76329 ] } },
{ "type": "Feature", "properties": { "lat": 44.76331, "lon": -1.03906, "frp": 3.06, "fetch_timestamp": "2026-07-27T01:32:00" }, "geometry": { "type": "Point", "coordinates": [ -1.03906, 44.76331 ] } },
{ "type": "Feature", "properties": { "lat": 44.76386, "lon": -0.89693, "frp": 9.8, "fetch_timestamp": "2026-07-27T01:32:00" }, "geometry": { "type": "Point", "coordinates": [ -0.89693, 44.76386 ] } },
{ "type": "Feature", "properties": { "lat": 44.76394, "lon": -0.93844, "frp": 2.44, "fetch_timestamp": "2026-07-27T01:32:00" }, "geometry": { "type": "Point", "coordinates": [ -0.93844, 44.76394 ] } },
{ "type": "Feature", "properties": { "lat": 44.76407, "lon": -1.06201, "frp": 4.72, "fetch_timestamp": "2026-07-27T01:32:00" }, "geometry": { "type": "Point", "coordinates": [ -1.06201, 44.76407 ] } },
{ "type": "Feature", "properties": { "lat": 44.76411, "lon": -1.03364, "frp": 2.48, "fetch_timestamp": "2026-07-27T01:32:00" }, "geometry": { "type": "Point", "coordinates": [ -1.03364, 44.76411 ] } },
{ "type": "Feature", "properties": { "lat": 44.76467, "lon": -0.92023, "frp": 1.66, "fetch_timestamp": "2026-07-27T01:32:00" }, "geometry": { "type": "Point", "coordinates": [ -0.92023, 44.76467 ] } },
{ "type": "Feature", "properties": { "lat": 44.76475, "lon": -0.9617, "frp": 7.86, "fetch_timestamp": "2026-07-27T01:32:00" }, "geometry": { "type": "Point", "coordinates": [ -0.9617, 44.76475 ] } },
{ "type": "Feature", "properties": { "lat": 44.76477, "lon": -1.0567, "frp": 3.42, "fetch_timestamp": "2026-07-27T01:32:00" }, "geometry": { "type": "Point", "coordinates": [ -1.0567, 44.76477 ] } },
{ "type": "Feature", "properties": { "lat": 44.76482, "lon": -1.04402, "frp": 4.03, "fetch_timestamp": "2026-07-27T01:32:00" }, "geometry": { "type": "Point", "coordinates": [ -1.04402, 44.76482 ] } },
{ "type": "Feature", "properties": { "lat": 44.76538, "lon": -0.90197, "frp": 3.98, "fetch_timestamp": "2026-07-27T01:32:00" }, "geometry": { "type": "Point", "coordinates": [ -0.90197, 44.76538 ] } },
{ "type": "Feature", "properties": { "lat": 44.76546, "lon": -0.94347, "frp": 2.44, "fetch_timestamp": "2026-07-27T01:32:00" }, "geometry": { "type": "Point", "coordinates": [ -0.94347, 44.76546 ] } },
{ "type": "Feature", "properties": { "lat": 44.76557, "lon": -1.06695, "frp": 4.85, "fetch_timestamp": "2026-07-27T01:32:00" }, "geometry": { "type": "Point", "coordinates": [ -1.06695, 44.76557 ] } },
{ "type": "Feature", "properties": { "lat": 44.7656, "lon": -1.03864, "frp": 2.34, "fetch_timestamp": "2026-07-27T01:32:00" }, "geometry": { "type": "Point", "coordinates": [ -1.03864, 44.7656 ] } },
{ "type": "Feature", "properties": { "lat": 44.76619, "lon": -0.92527, "frp": 1.85, "fetch_timestamp": "2026-07-27T01:32:00" }, "geometry": { "type": "Point", "coordinates": [ -0.92527, 44.76619 ] } },
{ "type": "Feature", "properties": { "lat": 44.76625, "lon": -1.06168, "frp": 6.13, "fetch_timestamp": "2026-07-27T01:32:00" }, "geometry": { "type": "Point", "coordinates": [ -1.06168, 44.76625 ] } },
{ "type": "Feature", "properties": { "lat": 44.76627, "lon": -0.96671, "frp": 7.86, "fetch_timestamp": "2026-07-27T01:32:00" }, "geometry": { "type": "Point", "coordinates": [ -0.96671, 44.76627 ] } },
{ "type": "Feature", "properties": { "lat": 44.76691, "lon": -0.90701, "frp": 3.98, "fetch_timestamp": "2026-07-27T01:32:00" }, "geometry": { "type": "Point", "coordinates": [ -0.90701, 44.76691 ] } },
{ "type": "Feature", "properties": { "lat": 44.76698, "lon": -0.94849, "frp": 2.12, "fetch_timestamp": "2026-07-27T01:32:00" }, "geometry": { "type": "Point", "coordinates": [ -0.94849, 44.76698 ] } },
{ "type": "Feature", "properties": { "lat": 44.76708, "lon": -1.04362, "frp": 2.34, "fetch_timestamp": "2026-07-27T01:32:00" }, "geometry": { "type": "Point", "coordinates": [ -1.04362, 44.76708 ] } },
{ "type": "Feature", "properties": { "lat": 44.76771, "lon": -0.93029, "frp": 1.85, "fetch_timestamp": "2026-07-27T01:32:00" }, "geometry": { "type": "Point", "coordinates": [ -0.93029, 44.76771 ] } },
{ "type": "Feature", "properties": { "lat": 44.76783, "lon": -1.05397, "frp": 4.72, "fetch_timestamp": "2026-07-27T01:32:00" }, "geometry": { "type": "Point", "coordinates": [ -1.05397, 44.76783 ] } },
{ "type": "Feature", "properties": { "lat": 44.7685, "lon": -0.95351, "frp": 2.12, "fetch_timestamp": "2026-07-27T01:32:00" }, "geometry": { "type": "Point", "coordinates": [ -0.95351, 44.7685 ] } },
{ "type": "Feature", "properties": { "lat": 44.76854, "lon": -0.99477, "frp": 0.57, "fetch_timestamp": "2026-07-27T01:32:00" }, "geometry": { "type": "Point", "coordinates": [ -0.99477, 44.76854 ] } },
{ "type": "Feature", "properties": { "lat": 44.76922, "lon": -0.9353, "frp": 2.44, "fetch_timestamp": "2026-07-27T01:32:00" }, "geometry": { "type": "Point", "coordinates": [ -0.9353, 44.76922 ] } },
{ "type": "Feature", "properties": { "lat": 44.76931, "lon": -1.01784, "frp": 1.7, "fetch_timestamp": "2026-07-27T01:32:00" }, "geometry": { "type": "Point", "coordinates": [ -1.01784, 44.76931 ] } },
{ "type": "Feature", "properties": { "lat": 44.76934, "lon": -1.05894, "frp": 4.72, "fetch_timestamp": "2026-07-27T01:32:00" }, "geometry": { "type": "Point", "coordinates": [ -1.05894, 44.76934 ] } },
{ "type": "Feature", "properties": { "lat": 44.77002, "lon": -0.95854, "frp": 2.57, "fetch_timestamp": "2026-07-27T01:32:00" }, "geometry": { "type": "Point", "coordinates": [ -0.95854, 44.77002 ] } },
{ "type": "Feature", "properties": { "lat": 44.77074, "lon": -0.9403, "frp": 2.44, "fetch_timestamp": "2026-07-27T01:32:00" }, "geometry": { "type": "Point", "coordinates": [ -0.9403, 44.77074 ] } },
{ "type": "Feature", "properties": { "lat": 44.7708, "lon": -0.98168, "frp": 0.83, "fetch_timestamp": "2026-07-27T01:32:00" }, "geometry": { "type": "Point", "coordinates": [ -0.98168, 44.7708 ] } },
{ "type": "Feature", "properties": { "lat": 44.77155, "lon": -0.96358, "frp": 2.57, "fetch_timestamp": "2026-07-27T01:32:00" }, "geometry": { "type": "Point", "coordinates": [ -0.96358, 44.77155 ] } },
{ "type": "Feature", "properties": { "lat": 44.77225, "lon": -0.94532, "frp": 2.12, "fetch_timestamp": "2026-07-27T01:32:00" }, "geometry": { "type": "Point", "coordinates": [ -0.94532, 44.77225 ] } },
{ "type": "Feature", "properties": { "lat": 44.7723, "lon": -1.10957, "frp": 5.7, "fetch_timestamp": "2026-07-27T01:32:00" }, "geometry": { "type": "Point", "coordinates": [ -1.10957, 44.7723 ] } },
{ "type": "Feature", "properties": { "lat": 44.77281, "lon": -1.10456, "frp": 5.06, "fetch_timestamp": "2026-07-27T01:32:00" }, "geometry": { "type": "Point", "coordinates": [ -1.10456, 44.77281 ] } },
{ "type": "Feature", "properties": { "lat": 44.77306, "lon": -0.96859, "frp": 2.69, "fetch_timestamp": "2026-07-27T01:32:00" }, "geometry": { "type": "Point", "coordinates": [ -0.96859, 44.77306 ] } },
{ "type": "Feature", "properties": { "lat": 44.77377, "lon": -0.95034, "frp": 2.12, "fetch_timestamp": "2026-07-27T01:32:00" }, "geometry": { "type": "Point", "coordinates": [ -0.95034, 44.77377 ] } },
{ "type": "Feature", "properties": { "lat": 44.77379, "lon": -1.1145, "frp": 5.7, "fetch_timestamp": "2026-07-27T01:32:00" }, "geometry": { "type": "Point", "coordinates": [ -1.1145, 44.77379 ] } },
{ "type": "Feature", "properties": { "lat": 44.77428, "lon": -1.1095, "frp": 5.06, "fetch_timestamp": "2026-07-27T01:32:00" }, "geometry": { "type": "Point", "coordinates": [ -1.1095, 44.77428 ] } },
{ "type": "Feature", "properties": { "lat": 44.77451, "lon": -0.93216, "frp": 2.55, "fetch_timestamp": "2026-07-27T01:32:00" }, "geometry": { "type": "Point", "coordinates": [ -0.93216, 44.77451 ] } },
{ "type": "Feature", "properties": { "lat": 44.77574, "lon": -1.11444, "frp": 5.95, "fetch_timestamp": "2026-07-27T01:32:00" }, "geometry": { "type": "Point", "coordinates": [ -1.11444, 44.77574 ] } },
{ "type": "Feature", "properties": { "lat": 44.776, "lon": -1.21891, "frp": 1.29, "fetch_timestamp": "2026-07-27T01:32:00" }, "geometry": { "type": "Point", "coordinates": [ -1.21891, 44.776 ] } },
{ "type": "Feature", "properties": { "lat": 44.77602, "lon": -0.93717, "frp": 2.55, "fetch_timestamp": "2026-07-27T01:32:00" }, "geometry": { "type": "Point", "coordinates": [ -0.93717, 44.77602 ] } },
{ "type": "Feature", "properties": { "lat": 44.77678, "lon": -1.12437, "frp": 2.09, "fetch_timestamp": "2026-07-27T01:32:00" }, "geometry": { "type": "Point", "coordinates": [ -1.12437, 44.77678 ] } },
{ "type": "Feature", "properties": { "lat": 44.77684, "lon": -1.20109, "frp": 0.94, "fetch_timestamp": "2026-07-27T01:32:00" }, "geometry": { "type": "Point", "coordinates": [ -1.20109, 44.77684 ] } },
{ "type": "Feature", "properties": { "lat": 44.77753, "lon": -0.94217, "frp": 4.15, "fetch_timestamp": "2026-07-27T01:32:00" }, "geometry": { "type": "Point", "coordinates": [ -0.94217, 44.77753 ] } },
{ "type": "Feature", "properties": { "lat": 44.77756, "lon": -1.10654, "frp": 1.44, "fetch_timestamp": "2026-07-27T01:32:00" }, "geometry": { "type": "Point", "coordinates": [ -1.10654, 44.77756 ] } },
{ "type": "Feature", "properties": { "lat": 44.77868, "lon": -1.12435, "frp": 3.51, "fetch_timestamp": "2026-07-27T01:32:00" }, "geometry": { "type": "Point", "coordinates": [ -1.12435, 44.77868 ] } },
{ "type": "Feature", "properties": { "lat": 44.77905, "lon": -1.11146, "frp": 1.44, "fetch_timestamp": "2026-07-27T01:32:00" }, "geometry": { "type": "Point", "coordinates": [ -1.11146, 44.77905 ] } },
{ "type": "Feature", "properties": { "lat": 44.78055, "lon": -1.11639, "frp": 1.48, "fetch_timestamp": "2026-07-27T01:32:00" }, "geometry": { "type": "Point", "coordinates": [ -1.11639, 44.78055 ] } },
{ "type": "Feature", "properties": { "lat": 44.78131, "lon": -0.93404, "frp": 2.55, "fetch_timestamp": "2026-07-27T01:32:00" }, "geometry": { "type": "Point", "coordinates": [ -0.93404, 44.78131 ] } },
{ "type": "Feature", "properties": { "lat": 44.78203, "lon": -1.12131, "frp": 1.48, "fetch_timestamp": "2026-07-27T01:32:00" }, "geometry": { "type": "Point", "coordinates": [ -1.12131, 44.78203 ] } },
{ "type": "Feature", "properties": { "lat": 44.78281, "lon": -0.93904, "frp": 4.15, "fetch_timestamp": "2026-07-27T01:32:00" }, "geometry": { "type": "Point", "coordinates": [ -0.93904, 44.78281 ] } },
{ "type": "Feature", "properties": { "lat": 44.80004, "lon": -1.09907, "frp": 3.78, "fetch_timestamp": "2026-07-27T01:32:00" }, "geometry": { "type": "Point", "coordinates": [ -1.09907, 44.80004 ] } },
{ "type": "Feature", "properties": { "lat": 44.80153, "lon": -1.10403, "frp": 5.45, "fetch_timestamp": "2026-07-27T01:32:00" }, "geometry": { "type": "Point", "coordinates": [ -1.10403, 44.80153 ] } },
{ "type": "Feature", "properties": { "lat": 44.8038, "lon": -1.09103, "frp": 3.78, "fetch_timestamp": "2026-07-27T01:32:00" }, "geometry": { "type": "Point", "coordinates": [ -1.09103, 44.8038 ] } },
{ "type": "Feature", "properties": { "lat": 44.80529, "lon": -1.09599, "frp": 3.78, "fetch_timestamp": "2026-07-27T01:32:00" }, "geometry": { "type": "Point", "coordinates": [ -1.09599, 44.80529 ] } },
{ "type": "Feature", "properties": { "lat": 44.80678, "lon": -1.10094, "frp": 5.45, "fetch_timestamp": "2026-07-27T01:32:00" }, "geometry": { "type": "Point", "coordinates": [ -1.10094, 44.80678 ] } },
{ "type": "Feature", "properties": { "lat": 44.81055, "lon": -1.0929, "frp": 0.79, "fetch_timestamp": "2026-07-27T01:32:00" }, "geometry": { "type": "Point", "coordinates": [ -1.0929, 44.81055 ] } },
{ "type": "Feature", "properties": { "lat": 44.8117, "lon": -1.21516, "frp": 0.65, "fetch_timestamp": "2026-07-27T01:32:00" }, "geometry": { "type": "Point", "coordinates": [ -1.21516, 44.8117 ] } },
{ "type": "Feature", "properties": { "lat": 44.81779, "lon": -1.19422, "frp": 0.68, "fetch_timestamp": "2026-07-27T01:32:00" }, "geometry": { "type": "Point", "coordinates": [ -1.19422, 44.81779 ] } },
{ "type": "Feature", "properties": { "lat": 44.84079, "lon": -0.94579, "frp": 1.5, "fetch_timestamp": "2026-07-27T01:32:00" }, "geometry": { "type": "Point", "coordinates": [ -0.94579, 44.84079 ] } },
{ "type": "Feature", "properties": { "lat": 44.84298, "lon": -0.94387, "frp": 1.38, "fetch_timestamp": "2026-07-27T01:32:00" }, "geometry": { "type": "Point", "coordinates": [ -0.94387, 44.84298 ] } },
{ "type": "Feature", "properties": { "lat": 44.84301, "lon": -0.97402, "frp": 2.12, "fetch_timestamp": "2026-07-27T01:32:00" }, "geometry": { "type": "Point", "coordinates": [ -0.97402, 44.84301 ] } },
{ "type": "Feature", "properties": { "lat": 44.84307, "lon": -0.98503, "frp": 2.02, "fetch_timestamp": "2026-07-27T01:32:00" }, "geometry": { "type": "Point", "coordinates": [ -0.98503, 44.84307 ] } },
{ "type": "Feature", "properties": { "lat": 44.8445, "lon": -0.97903, "frp": 2.12, "fetch_timestamp": "2026-07-27T01:32:00" }, "geometry": { "type": "Point", "coordinates": [ -0.97903, 44.8445 ] } },
{ "type": "Feature", "properties": { "lat": 44.84451, "lon": -0.9489, "frp": 1.38, "fetch_timestamp": "2026-07-27T01:32:00" }, "geometry": { "type": "Point", "coordinates": [ -0.9489, 44.84451 ] } },
{ "type": "Feature", "properties": { "lat": 44.84531, "lon": -0.97197, "frp": 3.76, "fetch_timestamp": "2026-07-27T01:32:00" }, "geometry": { "type": "Point", "coordinates": [ -0.97197, 44.84531 ] } },
{ "type": "Feature", "properties": { "lat": 44.84599, "lon": -0.98402, "frp": 1.93, "fetch_timestamp": "2026-07-27T01:32:00" }, "geometry": { "type": "Point", "coordinates": [ -0.98402, 44.84599 ] } },
{ "type": "Feature", "properties": { "lat": 44.84606, "lon": -0.94265, "frp": 1.5, "fetch_timestamp": "2026-07-27T01:32:00" }, "geometry": { "type": "Point", "coordinates": [ -0.94265, 44.84606 ] } },
{ "type": "Feature", "properties": { "lat": 44.84682, "lon": -0.97695, "frp": 2.02, "fetch_timestamp": "2026-07-27T01:32:00" }, "geometry": { "type": "Point", "coordinates": [ -0.97695, 44.84682 ] } },
{ "type": "Feature", "properties": { "lat": 44.84748, "lon": -0.98901, "frp": 1.93, "fetch_timestamp": "2026-07-27T01:32:00" }, "geometry": { "type": "Point", "coordinates": [ -0.98901, 44.84748 ] } },
{ "type": "Feature", "properties": { "lat": 44.84756, "lon": -0.94768, "frp": 2.53, "fetch_timestamp": "2026-07-27T01:32:00" }, "geometry": { "type": "Point", "coordinates": [ -0.94768, 44.84756 ] } },
{ "type": "Feature", "properties": { "lat": 44.84827, "lon": -0.97087, "frp": 3.21, "fetch_timestamp": "2026-07-27T01:32:00" }, "geometry": { "type": "Point", "coordinates": [ -0.97087, 44.84827 ] } },
{ "type": "Feature", "properties": { "lat": 44.84834, "lon": -0.98194, "frp": 2.02, "fetch_timestamp": "2026-07-27T01:32:00" }, "geometry": { "type": "Point", "coordinates": [ -0.98194, 44.84834 ] } },
{ "type": "Feature", "properties": { "lat": 44.84907, "lon": -0.96388, "frp": 1.7, "fetch_timestamp": "2026-07-27T01:32:00" }, "geometry": { "type": "Point", "coordinates": [ -0.96388, 44.84907 ] } },
{ "type": "Feature", "properties": { "lat": 44.84976, "lon": -0.97587, "frp": 3.21, "fetch_timestamp": "2026-07-27T01:32:00" }, "geometry": { "type": "Point", "coordinates": [ -0.97587, 44.84976 ] } },
{ "type": "Feature", "properties": { "lat": 44.84986, "lon": -0.98691, "frp": 1.44, "fetch_timestamp": "2026-07-27T01:32:00" }, "geometry": { "type": "Point", "coordinates": [ -0.98691, 44.84986 ] } },
{ "type": "Feature", "properties": { "lat": 44.85058, "lon": -0.96885, "frp": 1.7, "fetch_timestamp": "2026-07-27T01:32:00" }, "geometry": { "type": "Point", "coordinates": [ -0.96885, 44.85058 ] } },
{ "type": "Feature", "properties": { "lat": 44.85116, "lon": -1.02212, "frp": 1.33, "fetch_timestamp": "2026-07-27T01:32:00" }, "geometry": { "type": "Point", "coordinates": [ -1.02212, 44.85116 ] } },
{ "type": "Feature", "properties": { "lat": 44.85125, "lon": -0.98088, "frp": 4.09, "fetch_timestamp": "2026-07-27T01:32:00" }, "geometry": { "type": "Point", "coordinates": [ -0.98088, 44.85125 ] } },
{ "type": "Feature", "properties": { "lat": 44.85205, "lon": -0.96274, "frp": 4.38, "fetch_timestamp": "2026-07-27T01:32:00" }, "geometry": { "type": "Point", "coordinates": [ -0.96274, 44.85205 ] } },
{ "type": "Feature", "properties": { "lat": 44.85209, "lon": -0.97382, "frp": 3.04, "fetch_timestamp": "2026-07-27T01:32:00" }, "geometry": { "type": "Point", "coordinates": [ -0.97382, 44.85209 ] } },
{ "type": "Feature", "properties": { "lat": 44.85262, "lon": -1.02703, "frp": 1.16, "fetch_timestamp": "2026-07-27T01:32:00" }, "geometry": { "type": "Point", "coordinates": [ -1.02703, 44.85262 ] } },
{ "type": "Feature", "properties": { "lat": 44.85281, "lon": -0.95575, "frp": 2.65, "fetch_timestamp": "2026-07-27T01:32:00" }, "geometry": { "type": "Point", "coordinates": [ -0.95575, 44.85281 ] } },
{ "type": "Feature", "properties": { "lat": 44.85353, "lon": -0.96774, "frp": 3.21, "fetch_timestamp": "2026-07-27T01:32:00" }, "geometry": { "type": "Point", "coordinates": [ -0.96774, 44.85353 ] } },
{ "type": "Feature", "properties": { "lat": 44.8536, "lon": -0.97881, "frp": 3.04, "fetch_timestamp": "2026-07-27T01:32:00" }, "geometry": { "type": "Point", "coordinates": [ -0.97881, 44.8536 ] } },
{ "type": "Feature", "properties": { "lat": 44.8541, "lon": -1.03196, "frp": 1.16, "fetch_timestamp": "2026-07-27T01:32:00" }, "geometry": { "type": "Point", "coordinates": [ -1.03196, 44.8541 ] } },
{ "type": "Feature", "properties": { "lat": 44.85431, "lon": -0.94952, "frp": 3.75, "fetch_timestamp": "2026-07-27T01:32:00" }, "geometry": { "type": "Point", "coordinates": [ -0.94952, 44.85431 ] } },
{ "type": "Feature", "properties": { "lat": 44.85433, "lon": -0.96075, "frp": 1.7, "fetch_timestamp": "2026-07-27T01:32:00" }, "geometry": { "type": "Point", "coordinates": [ -0.96075, 44.85433 ] } },
{ "type": "Feature", "properties": { "lat": 44.85502, "lon": -0.97272, "frp": 3.21, "fetch_timestamp": "2026-07-27T01:32:00" }, "geometry": { "type": "Point", "coordinates": [ -0.97272, 44.85502 ] } },
{ "type": "Feature", "properties": { "lat": 44.8558, "lon": -0.95454, "frp": 3.22, "fetch_timestamp": "2026-07-27T01:32:00" }, "geometry": { "type": "Point", "coordinates": [ -0.95454, 44.8558 ] } },
{ "type": "Feature", "properties": { "lat": 44.85584, "lon": -0.96573, "frp": 1.7, "fetch_timestamp": "2026-07-27T01:32:00" }, "geometry": { "type": "Point", "coordinates": [ -0.96573, 44.85584 ] } },
{ "type": "Feature", "properties": { "lat": 44.85651, "lon": -0.97772, "frp": 4.09, "fetch_timestamp": "2026-07-27T01:32:00" }, "geometry": { "type": "Point", "coordinates": [ -0.97772, 44.85651 ] } },
{ "type": "Feature", "properties": { "lat": 44.8573, "lon": -0.95956, "frp": 3.22, "fetch_timestamp": "2026-07-27T01:32:00" }, "geometry": { "type": "Point", "coordinates": [ -0.95956, 44.8573 ] } },
{ "type": "Feature", "properties": { "lat": 44.85735, "lon": -0.9707, "frp": 3.04, "fetch_timestamp": "2026-07-27T01:32:00" }, "geometry": { "type": "Point", "coordinates": [ -0.9707, 44.85735 ] } },
{ "type": "Feature", "properties": { "lat": 44.85807, "lon": -0.95258, "frp": 5.96, "fetch_timestamp": "2026-07-27T01:32:00" }, "geometry": { "type": "Point", "coordinates": [ -0.95258, 44.85807 ] } },
{ "type": "Feature", "properties": { "lat": 44.85886, "lon": -0.97567, "frp": 3.04, "fetch_timestamp": "2026-07-27T01:32:00" }, "geometry": { "type": "Point", "coordinates": [ -0.97567, 44.85886 ] } },
{ "type": "Feature", "properties": { "lat": 44.86105, "lon": -0.95135, "frp": 3.22, "fetch_timestamp": "2026-07-27T01:32:00" }, "geometry": { "type": "Point", "coordinates": [ -0.95135, 44.86105 ] } },
{ "type": "Feature", "properties": { "lat": 44.86701, "lon": -0.97139, "frp": 0.83, "fetch_timestamp": "2026-07-27T01:32:00" }, "geometry": { "type": "Point", "coordinates": [ -0.97139, 44.86701 ] } },
{ "type": "Feature", "properties": { "lat": 44.86786, "lon": -0.96437, "frp": 0.81, "fetch_timestamp": "2026-07-27T01:32:00" }, "geometry": { "type": "Point", "coordinates": [ -0.96437, 44.86786 ] } },
{ "type": "Feature", "properties": { "lat": 44.86803, "lon": -1.09949, "frp": 2.09, "fetch_timestamp": "2026-07-27T01:32:00" }, "geometry": { "type": "Point", "coordinates": [ -1.09949, 44.86803 ] } },
{ "type": "Feature", "properties": { "lat": 44.86937, "lon": -0.96936, "frp": 0.81, "fetch_timestamp": "2026-07-27T01:32:00" }, "geometry": { "type": "Point", "coordinates": [ -0.96936, 44.86937 ] } },
{ "type": "Feature", "properties": { "lat": 44.87238, "lon": -0.97931, "frp": 1.7, "fetch_timestamp": "2026-07-27T01:32:00" }, "geometry": { "type": "Point", "coordinates": [ -0.97931, 44.87238 ] } },
{ "type": "Feature", "properties": { "lat": 44.87462, "lon": -0.9662, "frp": 2.43, "fetch_timestamp": "2026-07-27T01:32:00" }, "geometry": { "type": "Point", "coordinates": [ -0.9662, 44.87462 ] } },
{ "type": "Feature", "properties": { "lat": 44.87613, "lon": -0.97119, "frp": 5.02, "fetch_timestamp": "2026-07-27T01:32:00" }, "geometry": { "type": "Point", "coordinates": [ -0.97119, 44.87613 ] } },
{ "type": "Feature", "properties": { "lat": 44.87764, "lon": -0.97617, "frp": 5.02, "fetch_timestamp": "2026-07-27T01:32:00" }, "geometry": { "type": "Point", "coordinates": [ -0.97617, 44.87764 ] } },
{ "type": "Feature", "properties": { "lat": 44.87904, "lon": -0.89858, "frp": 1.83, "fetch_timestamp": "2026-07-27T01:32:00" }, "geometry": { "type": "Point", "coordinates": [ -0.89858, 44.87904 ] } },
{ "type": "Feature", "properties": { "lat": 44.8844, "lon": -0.97802, "frp": 4.14, "fetch_timestamp": "2026-07-27T01:32:00" }, "geometry": { "type": "Point", "coordinates": [ -0.97802, 44.8844 ] } },
{ "type": "Feature", "properties": { "lat": 44.88514, "lon": -1.00099, "frp": 4.17, "fetch_timestamp": "2026-07-27T01:32:00" }, "geometry": { "type": "Point", "coordinates": [ -1.00099, 44.88514 ] } },
{ "type": "Feature", "properties": { "lat": 44.8859, "lon": -0.98299, "frp": 4.14, "fetch_timestamp": "2026-07-27T01:32:00" }, "geometry": { "type": "Point", "coordinates": [ -0.98299, 44.8859 ] } },
{ "type": "Feature", "properties": { "lat": 44.88663, "lon": -1.00593, "frp": 4.17, "fetch_timestamp": "2026-07-27T01:32:00" }, "geometry": { "type": "Point", "coordinates": [ -1.00593, 44.88663 ] } },
{ "type": "Feature", "properties": { "lat": 44.88813, "lon": -1.01089, "frp": 8.87, "fetch_timestamp": "2026-07-27T01:32:00" }, "geometry": { "type": "Point", "coordinates": [ -1.01089, 44.88813 ] } },
{ "type": "Feature", "properties": { "lat": 44.88955, "lon": -1.1098, "frp": 1.72, "fetch_timestamp": "2026-07-27T01:32:00" }, "geometry": { "type": "Point", "coordinates": [ -1.1098, 44.88955 ] } },
{ "type": "Feature", "properties": { "lat": 44.89039, "lon": -0.99787, "frp": 4.17, "fetch_timestamp": "2026-07-27T01:32:00" }, "geometry": { "type": "Point", "coordinates": [ -0.99787, 44.89039 ] } },
{ "type": "Feature", "properties": { "lat": 44.89188, "lon": -1.0028, "frp": 4.17, "fetch_timestamp": "2026-07-27T01:32:00" }, "geometry": { "type": "Point", "coordinates": [ -1.0028, 44.89188 ] } },
{ "type": "Feature", "properties": { "lat": 44.89254, "lon": -1.10725, "frp": 1.25, "fetch_timestamp": "2026-07-27T01:32:00" }, "geometry": { "type": "Point", "coordinates": [ -1.10725, 44.89254 ] } },
{ "type": "Feature", "properties": { "lat": 44.90014, "lon": -0.96854, "frp": 1.72, "fetch_timestamp": "2026-07-27T01:32:00" }, "geometry": { "type": "Point", "coordinates": [ -0.96854, 44.90014 ] } },
{ "type": "Feature", "properties": { "lat": 44.90389, "lon": -0.96042, "frp": 2.79, "fetch_timestamp": "2026-07-27T01:32:00" }, "geometry": { "type": "Point", "coordinates": [ -0.96042, 44.90389 ] } },
{ "type": "Feature", "properties": { "lat": 44.90539, "lon": -0.96539, "frp": 1.72, "fetch_timestamp": "2026-07-27T01:32:00" }, "geometry": { "type": "Point", "coordinates": [ -0.96539, 44.90539 ] } },
{ "type": "Feature", "properties": { "lat": 44.90691, "lon": -0.92919, "frp": 1.2, "fetch_timestamp": "2026-07-27T01:32:00" }, "geometry": { "type": "Point", "coordinates": [ -0.92919, 44.90691 ] } },
{ "type": "Feature", "properties": { "lat": 44.90841, "lon": -0.93418, "frp": 1.2, "fetch_timestamp": "2026-07-27T01:32:00" }, "geometry": { "type": "Point", "coordinates": [ -0.93418, 44.90841 ] } },
{ "type": "Feature", "properties": { "lat": 44.90991, "lon": -0.93917, "frp": 1.92, "fetch_timestamp": "2026-07-27T01:32:00" }, "geometry": { "type": "Point", "coordinates": [ -0.93917, 44.90991 ] } },
{ "type": "Feature", "properties": { "lat": 44.9114, "lon": -0.94414, "frp": 1.92, "fetch_timestamp": "2026-07-27T01:32:00" }, "geometry": { "type": "Point", "coordinates": [ -0.94414, 44.9114 ] } },
{ "type": "Feature", "properties": { "lat": 44.91516, "lon": -0.93601, "frp": 1.45, "fetch_timestamp": "2026-07-27T01:32:00" }, "geometry": { "type": "Point", "coordinates": [ -0.93601, 44.91516 ] } },
{ "type": "Feature", "properties": { "lat": 44.93353, "lon": -1.10018, "frp": 2.48, "fetch_timestamp": "2026-07-27T01:32:00" }, "geometry": { "type": "Point", "coordinates": [ -1.10018, 44.93353 ] } },
{ "type": "Feature", "properties": { "lat": 44.93728, "lon": -1.09217, "frp": 1.84, "fetch_timestamp": "2026-07-27T01:32:00" }, "geometry": { "type": "Point", "coordinates": [ -1.09217, 44.93728 ] } },
{ "type": "Feature", "properties": { "lat": 44.94557, "lon": -1.05813, "frp": 1.27, "fetch_timestamp": "2026-07-27T01:32:00" }, "geometry": { "type": "Point", "coordinates": [ -1.05813, 44.94557 ] } },
{ "type": "Feature", "properties": { "lat": 44.94704, "lon": -1.06307, "frp": 1.27, "fetch_timestamp": "2026-07-27T01:32:00" }, "geometry": { "type": "Point", "coordinates": [ -1.06307, 44.94704 ] } },
{ "type": "Feature", "properties": { "lat": 44.73041, "lon": -0.88261, "frp": 73.98, "fetch_timestamp": "2026-07-27T01:32:00" }, "geometry": { "type": "Point", "coordinates": [ -0.88261, 44.73041 ] } },
{ "type": "Feature", "properties": { "lat": 44.7314, "lon": -0.83593, "frp": 4.38, "fetch_timestamp": "2026-07-27T01:32:00" }, "geometry": { "type": "Point", "coordinates": [ -0.83593, 44.7314 ] } },
{ "type": "Feature", "properties": { "lat": 44.73308, "lon": -0.82606, "frp": 6.4, "fetch_timestamp": "2026-07-27T01:32:00" }, "geometry": { "type": "Point", "coordinates": [ -0.82606, 44.73308 ] } },
{ "type": "Feature", "properties": { "lat": 44.73471, "lon": -0.83704, "frp": 4.38, "fetch_timestamp": "2026-07-27T01:32:00" }, "geometry": { "type": "Point", "coordinates": [ -0.83704, 44.73471 ] } },
{ "type": "Feature", "properties": { "lat": 44.73555, "lon": -0.83211, "frp": 4.38, "fetch_timestamp": "2026-07-27T01:32:00" }, "geometry": { "type": "Point", "coordinates": [ -0.83211, 44.73555 ] } },
{ "type": "Feature", "properties": { "lat": 44.75723, "lon": -1.0333, "frp": 14.09, "fetch_timestamp": "2026-07-27T01:32:00" }, "geometry": { "type": "Point", "coordinates": [ -1.0333, 44.75723 ] } },
{ "type": "Feature", "properties": { "lat": 44.75884, "lon": -1.04437, "frp": 172.97, "fetch_timestamp": "2026-07-27T01:32:00" }, "geometry": { "type": "Point", "coordinates": [ -1.04437, 44.75884 ] } },
{ "type": "Feature", "properties": { "lat": 44.76073, "lon": -0.99244, "frp": 206.84, "fetch_timestamp": "2026-07-27T01:32:00" }, "geometry": { "type": "Point", "coordinates": [ -0.99244, 44.76073 ] } },
{ "type": "Feature", "properties": { "lat": 44.76405, "lon": -0.99356, "frp": 206.84, "fetch_timestamp": "2026-07-27T01:32:00" }, "geometry": { "type": "Point", "coordinates": [ -0.99356, 44.76405 ] } },
{ "type": "Feature", "properties": { "lat": 44.76745, "lon": -0.9737, "frp": 32.32, "fetch_timestamp": "2026-07-27T01:32:00" }, "geometry": { "type": "Point", "coordinates": [ -0.9737, 44.76745 ] } },
{ "type": "Feature", "properties": { "lat": 44.7683, "lon": -0.96873, "frp": 32.32, "fetch_timestamp": "2026-07-27T01:32:00" }, "geometry": { "type": "Point", "coordinates": [ -0.96873, 44.7683 ] } },
{ "type": "Feature", "properties": { "lat": 44.77185, "lon": -1.11206, "frp": 2.57, "fetch_timestamp": "2026-07-27T01:32:00" }, "geometry": { "type": "Point", "coordinates": [ -1.11206, 44.77185 ] } },
{ "type": "Feature", "properties": { "lat": 44.7727, "lon": -1.10706, "frp": 2.57, "fetch_timestamp": "2026-07-27T01:32:00" }, "geometry": { "type": "Point", "coordinates": [ -1.10706, 44.7727 ] } },
{ "type": "Feature", "properties": { "lat": 44.77298, "lon": -1.10978, "frp": 8.42, "fetch_timestamp": "2026-07-27T01:32:00" }, "geometry": { "type": "Point", "coordinates": [ -1.10978, 44.77298 ] } },
{ "type": "Feature", "properties": { "lat": 44.77311, "lon": -1.21022, "frp": 5.69, "fetch_timestamp": "2026-07-27T01:32:00" }, "geometry": { "type": "Point", "coordinates": [ -1.21022, 44.77311 ] } },
{ "type": "Feature", "properties": { "lat": 44.77644, "lon": -1.21136, "frp": 14.35, "fetch_timestamp": "2026-07-27T01:32:00" }, "geometry": { "type": "Point", "coordinates": [ -1.21136, 44.77644 ] } },
{ "type": "Feature", "properties": { "lat": 44.78123, "lon": -1.12313, "frp": 4.9, "fetch_timestamp": "2026-07-27T01:32:00" }, "geometry": { "type": "Point", "coordinates": [ -1.12313, 44.78123 ] } },
{ "type": "Feature", "properties": { "lat": 44.79885, "lon": -1.10275, "frp": 42.37, "fetch_timestamp": "2026-07-27T01:32:00" }, "geometry": { "type": "Point", "coordinates": [ -1.10275, 44.79885 ] } },
{ "type": "Feature", "properties": { "lat": 44.80218, "lon": -1.10388, "frp": 10.5, "fetch_timestamp": "2026-07-27T01:32:00" }, "geometry": { "type": "Point", "coordinates": [ -1.10388, 44.80218 ] } },
{ "type": "Feature", "properties": { "lat": 44.80304, "lon": -1.0989, "frp": 3.53, "fetch_timestamp": "2026-07-27T01:32:00" }, "geometry": { "type": "Point", "coordinates": [ -1.0989, 44.80304 ] } },
{ "type": "Feature", "properties": { "lat": 44.84356, "lon": -1.14968, "frp": 1.89, "fetch_timestamp": "2026-07-27T01:32:00" }, "geometry": { "type": "Point", "coordinates": [ -1.14968, 44.84356 ] } },
{ "type": "Feature", "properties": { "lat": 44.85627, "lon": -0.912, "frp": 41.04, "fetch_timestamp": "2026-07-27T01:32:00" }, "geometry": { "type": "Point", "coordinates": [ -0.912, 44.85627 ] } },
{ "type": "Feature", "properties": { "lat": 44.86029, "lon": -0.95003, "frp": 28.05, "fetch_timestamp": "2026-07-27T01:32:00" }, "geometry": { "type": "Point", "coordinates": [ -0.95003, 44.86029 ] } },
{ "type": "Feature", "properties": { "lat": 44.86716, "lon": -1.09437, "frp": 3.45, "fetch_timestamp": "2026-07-27T01:32:00" }, "geometry": { "type": "Point", "coordinates": [ -1.09437, 44.86716 ] } },
{ "type": "Feature", "properties": { "lat": 44.87037, "lon": -0.91153, "frp": 16.09, "fetch_timestamp": "2026-07-27T01:32:00" }, "geometry": { "type": "Point", "coordinates": [ -0.91153, 44.87037 ] } },
{ "type": "Feature", "properties": { "lat": 44.87399, "lon": -1.17884, "frp": 3.96, "fetch_timestamp": "2026-07-27T01:32:00" }, "geometry": { "type": "Point", "coordinates": [ -1.17884, 44.87399 ] } },
{ "type": "Feature", "properties": { "lat": 44.87731, "lon": -1.17998, "frp": 3.26, "fetch_timestamp": "2026-07-27T01:32:00" }, "geometry": { "type": "Point", "coordinates": [ -1.17998, 44.87731 ] } },
{ "type": "Feature", "properties": { "lat": 44.88952, "lon": -0.88135, "frp": 5.46, "fetch_timestamp": "2026-07-27T01:32:00" }, "geometry": { "type": "Point", "coordinates": [ -0.88135, 44.88952 ] } },
{ "type": "Feature", "properties": { "lat": 44.90176, "lon": -0.9536, "frp": 3.25, "fetch_timestamp": "2026-07-27T01:32:00" }, "geometry": { "type": "Point", "coordinates": [ -0.9536, 44.90176 ] } },
{ "type": "Feature", "properties": { "lat": 44.91177, "lon": -0.93601, "frp": 15.53, "fetch_timestamp": "2026-07-27T01:32:00" }, "geometry": { "type": "Point", "coordinates": [ -0.93601, 44.91177 ] } },
{ "type": "Feature", "properties": { "lat": 44.93336, "lon": -0.97774, "frp": 23.7, "fetch_timestamp": "2026-07-27T01:32:00" }, "geometry": { "type": "Point", "coordinates": [ -0.97774, 44.93336 ] } },
{ "type": "Feature", "properties": { "lat": 44.93704, "lon": -1.07895, "frp": 15.62, "fetch_timestamp": "2026-07-27T01:32:00" }, "geometry": { "type": "Point", "coordinates": [ -1.07895, 44.93704 ] } },
{ "type": "Feature", "properties": { "lat": 44.93864, "lon": -1.09005, "frp": 15.95, "fetch_timestamp": "2026-07-27T01:32:00" }, "geometry": { "type": "Point", "coordinates": [ -1.09005, 44.93864 ] } },
{ "type": "Feature", "properties": { "lat": 44.9395, "lon": -1.08507, "frp": 15.95, "fetch_timestamp": "2026-07-27T01:32:00" }, "geometry": { "type": "Point", "coordinates": [ -1.08507, 44.9395 ] } },
{ "type": "Feature", "properties": { "lat": 44.94036, "lon": -1.08009, "frp": 15.62, "fetch_timestamp": "2026-07-27T01:32:00" }, "geometry": { "type": "Point", "coordinates": [ -1.08009, 44.94036 ] } },
{ "type": "Feature", "properties": { "lat": 44.9471, "lon": -1.06131, "frp": 6.03, "fetch_timestamp": "2026-07-27T01:32:00" }, "geometry": { "type": "Point", "coordinates": [ -1.06131, 44.9471 ] } },
{ "type": "Feature", "properties": { "lat": 44.94796, "lon": -1.05633, "frp": 6.03, "fetch_timestamp": "2026-07-27T01:32:00" }, "geometry": { "type": "Point", "coordinates": [ -1.05633, 44.94796 ] } }
]
}
