{"type": "FeatureCollection", "name": "zone_active", "crs": {"type": "name", "properties": {"name": "urn:ogc:def:crs:OGC:1.3:CRS84"}}, "features": [{"type": "Feature", "properties": {"nb_detections_cluster": 3, "frp_max": 3.22, "frp_moyen": 2.29, "derniere_detection": "2026-07-23T02:28:00", "fetch_timestamp": "2026-07-23T02:28:00"}, "geometry": {"type": "Polygon", "coordinates": [[[-1.147528275597261, 44.81958843747805], [-1.1476115733653, 44.81928493582238], [-1.147736265668328, 44.81898870657711], [-1.147901151066024, 44.818702602452106], [-1.148104641123019, 44.81842937860814], [-1.148344775725549, 44.818171666129935], [-1.148619241973544, 44.81793194669554], [-1.14892539646558, 44.817712528685355], [-1.149260290761718, 44.8175155249608], [-1.149620699778767, 44.8173428325259], [-1.150003152844529, 44.81719611426791], [-1.150403967112138, 44.81707678295166], [-1.150819283013078, 44.81698598762208], [-1.151245101408041, 44.816924602545264], [-1.151677322078538, 44.81689321879421], [-1.152111783189449, 44.81689213856033], [-1.152544301343402, 44.816921372245055], [-1.152970711842257, 44.81698063835986], [-1.153386908768989, 44.81706936623519], [-1.153788884504966, 44.817186701512746], [-1.154172768303022, 44.817331514368036], [-1.154534863545694, 44.81750241038431], [-1.154871683330554, 44.817697743973476], [-1.155179984040505, 44.81791563421507], [-1.155456796576144, 44.81815398296097], [-1.155699454949622, 44.818410495031934], [-1.155905621964616, 44.81868270031189], [-1.156073311734939, 44.81896797752734], [-1.156200908824503, 44.819263579483675], [-1.156287183823746, 44.819566659515054], [-1.156331305211806, 44.81987429889396], [-1.156332847389315, 44.820183534936334], [-1.156291794803532, 44.820491389531824], [-1.156208542125047, 44.82079489782461], [-1.156083890473346, 44.82109113676833], [-1.155919039726538, 44.82137725328041], [-1.155715576988381, 44.82165049172405], [-1.155475461322789, 44.821908220453444], [-1.155201004902098, 44.82214795716604], [-1.154894850750073, 44.82236739281743], [-1.154821852440446, 44.8224103373476], [-1.15493118597682, 44.82266362772108], [-1.155017459348053, 44.822966709082024], [-1.155061576454672, 44.82327434931311], [-1.155063111738455, 44.82358358572205], [-1.155022049712966, 44.82389144019499], [-1.154938785139624, 44.82419494787723], [-1.1548141192524, 44.82449118572832], [-1.154649252066439, 44.82477730067618], [-1.154445770843774, 44.82505053709907], [-1.154205634826307, 44.825308263370644], [-1.153931156382358, 44.825547997212034], [-1.153624978747797, 44.82576742960646], [-1.153548652089615, 44.82581232804777], [-1.15366146392496, 44.826073675958895], [-1.153747735683316, 44.82637675864929], [-1.153791848515818, 44.82668439973246], [-1.153793376905316, 44.82699363650786], [-1.153752305431685, 44.82730149085811], [-1.153669028947259, 44.8276049979297], [-1.153544348800645, 44.827901234688056], [-1.153379465144258, 44.828187348071594], [-1.153175965398703, 44.828460582473625], [-1.152935808984239, 44.828718306287314], [-1.15266130846561, 44.82895803725738], [-1.152355107291279, 44.82917746639473], [-1.152020154341014, 44.82937448022279], [-1.15165967552676, 44.82954718114118], [-1.151277142720276, 44.829693905710286], [-1.150876240306974, 44.82981324068005], [-1.150460829688472, 44.82990403660863], [-1.150034912076261, 44.82996541893898], [-1.149602589935553, 44.82999679642686], [-1.14916802745148, 44.8299978668386], [-1.148735410399324, 44.829968619863806], [-1.148308905806275, 44.82990933721469], [-1.147892621794202, 44.829820589911144], [-1.147490567991249, 44.829703232777895], [-1.147106616894407, 44.8295583962067], [-1.14674446655607, 44.82938747526316], [-1.146407604954658, 44.82919211624345], [-1.146099276392988, 44.828974200810556], [-1.145822450248438, 44.82873582786322], [-1.145579792376038, 44.828479293312775], [-1.145373639439903, 44.828207067962495], [-1.145205976420039, 44.827921773703544], [-1.145078417510698, 44.82762615825646], [-1.144992190593749, 44.82732306870216], [-1.144948125435786, 44.82701542405756], [-1.14494664572185, 44.82670618716001], [-1.144987765001495, 44.82639833613166], [-1.145071086585226, 44.826094835698306], [-1.145195807391297, 44.82579860863947], [-1.145360725704774, 44.825512507643936], [-1.145564252773196, 44.825239287842344], [-1.145804428126303, 44.824981580280486], [-1.146078938471551, 44.82474186658901], [-1.146385139982844, 44.82452245509307], [-1.14646147061218, 44.82447756159888], [-1.146348695466209, 44.824216206506485], [-1.14626246693033, 44.82391311828115], [-1.146218397492146, 44.82360547448808], [-1.146216910878008, 44.823296237956434], [-1.146258020704005, 44.82298838680482], [-1.146341330371769, 44.82268488576027], [-1.146466036914377, 44.82238865760815], [-1.146630938754321, 44.82210255504781], [-1.146834447297833, 44.82182933322498], [-1.147074602253088, 44.82157162320489], [-1.147349090523996, 44.821331906641916], [-1.147655268497044, 44.82111249188883], [-1.147728270596928, 44.821069552092524], [-1.147618972625854, 44.82081625475611], [-1.147532742455933, 44.82051316785987], [-1.147488668730225, 44.82020552491843], [-1.147487175216461, 44.819896288752815], [-1.147528275597261, 44.81958843747805]]]}}, {"type": "Feature", "properties": {"nb_detections_cluster": 1, "frp_max": 3.99, "frp_moyen": 3.99, "derniere_detection": "2026-07-23T02:28:00", "fetch_timestamp": "2026-07-23T02:28:00"}, "geometry": {"type": "Polygon", "coordinates": [[[-1.07870777688724, 44.833095717572995], [-1.078791466390384, 44.83279226634882], [-1.078916551452427, 44.83249611324231], [-1.079081826850959, 44.8322101102297], [-1.079285700395305, 44.831937011497644], [-1.079526208279334, 44.831679446925776], [-1.079801034009066, 44.831439896767506], [-1.080107530722199, 44.83122066777296], [-1.080442746684238, 44.83102387098315], [-1.080803453715436, 44.83085140140937], [-1.081186178274815, 44.830704919792716], [-1.081587234902081, 44.83058583661926], [-1.082002761695771, 44.83049529854452], [-1.082428757486526, 44.83043417735745], [-1.082861120348223, 44.83040306159005], [-1.083295687076939, 44.83040225085328], [-1.083728273258491, 44.83043175295368], [-1.084154713539694, 44.830491283818134], [-1.084570901716555, 44.830580270227834], [-1.084972830254316, 44.83069785533504], [-1.085356628859737, 44.830842906909524], [-1.085718601734986, 44.83101402823585], [-1.086055263155104, 44.83120957155622], [-1.086363371027006, 44.83142765393044], [-1.086639958107203, 44.831666175360056], [-1.086882360577843, 44.83192283900273], [-1.087088243705829, 44.83219517328244], [-1.087255624337755, 44.8324805556832], [-1.087382890013599, 44.83277623799703], [-1.08746881451453, 44.83307937278388], [-1.087512569694391, 44.83338704078851], [-1.087513733480024, 44.83369627905071], [-1.087472293962462, 44.834004109438325], [-1.087388649538562, 44.834307567328224], [-1.087263605100679, 44.83460373015908], [-1.087098364310057, 44.8348897455809], [-1.08689451802741, 44.83516285893014], [-1.086654029011219, 44.83542043976549], [-1.086379213030382, 44.835660007208496], [-1.086072716572557, 44.83587925384482], [-1.085737491362426, 44.83607606795546], [-1.085376765935138, 44.836248553863534], [-1.084994014538619, 44.83639505020019], [-1.0845929236645, 44.83651414591366], [-1.084177356530335, 44.83660469386654], [-1.083751315855741, 44.83666582189033], [-1.083318905291702, 44.836696941190205], [-1.082884289875316, 44.836697752019475], [-1.082451655891807, 44.836668246568046], [-1.082025170531361, 44.83660870903786], [-1.081608941730342, 44.836519712903836], [-1.081206978584668, 44.83640211538743], [-1.080823152717547, 44.836257049195716], [-1.080461160974461, 44.83608591160594], [-1.080124489805448, 44.83589035100082], [-1.07981638167824, 44.83567225098483], [-1.079539803846133, 44.835433712234355], [-1.079297419771586, 44.83517703225744], [-1.079091563480739, 44.83490468325772], [-1.078924217095664, 44.83461928831693], [-1.078796991760297, 44.83432359612493], [-1.078711112143205, 44.8340204545014], [-1.078667404665685, 44.83371278296431], [-1.078666289567722, 44.8334035446096], [-1.07870777688724, 44.833095717572995]]]}}, {"type": "Feature", "properties": {"nb_detections_cluster": 2, "frp_max": 3.6, "frp_moyen": 2.51, "derniere_detection": "2026-07-23T02:28:00", "fetch_timestamp": "2026-07-23T02:28:00"}, "geometry": {"type": "Polygon", "coordinates": [[[-1.049995873647559, 44.84892501999735], [-1.050161344626752, 44.848639058544826], [-1.050365418392558, 44.84836601150023], [-1.0506061292108, 44.84810850824525], [-1.050881158633445, 44.84786902844275], [-1.05118785783694, 44.84764987816524], [-1.05152327313721, 44.84745316769561], [-1.051884174435353, 44.84728079121391], [-1.052267086320123, 44.847134408564735], [-1.052668321527837, 44.84701542928117], [-1.053084016437856, 44.84692499901836], [-1.053510168262398, 44.846863988527076], [-1.053942673573226, 44.84683298527344], [-1.054377367795057, 44.84683228778503], [-1.054810065286293, 44.846861902777945], [-1.055236599622082, 44.84692154509201], [-1.055652863692819, 44.84701064043531], [-1.056054849232904, 44.84712833091112], [-1.056438685400066, 44.84727348327464], [-1.056800676034534, 44.84744469983984], [-1.057137335240004, 44.84764033193184], [-1.057445420944298, 44.84785849575555], [-1.057721966116905, 44.84809709052814], [-1.057964307342978, 44.84835381870087], [-1.058170110478614, 44.84862620807625], [-1.058337393140117, 44.848911635607536], [-1.058464543810324, 44.84920735265203], [-1.058550337377342, 44.84951051143506], [-1.058593946955403, 44.849818192470075], [-1.058594951873068, 44.850127432671236], [-1.058553341750944, 44.85043525388754], [-1.058469516628596, 44.85073869158395], [-1.05834428313842, 44.85103482339346], [-1.058178846762278, 44.85132079726469], [-1.057974800244549, 44.8515938589341], [-1.057734108272283, 44.85185137845795], [-1.057459088569271, 44.852090875548214], [-1.057152389585547, 44.85231004346802], [-1.056816964996743, 44.85250677125646], [-1.056456045258712, 44.85267916406798], [-1.056073106491331, 44.85282556143039], [-1.055671836991372, 44.852944553245216], [-1.055256101697304, 44.853034993375736], [-1.054829904948845, 44.85309601069195], [-1.054397351900633, 44.8531270174655], [-1.05396260896247, 44.85312771503347], [-1.053529863648099, 44.85309809667677], [-1.053103284220186, 44.853038447684824], [-1.052686979521203, 44.85294934260618], [-1.052284959378068, 44.85283163971168], [-1.05197962306226, 44.85271616976337], [-1.05196347562877, 44.85283551446586], [-1.051879611323552, 44.853138947420106], [-1.05175433773787, 44.853435072023466], [-1.051588860739741, 44.853721036293926], [-1.0513847734648, 44.85399408606039], [-1.051144040992671, 44.854251591493735], [-1.050868981437268, 44.854491072441576], [-1.050562243632529, 44.85471022232256], [-1.050226781628067, 44.85490693034942], [-1.049865826240195, 44.85507930186698], [-1.049482853932252, 44.855225676608136], [-1.049081553324152, 44.85534464469223], [-1.048665789654078, 44.855435060211185], [-1.04823956753514, 44.85549605227205], [-1.047806992366408, 44.855527033389684], [-1.047372230770801, 44.85552770514832], [-1.0469394704418, 44.855498061077476], [-1.04651287978671, 44.85543838671424], [-1.046096567756135, 44.85534925685156], [-1.045694544247587, 44.85523152999896], [-1.045310681465487, 44.85508634010926], [-1.04494867661057, 44.854915085651115], [-1.04461201625875, 44.85471941613285], [-1.044303942773058, 44.85450121620787], [-1.044027423072547, 44.8542625875148], [-1.043785120059123, 44.85400582842774], [-1.043579366977505, 44.85373341191222], [-1.043412144955017, 44.853447961700034], [-1.043285063937137, 44.85315222701317], [-1.043199347201831, 44.852849056080395], [-1.043155819601082, 44.8525413687017], [-1.043154899641971, 44.8522321281254], [-1.043196595482661, 44.85192431250836], [-1.043280504880777, 44.85162088623475], [-1.043405819093691, 44.85132477136923], [-1.043571330692101, 44.8510388195196], [-1.043775445210706, 44.85076578437965], [-1.044016196522921, 44.850508295216386], [-1.044291265790819, 44.85026883155695], [-1.044598003807219, 44.850049699318355], [-1.044933456514369, 44.8498530086098], [-1.045294393453248, 44.849680653421004], [-1.045677338869503, 44.84953429339153], [-1.046078605176652, 44.84941533783664], [-1.046494328454677, 44.84932493218299], [-1.046920505642712, 44.84926394694438], [-1.047353033068358, 44.84923296934379], [-1.047787745943435, 44.84923229766177], [-1.048220458446766, 44.84926193836594], [-1.048647004008959, 44.84932160604854], [-1.049063275412302, 44.849410726173396], [-1.049465264320568, 44.84952844060515], [-1.049770578139493, 44.84964391735039], [-1.049786729314666, 44.84952457309006], [-1.049870599529136, 44.84922114207151], [-1.049995873647559, 44.84892501999735]]]}}]}