{"type": "FeatureCollection", "name": "zone_active", "crs": {"type": "name", "properties": {"name": "urn:ogc:def:crs:OGC:1.3:CRS84"}}, "features": [{"type": "Feature", "properties": {"nb_detections_cluster": 1, "frp_max": 18.25, "frp_moyen": 18.25, "derniere_detection": "2026-07-27T12:38:00", "fetch_timestamp": "2026-07-28T02:53:00"}, "geometry": {"type": "Polygon", "coordinates": [[[-0.976823142154963, 44.7570187197127], [-0.976822588339504, 44.7567094886486], [-0.976864576272659, 44.756401707964386], [-0.976948700901604, 44.75609834170739], [-0.977074151413571, 44.75580231136391], [-0.977239719069254, 44.755516467727375], [-0.97744380886601, 44.755243563449184], [-0.977684454917645, 44.75498622653586], [-0.97795933940195, 44.75474693504815], [-0.978265814892936, 44.75452799324492], [-0.978600929862301, 44.754331509401425], [-0.978961457104322, 44.75415937551526], [-0.979343924810432, 44.7540132490949], [-0.979744649994429, 44.75389453720613], [-0.980159773946763, 44.75380438292928], [-0.980585299377085, 44.75374365435761], [-0.981017128888037, 44.7537129362427], [-0.981451104410641, 44.75371252436652], [-0.981883047222451, 44.753742422695034], [-0.982308798164064, 44.75380234333985], [-0.982724257667753, 44.75389170932901], [-0.983125425213693, 44.75400966015965], [-0.983508437834783, 44.75415506007997], [-0.983869607300084, 44.754326509020025], [-0.984205455619511, 44.75452235606719], [-0.984512748528435, 44.754740715356334], [-0.98478852663009, 44.754979484222126], [-0.985030133896123, 44.75523636343909], [-0.985235243250744, 44.75550887935487], [-0.985401878991956, 44.75579440770382], [-0.985528435833504, 44.756090198871924], [-0.985613694383594, 44.75639340437023], [-0.985656832910602, 44.75670110426189], [-0.985657435281586, 44.75701033527899], [-0.985615494996213, 44.75731811935848], [-0.985531415276224, 44.757621492322556], [-0.985406005208567, 44.75791753242715], [-0.985240471978291, 44.75820338850371], [-0.985036409265093, 44.75847630742281], [-0.98479578191436, 44.75873366061526], [-0.984520907029635, 44.758972969394726], [-0.984214431668003, 44.75919192883782], [-0.983879307352793, 44.75938842999142], [-0.983518761648886, 44.75956058019268], [-0.983136267074323, 44.759706721306145], [-0.982735507647852, 44.759825445701416], [-0.982320343394939, 44.759915609817526], [-0.981894773154662, 44.75997634518309], [-0.981462896046401, 44.760007066785484], [-0.981028871968271, 44.76000747870863], [-0.980596881508681, 44.75997757698483], [-0.980171085658111, 44.75991764963295], [-0.979755585710111, 44.75982827388271], [-0.979354383738764, 44.75971031061201], [-0.978971344034116, 44.7595648960508], [-0.978610155867912, 44.75939343083161], [-0.978274297948904, 44.75919756649269], [-0.977967004910628, 44.758979189563654], [-0.977691236154818, 44.75874040338778], [-0.977449647350674, 44.758483507855736], [-0.977244564864504, 44.758210977246826], [-0.977077963365766, 44.757925436391396], [-0.976951446824797, 44.75762963538403], [-0.976866233084661, 44.75732642309181], [-0.976823142154963, 44.7570187197127]]]}}, {"type": "Feature", "properties": {"nb_detections_cluster": 7, "frp_max": 6.07, "frp_moyen": 2.89, "derniere_detection": "2026-07-28T02:53:00", "fetch_timestamp": "2026-07-28T02:53:00"}, "geometry": {"type": "Polygon", "coordinates": [[[-1.217711335378603, 44.77024582406564], [-1.21807130838592, 44.770107330763516], [-1.218471642562376, 44.76998775548258], [-1.218886500757951, 44.76989670682454], [-1.219311888239641, 44.76983506149477], [-1.219743708937336, 44.769803413072296], [-1.220177804866481, 44.769802066297004], [-1.22060999614542, 44.76983103413683], [-1.221036121223076, 44.769890037663046], [-1.221452076930551, 44.7699785087346], [-1.221853857971966, 44.770095595465946], [-1.222237595475183, 44.770240170425886], [-1.222599594231978, 44.77041084148846], [-1.222936368269788, 44.770605965231866], [-1.223244674413029, 44.77082366275644], [-1.22352154351117, 44.771061837770006], [-1.223764309033037, 44.77131819676653], [-1.223970632751973, 44.77159027110423], [-1.224138527274297, 44.77187544077095], [-1.224266375193728, 44.77217095960808], [-1.224352944686726, 44.77247398175066], [-1.224397401397844, 44.772781589029016], [-1.224399316499762, 44.77309081906869], [-1.224358670849458, 44.7733986938176], [-1.224275855199435, 44.77370224822621], [-1.22415166646099, 44.7739985588045], [-1.223987300054442, 44.77428477178036], [-1.223784338419078, 44.77455813058834], [-1.22354473579258, 44.774816002423705], [-1.223270799405781, 44.77505590360593], [-1.222965167273292, 44.77527552350676], [-1.222630782793456, 44.77547274681245], [-1.222270866402054, 44.77564567390524], [-1.221888884552741, 44.77579263916712], [-1.221488516323129, 44.77591222702986], [-1.221073617968517, 44.77600328561576], [-1.220648185765199, 44.77606493783791], [-1.220216317501909, 44.77609658985243], [-1.219782172991126, 44.776097936781404], [-1.219349933981466, 44.77606896565094], [-1.218923763858276, 44.77600995551627], [-1.218507767521526, 44.77592147477239], [-1.218105951828455, 44.77580437567655], [-1.217722186982845, 44.7756597861351], [-1.217360169243675, 44.775489098834385], [-1.217023385312987, 44.775293957820196], [-1.216715078746542, 44.77507624265592], [-1.216438218711138, 44.77483805031163], [-1.216195471389671, 44.77458167495934], [-1.216068535626301, 44.77441425735333], [-1.215708530122639, 44.7745527443581], [-1.21530815757958, 44.774672309848825], [-1.214893258366949, 44.77476334526501], [-1.214467828769338, 44.77482497374291], [-1.2140359665504, 44.77485660166736], [-1.213601831464395, 44.77485792439247], [-1.213169605169145, 44.77482892917749], [-1.2127434509275, 44.77476989530965], [-1.212327473486411, 44.77468139141255], [-1.211925679521056, 44.77456426996642], [-1.211541939025868, 44.77441965909293], [-1.21117994802521, 44.7742489516838], [-1.210843192963505, 44.77405379197859], [-1.21053491711838, 44.77383605972067], [-1.210258089360654, 44.773597852044695], [-1.210015375562273, 44.773341463270384], [-1.209809112927526, 44.77306936279725], [-1.209641287494584, 44.77278417131402], [-1.209513515023608, 44.77248863555175], [-1.209427025454957, 44.77218560182425], [-1.209382651086416, 44.77187798861119], [-1.20938081858247, 44.7715687584476], [-1.209421544891613, 44.771260889391186], [-1.209504437110011, 44.7709573463418], [-1.20962869629178, 44.77066105248976], [-1.2097931251682, 44.77037486116747], [-1.209996139700535, 44.77010152837575], [-1.210235784354354, 44.76984368624883], [-1.210509750947518, 44.769603817713474], [-1.210815400889723, 44.76938423258616], [-1.211149790599031, 44.76918704533768], [-1.211509699850396, 44.76901415473953], [-1.211891662783166, 44.76886722558718], [-1.212292001269144, 44.768747672676284], [-1.21270686032023, 44.768656647185665], [-1.213132245195214, 44.7685950255976], [-1.213564059849107, 44.76856340126249], [-1.21399814635555, 44.768562078688284], [-1.214430324923604, 44.768591070609915], [-1.21485643412455, 44.76865009786674], [-1.215272370942325, 44.76873859208925], [-1.215674130262883, 44.768855701168924], [-1.21605784342317, 44.7690002974594], [-1.216419815449289, 44.76917098862931], [-1.216756560625996, 44.769366131063215], [-1.217064836055542, 44.76958384568145], [-1.217341672883076, 44.76982203602725], [-1.217584404888106, 44.77007840844688], [-1.217711335378603, 44.77024582406564]]]}}, {"type": "Feature", "properties": {"nb_detections_cluster": 1, "frp_max": 0.67, "frp_moyen": 0.67, "derniere_detection": "2026-07-28T02:34:00", "fetch_timestamp": "2026-07-28T02:53:00"}, "geometry": {"type": "Polygon", "coordinates": [[[-1.141669232133774, 44.81282529258564], [-1.141667770832879, 44.81251605710359], [-1.141708897689999, 44.81220820874341], [-1.141792215943024, 44.81190471220519], [-1.141916922542634, 44.81160849023092], [-1.142081815911037, 44.81132239546043], [-1.142285307536298, 44.811049182964375], [-1.142525437289747, 44.81079148371816], [-1.142799892318175, 44.81055177927244], [-1.143106029328347, 44.8103323778632], [-1.14344090004879, 44.810135392192], [-1.143801279623426, 44.809962719089036], [-1.14418369766363, 44.80981602125538], [-1.144584471659835, 44.809696711259186], [-1.144999742431307, 44.80960593794013], [-1.145425511273264, 44.809544575352305], [-1.145857678444311, 44.80951321435221], [-1.146292082624396, 44.80951215691215], [-1.146724540964241, 44.8095414132141], [-1.147150889341547, 44.80960070155175], [-1.147567022437344, 44.80968945104159], [-1.147968933247518, 44.809806807117155], [-1.148352751649969, 44.8099516397537], [-1.14871478165684, 44.81012255434394], [-1.149051536993794, 44.81031790512099], [-1.149359774664264, 44.810535810998836], [-1.149636526175849, 44.81077417367875], [-1.149879126128322, 44.81103069784731], [-1.150085237887968, 44.81130291327188], [-1.150252876100748, 44.811588198581305], [-1.150380425827159, 44.81188380650293], [-1.150466658113868, 44.812186890313484], [-1.150510741851484, 44.81249453124901], [-1.150512251803395, 44.81280376661039], [-1.150471172727392, 44.813111618293846], [-1.150387899549383, 44.81341512147151], [-1.150263233586481, 44.813711353146296], [-1.150098374854832, 44.81399746030556], [-1.149894910535298, 44.814270687402576], [-1.149654799707208, 44.81452840290079], [-1.149380354496481, 44.81476812462506], [-1.149074217819058, 44.81498754367533], [-1.148739337933629, 44.815184546672135], [-1.148378940048477, 44.81535723611947], [-1.147996495255888, 44.81550394868814], [-1.14759568709351, 44.815623271243744], [-1.147180376055062, 44.81571405446395], [-1.146754562392765, 44.81577542391418], [-1.146322347570432, 44.81580678847421], [-1.14588789473933, 44.815807846034936], [-1.145455388618368, 44.81577858640971], [-1.145028995166045, 44.815719291432586], [-1.144612821433539, 44.81563053224226], [-1.144210875986612, 44.8155131637779], [-1.143827030278433, 44.81536831654043], [-1.143464981346203, 44.81519738569814], [-1.14312821619155, 44.815002017642584], [-1.142819978188329, 44.8147840941237], [-1.142543235841731, 44.81454571411819], [-1.142300654199775, 44.81428917360527], [-1.142094569192515, 44.814016943445665], [-1.141926965145909, 44.813731645576844], [-1.141799455686473, 44.81343602775405], [-1.141713268220105, 44.81313293708108], [-1.141669232133774, 44.81282529258564]]]}}, {"type": "Feature", "properties": {"nb_detections_cluster": 1, "frp_max": 1.12, "frp_moyen": 1.12, "derniere_detection": "2026-07-28T02:34:00", "fetch_timestamp": "2026-07-28T02:53:00"}, "geometry": {"type": "Polygon", "coordinates": [[[-1.21784945023581, 44.81292832842391], [-1.217847569811828, 44.81261909407864], [-1.217888279488671, 44.812311217607736], [-1.217971186521644, 44.81200766398251], [-1.218095491821193, 44.81171135649514], [-1.21825999767352, 44.81142514860945], [-1.218463119297733, 44.81115179648575], [-1.218702900127351, 44.81089393244448], [-1.218977030668249, 44.8106540396235], [-1.219282870750861, 44.810434428073066], [-1.219617474961937, 44.810237212518516], [-1.2199776210107, 44.81006429200388], [-1.220359840756257, 44.809917331612716], [-1.220760453597601, 44.80979774644151], [-1.221175601905043, 44.80970668797967], [-1.221601288152441, 44.80964503302695], [-1.222033413393304, 44.809613375255054], [-1.222467816711122, 44.809612019493876], [-1.222900315264912, 44.8096409787979], [-1.223326744545348, 44.809699974320566], [-1.223742998454828, 44.80978843799791], [-1.22414506882648, 44.80990551801556], [-1.224529084002489, 44.81005008700702], [-1.224891346101083, 44.81022075290379], [-1.225228366613998, 44.81041587233381], [-1.225536899992204, 44.810633566439], [-1.22581397489682, 44.81087173896011], [-1.2260569228145, 44.811128096415146], [-1.226263403761678, 44.811400170177166], [-1.226431428829975, 44.81168534023962], [-1.226559379355214, 44.81198086044006], [-1.226646022524907, 44.812283884900424], [-1.226690523273163, 44.81259149542879], [-1.226692452347602, 44.81290072961935], [-1.226651790469643, 44.81320860938009], [-1.226568928547092, 44.813512169613226], [-1.226444663935941, 44.81380848677267], [-1.226280192786351, 44.81409470702289], [-1.226077098545609, 44.814368073728396], [-1.225837336727865, 44.81462595400841], [-1.225563216096627, 44.81486586410104], [-1.225257376440639, 44.81508549329222], [-1.224922763156757, 44.815282726178765], [-1.22456259888442, 44.81545566305054], [-1.224180352464842, 44.815602638195415], [-1.223779705524099, 44.815722235949934], [-1.2233645170023, 44.81581330434109], [-1.222938785971003, 44.81587496618754], [-1.222506613097717, 44.81590662755272], [-1.222072161129441, 44.81590798346858], [-1.221639614776769, 44.81587902087473], [-1.221213140385909, 44.81582001874416], [-1.220796845788033, 44.81573154539476], [-1.220394740713644, 44.81561445301257], [-1.220010698154164, 44.8154698694393], [-1.219648417043696, 44.815299187303786], [-1.219311386621121, 44.81510405060214], [-1.219002852816291, 44.81488633885617], [-1.218725786984481, 44.81464814900306], [-1.218482857290378, 44.81439177519089], [-1.218276403017218, 44.81411968667515], [-1.218108412048321, 44.813834504029415], [-1.217980501737439, 44.81353897389965], [-1.217893903351645, 44.81323594254554], [-1.21784945023581, 44.81292832842391]]]}}, {"type": "Feature", "properties": {"nb_detections_cluster": 2, "frp_max": 2.69, "frp_moyen": 1.86, "derniere_detection": "2026-07-28T02:53:00", "fetch_timestamp": "2026-07-28T02:53:00"}, "geometry": {"type": "Polygon", "coordinates": [[[-1.208209015551662, 44.818087944552055], [-1.208207187998571, 44.81777870951313], [-1.208247954222446, 44.81747083605204], [-1.208330920933922, 44.81716728911106], [-1.208455288468651, 44.816870991917945], [-1.208619858513462, 44.8165847978373], [-1.208823045669285, 44.8163114628965], [-1.2090628927386, 44.81605361925041], [-1.209337089589467, 44.81581374984044], [-1.209642995413859, 44.81559416449143], [-1.209977664165565, 44.815396977676336], [-1.210337872932443, 44.81522408816243], [-1.210720152969793, 44.815077160734745], [-1.211120823096179, 44.814957610172335], [-1.21153602513044, 44.81486658763132], [-1.211961761029216, 44.81480496956565], [-1.212393931368033, 44.81477334929177], [-1.212828374796223, 44.81477203127851], [-1.213260908086646, 44.81480102821693], [-1.213687366395541, 44.81486006089805], [-1.214103643345801, 44.8149485609001], [-1.21450573054867, 44.815065676058985], [-1.214889756184214, 44.815210278669774], [-1.215252022269858, 44.81538097634027], [-1.215589040258835, 44.815576125392425], [-1.215897564626281, 44.81579384668288], [-1.216174624119924, 44.816032043690605], [-1.21641755037464, 44.81628842269774], [-1.216624003615286, 44.81656051486983], [-1.216791995200093, 44.81684570002292], [-1.21691990678714, 44.817141231849234], [-1.217006505938732, 44.817444264358684], [-1.217050958012712, 44.81775187928175], [-1.217052834225296, 44.81806111417029], [-1.217012115806865, 44.81836899092548], [-1.216929194209643, 44.81867254447841], [-1.216804867364269, 44.81896885134728], [-1.216640332020237, 44.81925505779561], [-1.216437172243094, 44.819528407320774], [-1.216197344178205, 44.81978626720742], [-1.215923157227186, 44.82002615389004], [-1.215617251817616, 44.82024575687999], [-1.215282573979765, 44.820442961026416], [-1.214922346974952, 44.82061586689599], [-1.214540040248746, 44.82076280907514], [-1.214139336008225, 44.82088237221794], [-1.213724093745536, 44.820973404684764], [-1.213298313049995, 44.82103502964027], [-1.212866095067591, 44.82106665350324], [-1.212431602979908, 44.82106797166688], [-1.21199902188404, 44.821038971434376], [-1.21157251846089, 44.8209799321413], [-1.211156200821278, 44.82089142246352], [-1.210754078917628, 44.82077429493693], [-1.210370025903406, 44.82062967774178], [-1.210007740813333, 44.820458963830724], [-1.209670712924509, 44.82026379750592], [-1.209362188142242, 44.82004605857452], [-1.209085137734745, 44.81980784423548], [-1.208842229717966, 44.819551448872666], [-1.208635803166175, 44.81927934194912], [-1.208467845695501, 44.81899414421566], [-1.208339974336882, 44.818698602463506], [-1.208253419982054, 44.81839556306422], [-1.208209015551662, 44.818087944552055]]]}}, {"type": "Feature", "properties": {"nb_detections_cluster": 1, "frp_max": 0.33, "frp_moyen": 0.33, "derniere_detection": "2026-07-28T02:34:00", "fetch_timestamp": "2026-07-28T02:53:00"}, "geometry": {"type": "Polygon", "coordinates": [[[-1.165556491394975, 44.84854624653692], [-1.165554897660869, 44.84823700774613], [-1.165595919756737, 44.8479291469216], [-1.165679161928419, 44.847625628883655], [-1.165803821858316, 44.84732937658142], [-1.165968698417116, 44.84704324294697], [-1.166172203253835, 44.846769983425304], [-1.166412376111715, 44.8465122294448], [-1.166686903721696, 44.84627246308325], [-1.166993142090945, 44.84605299317301], [-1.167328141971415, 44.84585593307526], [-1.167688677262897, 44.84568318033698], [-1.168071276077072, 44.84553639842604], [-1.168472254163555, 44.84541700072025], [-1.168887750376436, 44.84532613690384], [-1.169313763840306, 44.84526468190235], [-1.169746192458584, 44.84523322746205], [-1.170180872394127, 44.845232076455034], [-1.170613618142868, 44.84526123996423], [-1.171040262815556, 44.84532043717678], [-1.171456698240725, 44.84540909808661], [-1.171858914503634, 44.84552636898027], [-1.172243038541444, 44.84567112065322], [-1.172605371423712, 44.845841959277855], [-1.172942423959983, 44.8460372398188], [-1.173250950292095, 44.84625508186644], [-1.173527979148106, 44.8464933877368], [-1.173770842457061, 44.8467498626636], [-1.173977201049036, 44.84702203688849], [-1.174145067192727, 44.84730728943721], [-1.174272823753206, 44.847602873352706], [-1.174359239784717, 44.847905942143036], [-1.174403482407653, 44.84821357718904], [-1.174405124854458, 44.8485228158485], [-1.174364150606041, 44.84883067998598], [-1.174280953577805, 44.84913420465386], [-1.174156334352516, 44.84943046664821], [-1.17399149249523, 44.84971661266454], [-1.173788015023368, 44.84998988678196], [-1.173547861142076, 44.85024765701122], [-1.173273343391154, 44.85048744065009], [-1.172967105384555, 44.85070692820227], [-1.17263209635639, 44.85090400562858], [-1.172271542758409, 44.85107677471615], [-1.171888917182439, 44.85122357136878], [-1.171487904907307, 44.85134298164216], [-1.171072368392773, 44.85143385536911], [-1.170646310063015, 44.851495317243234], [-1.170213833738786, 44.8515267752541], [-1.169779105090543, 44.85152792639244], [-1.169346311494353, 44.85149875957031], [-1.168919621678216, 44.851439555727836], [-1.16850314554844, 44.851350885125846], [-1.168100894584018, 44.85123360185033], [-1.16771674318135, 44.851088835581635], [-1.167354391322493, 44.850917980708246], [-1.167017328927165, 44.85072268288999], [-1.166708802232403, 44.85050482320041], [-1.166431782524089, 44.85026650000146], [-1.166188937521632, 44.850010008725405], [-1.165982605691452, 44.8497378197588], [-1.16581477373641, 44.84945255464249], [-1.165687057477584, 44.84915696081645], [-1.165600686311959, 44.84885388515352], [-1.165556491394975, 44.84854624653692]]]}}, {"type": "Feature", "properties": {"nb_detections_cluster": 4, "frp_max": 6.03, "frp_moyen": 3.54, "derniere_detection": "2026-07-28T01:13:00", "fetch_timestamp": "2026-07-28T02:53:00"}, "geometry": {"type": "Polygon", "coordinates": [[[-1.1798, 44.87698], [-1.17966, 44.87771], [-1.17282, 44.87419], [-1.17762, 44.87342], [-1.1798, 44.87698]]]}}, {"type": "Feature", "properties": {"nb_detections_cluster": 7, "frp_max": 5.22, "frp_moyen": 1.78, "derniere_detection": "2026-07-28T02:53:00", "fetch_timestamp": "2026-07-28T02:53:00"}, "geometry": {"type": "Polygon", "coordinates": [[[-1.10879, 44.93298], [-1.10883, 44.93509], [-1.10444, 44.93626], [-1.1015, 44.93747], [-1.10323, 44.9328], [-1.10521, 44.9296], [-1.10879, 44.93298]]]}}, {"type": "Feature", "properties": {"nb_detections_cluster": 2, "frp_max": 7.57, "frp_moyen": 7.27, "derniere_detection": "2026-07-27T12:57:00", "fetch_timestamp": "2026-07-28T02:53:00"}, "geometry": {"type": "Polygon", "coordinates": [[[-0.892211842854808, 44.770555348176636], [-0.892211754064363, 44.770246115406266], [-0.892254215049282, 44.7699383655015], [-0.892338816200956, 44.76963506221273], [-0.8924647421177, 44.76933912641932], [-0.892630779482354, 44.76905340800369], [-0.892835328769537, 44.76878065841087], [-0.893076419668971, 44.768523504157386], [-0.893351730075574, 44.76828442154468], [-0.893658608462894, 44.7680657128199], [-0.893994099424018, 44.76786948401363], [-0.894354972133747, 44.76769762466739], [-0.894737751457992, 44.76755178964596], [-0.895138751410923, 44.76743338320903], [-0.895554110638121, 44.76734354549564], [-0.895979829584521, 44.767283141550855], [-0.896411808989989, 44.76725275300039], [-0.896845889342603, 44.767252672452905], [-0.897277890910686, 44.76728290068397], [-0.897703653969022, 44.76734314662863], [-0.898119078832933, 44.76743283018258], [-0.898520165315641, 44.76755108778515], [-0.898903051229911, 44.76769678073052], [-0.899264049564003, 44.76786850612702], [-0.899599683974664, 44.76806461039987], [-0.899906722255921, 44.76828320520681], [-0.900182207461716, 44.768522185614316], [-0.900423486382902, 44.768779250359586], [-0.900628235104323, 44.76905192400333], [-0.900794481395638, 44.76933758076055], [-0.900920623719909, 44.76963346978025], [-0.901005446676258, 44.76993674163067], [-0.901048132727176, 44.77024447573544], [-0.90104827009669, 44.77055370849661], [-0.901005856762346, 44.7708614618338], [-0.900921300501566, 44.77116477186475], [-0.900795414990904, 44.771460717450935], [-0.900629411994737, 44.77174644833363], [-0.900424889717682, 44.77201921258873], [-0.900183817432036, 44.772276383136195], [-0.899908516527561, 44.77251548304845], [-0.89960163816555, 44.77273420941352], [-0.899266137751944, 44.772930455522925], [-0.898905246475191, 44.773102331170186], [-0.898522440182905, 44.773248180864094], [-0.898121405897278, 44.773366599781106], [-0.897706006292121, 44.77345644730256], [-0.897280242474195, 44.77351685800648], [-0.89684821542803, 44.773547250007404], [-0.896414086496343, 44.77354733056409], [-0.895982037277686, 44.77351709890059], [-0.895556229328456, 44.77345684621377], [-0.895140764058464, 44.773367152867046], [-0.89473964320727, 44.77324888279738], [-0.89435673028287, 44.77310317518978], [-0.89399571333499, 44.77293143349927], [-0.8936600694222, 44.77273531192686], [-0.893353031115634, 44.77251669947964], [-0.893077555362324, 44.77227770176899], [-0.892836295008161, 44.77202062072269], [-0.892631573254783, 44.77174793240648], [-0.892465361296162, 44.77146226316919], [-0.89233925934985, 44.77116636434141], [-0.892254481265026, 44.770863085731854], [-0.892211842854808, 44.770555348176636]]]}}, {"type": "Feature", "properties": {"nb_detections_cluster": 16, "frp_max": 25.09, "frp_moyen": 8.77, "derniere_detection": "2026-07-28T02:34:00", "fetch_timestamp": "2026-07-28T02:53:00"}, "geometry": {"type": "Polygon", "coordinates": [[[-0.87925, 44.77465], [-0.88806, 44.77516], [-0.88329, 44.77831], [-0.87849, 44.7795], [-0.87893, 44.7818], [-0.8758, 44.78067], [-0.86933, 44.7817], [-0.86979, 44.77943], [-0.87369, 44.7774], [-0.87848, 44.77665], [-0.87925, 44.77465]]]}}, {"type": "Feature", "properties": {"nb_detections_cluster": 2, "frp_max": 1.1, "frp_moyen": 1.1, "derniere_detection": "2026-07-27T02:53:00", "fetch_timestamp": "2026-07-28T02:53:00"}, "geometry": {"type": "Polygon", "coordinates": [[[-0.944785777346786, 44.85394886917571], [-0.945012294249914, 44.85386256624512], [-0.945413804352679, 44.85374397452074], [-0.945829721362099, 44.85365394582489], [-0.946256040352653, 44.85359334704161], [-0.946688656287097, 44.85356276167269], [-0.947123403525326, 44.853562484221946], [-0.947556095915337, 44.853592517360944], [-0.947982567081201, 44.85365257190321], [-0.948398710521111, 44.85374206958748], [-0.948800519130295, 44.85386014864289], [-0.949184123769193, 44.854005672082856], [-0.949545830506298, 44.85417723864807], [-0.949882156177695, 44.85437319629324], [-0.950189861921489, 44.85459165808816], [-0.950465984364489, 44.854830520380354], [-0.950707864161065, 44.85508748304463], [-0.950913171609302, 44.85536007162493], [-0.951079929097569, 44.8556456611557], [-0.951206530164933, 44.855941501433605], [-0.951291754991275, 44.85624474349658], [-0.95133478216722, 44.85655246705542], [-0.951335196629636, 44.856861708614105], [-0.951292993685364, 44.85716949000781], [-0.95120857908337, 44.8574728470844], [-0.951082765133629, 44.85776885825261], [-0.950916762909059, 44.85805467262232], [-0.950712170604694, 44.85832753746559], [-0.950470958165293, 44.858584824733846], [-0.950195448328727, 44.858824056375525], [-0.949888294267118, 44.85904292821005], [-0.94955245404065, 44.85923933212794], [-0.949191162109898, 44.85941137640285], [-0.94880789818099, 44.85955740391946], [-0.948406353683858, 44.85967600814144], [-0.947990396206816, 44.85976604666534], [-0.947564032230531, 44.85982665222941], [-0.947131368521025, 44.85985724107128], [-0.946696572554373, 44.85985751855368], [-0.946263832355184, 44.859827482003844], [-0.945837316136662, 44.85976742073928], [-0.945421132131968, 44.859677913279604], [-0.945019289004755, 44.85955982177138], [-0.944635657221087, 44.859414283679705], [-0.944273931755637, 44.85924270082695], [-0.943937596492033, 44.859046725884355], [-0.943629890660796, 44.85882824644681], [-0.943353777638477, 44.858589366844804], [-0.943111916408674, 44.858332387868764], [-0.942906635959793, 44.858059784601565], [-0.942814066342604, 44.85790121025291], [-0.942587529772851, 44.8579875088101], [-0.942185983365112, 44.85810609047395], [-0.941770027544399, 44.858196105646726], [-0.941343668775455, 44.85825668729158], [-0.94091101377416, 44.85828725187654], [-0.940476229932704, 44.85828750499797], [-0.940043505158887, 44.85825744421774], [-0.9396170075173, 44.85819735908678], [-0.939200845062118, 44.85810782835461], [-0.938799026249366, 44.857989714391884], [-0.938415421310841, 44.85784415488002], [-0.938053724962567, 44.857672551847685], [-0.937717420807644, 44.85747655816048], [-0.937409747776883, 44.857258061593846], [-0.937133668930836, 44.857019166643205], [-0.936891842923865, 44.856762174246796], [-0.936686598405071, 44.85648955961672], [-0.936519911602419, 44.856203948392384], [-0.936393387305533, 44.855908091345896], [-0.936308243429735, 44.855604837883874], [-0.936265299309259, 44.855297108600475], [-0.936264967831514, 44.85498786714686], [-0.936307251487186, 44.85468009168772], [-0.936391742373222, 44.85437674621975], [-0.936517626147604, 44.854080752028814], [-0.936683689896836, 44.85379495955997], [-0.936888333839392, 44.853522120971554], [-0.937129586751584, 44.85326486363735], [-0.937405124966529, 44.85302566485154], [-0.937712294762674, 44.85280682798015], [-0.938048137925897, 44.852610460287835], [-0.938409420238745, 44.8524384526536], [-0.938792662622507, 44.85229246137013], [-0.939194174632363, 44.852173892201876], [-0.93961008998344, 44.85208388685481], [-0.940036403766219, 44.85202331198815], [-0.940469010993615, 44.85199275087342], [-0.940903746109357, 44.851992497780884], [-0.941336423078151, 44.85202255514753], [-0.941762875672526, 44.85208263355363], [-0.942178997569446, 44.85217215450815], [-0.942580781871516, 44.852290256016104], [-0.942964359673167, 44.85243580087474], [-0.943326037301227, 44.85260738761849], [-0.943662331872005, 44.85280336400775], [-0.943970004823005, 44.8530218429318], [-0.944246093096739, 44.853260720573246], [-0.944487937676543, 44.85351769665898], [-0.944693209199572, 44.853790296603734], [-0.944785777346786, 44.85394886917571]]]}}, {"type": "Feature", "properties": {"nb_detections_cluster": 10, "frp_max": 84.32, "frp_moyen": 23.35, "derniere_detection": "2026-07-28T02:34:00", "fetch_timestamp": "2026-07-28T02:53:00"}, "geometry": {"type": "Polygon", "coordinates": [[[-0.89809, 44.88432], [-0.9031, 44.88482], [-0.89769, 44.88585], [-0.89349, 44.88472], [-0.89224, 44.88209], [-0.89357, 44.87949], [-0.89767, 44.87982], [-0.89468, 44.88178], [-0.89809, 44.88432]]]}}, {"type": "Feature", "properties": {"nb_detections_cluster": 1, "frp_max": 10.31, "frp_moyen": 10.31, "derniere_detection": "2026-07-27T14:20:00", "fetch_timestamp": "2026-07-28T02:53:00"}, "geometry": {"type": "Polygon", "coordinates": [[[-0.955241284586383, 44.906887867574014], [-0.95524084822823, 44.906578621169444], [-0.955283066678607, 44.90627083349709], [-0.95536753266109, 44.90596746867139], [-0.955493432072175, 44.90567144816475], [-0.955659551846514, 44.90538562267574], [-0.955864291661877, 44.90511274468079], [-0.95610567937027, 44.9048554419332], [-0.956381390005838, 44.90461619216459], [-0.956688768185943, 44.90439729923193], [-0.957024853689267, 44.9042008709398], [-0.95738640996441, 44.90402879875074], [-0.957769955294435, 44.9038827395791], [-0.958171796317416, 44.903764099843], [-0.958588063580577, 44.903674021927955], [-0.959014748786177, 44.90361337319194], [-0.959447743371186, 44.90358273761774], [-0.959882878050067, 44.90358241019258], [-0.960315962940804, 44.90361239406923], [-0.960742827888749, 44.90367240053555], [-0.961159362600993, 44.90376185179323], [-0.961561556205767, 44.90387988651843], [-0.961945535856845, 44.90402536815146], [-0.962307604012026, 44.904196895835604], [-0.962644274027438, 44.904392817900025], [-0.96295230372543, 44.90461124775715], [-0.963228726613187, 44.90485008206215], [-0.963470880451611, 44.90510702095932], [-0.963676432899351, 44.90537959022161], [-0.963843403984789, 44.90566516506954], [-0.963970185189214, 44.905960995441255], [-0.964055554956777, 44.90626423247018], [-0.964098690481169, 44.90657195591567], [-0.964099175654627, 44.906881202282875], [-0.964057005101748, 44.90718899336076], [-0.963972584258285, 44.90749236490398], [-0.963846725493074, 44.907788395182024], [-0.963680640309465, 44.90807423312079], [-0.963475927700386, 44.90834712576541], [-0.963234558768309, 44.908604444799614], [-0.962958857757523, 44.90884371186588], [-0.962651479680794, 44.9090626224425], [-0.962315384755466, 44.90925906804687], [-0.961953809895022, 44.90943115655115], [-0.961570237530621, 44.90957723041397], [-0.961168362063105, 44.90969588265268], [-0.960752054268935, 44.909785970401245], [-0.960325324003436, 44.909846625923834], [-0.959892281561264, 44.90987726497685], [-0.959457098067078, 44.90987759243936], [-0.95902396527884, 44.9098476051572], [-0.958597055191877, 44.90978759197334], [-0.958180479833757, 44.909698130944264], [-0.957778251638253, 44.90958008376931], [-0.957394244780892, 44.909434587486615], [-0.957032157849396, 44.90926304351585], [-0.956695478209202, 44.9090671041538], [-0.956387448407834, 44.90884865665267], [-0.956111034942082, 44.90860980503546], [-0.955868899688959, 44.90835284982305], [-0.955663374275595, 44.90808026586959], [-0.955496437634691, 44.90779467851907], [-0.955369696961276, 44.90749883831383], [-0.955284372253613, 44.90719559449834], [-0.955241284586383, 44.906887867574014]]]}}, {"type": "Feature", "properties": {"nb_detections_cluster": 1, "frp_max": 10.31, "frp_moyen": 10.31, "derniere_detection": "2026-07-27T14:20:00", "fetch_timestamp": "2026-07-28T02:53:00"}, "geometry": {"type": "Polygon", "coordinates": [[[-0.96472130495974, 44.90696824542886], [-0.964720816357005, 44.906658999056134], [-0.964762982870593, 44.906351207776375], [-0.964847397724226, 44.90604783573885], [-0.964973247306732, 44.90575180448547], [-0.965139319032544, 44.90546596481836], [-0.965344013042046, 44.90519306935052], [-0.965585357628236, 44.904935746003574], [-0.965861028240397, 44.90469647270754], [-0.966168369881168, 44.904477553545995], [-0.966504422680959, 44.904281096576064], [-0.966865950403157, 44.90410899353653], [-0.967249471605649, 44.903962901638785], [-0.967651293158734, 44.90384422761611], [-0.968067545797019, 44.903754114184146], [-0.968494221363518, 44.903693429042896], [-0.96892721138797, 44.90366275652568], [-0.969362346628726, 44.90366239197542], [-0.96979543719836, 44.90369233890237], [-0.970222312887566, 44.90375230895021], [-0.970638863300059, 44.90384172467126], [-0.971041077412964, 44.90395972508389], [-0.971425082182669, 44.90410517395883], [-0.97178717982521, 44.9042766707548], [-0.972123883412889, 44.90447256409837], [-0.972431950444905, 44.90469096767858], [-0.972708414069061, 44.90492977840366], [-0.972950611654114, 44.90518669664504], [-0.973156210437562, 44.905459248374555], [-0.973323230001691, 44.90574480898165], [-0.973450061361028, 44.90604062854167], [-0.973535482476801, 44.90634385829218], [-0.97357867004825, 44.90665157806271], [-0.973579207466402, 44.90696082439385], [-0.97353708885271, 44.90726861907497], [-0.973452719142688, 44.90757199782608], [-0.973326910212661, 44.90786803884734], [-0.973160873085947, 44.908153890961216], [-0.972956206292538, 44.90842680107635], [-0.972714880493535, 44.90868414070828], [-0.972439219517677, 44.90892343130115], [-0.972131877992002, 44.90914236810667], [-0.971795815781681, 44.90933884238963], [-0.971434269484969, 44.90951096174599], [-0.971050721257784, 44.90965706833728], [-0.970648865268374, 44.90977575486554], [-0.970232572105497, 44.90986587813453], [-0.969805851483479, 44.90992657006629], [-0.96937281360404, 44.90995724606649], [-0.968937629547867, 44.90995761065834], [-0.968504491078336, 44.90992766033003], [-0.968077570245519, 44.90986768356856], [-0.967660979180545, 44.909778258079626], [-0.967258730468542, 44.90966024522024], [-0.966874698482745, 44.909514781698], [-0.966512582053018, 44.90934326861707], [-0.966175868829038, 44.90914735797668], [-0.965867801681925, 44.90892893675248], [-0.965591347468298, 44.90869010871436], [-0.96534916845776, 44.90843317415615], [-0.965143596699004, 44.90816060773311], [-0.964976611571202, 44.90787503462041], [-0.964849820736456, 44.90757920522334], [-0.964764444676202, 44.90727596868237], [-0.96472130495974, 44.90696824542886]]]}}, {"type": "Feature", "properties": {"nb_detections_cluster": 12, "frp_max": 7.78, "frp_moyen": 3.02, "derniere_detection": "2026-07-28T02:53:00", "fetch_timestamp": "2026-07-28T02:53:00"}, "geometry": {"type": "Polygon", "coordinates": [[[-0.86118, 44.7224], [-0.86437, 44.72418], [-0.86136, 44.72448], [-0.859, 44.72678], [-0.85288, 44.72599], [-0.85238, 44.7216], [-0.85332, 44.72034], [-0.86118, 44.7224]]]}}, {"type": "Feature", "properties": {"nb_detections_cluster": 1, "frp_max": 2.56, "frp_moyen": 2.56, "derniere_detection": "2026-07-28T02:34:00", "fetch_timestamp": "2026-07-28T02:53:00"}, "geometry": {"type": "Polygon", "coordinates": [[[-0.800184706582481, 44.73087167791212], [-0.800185123425578, 44.73056244960821], [-0.800228057587476, 44.73025473947376], [-0.800313094903896, 44.72995151087554], [-0.800439415774185, 44.72965568397311], [-0.80060580307929, 44.72937010759969], [-0.800810653925562, 44.72909753183199], [-0.801051995100445, 44.72884058151215], [-0.801327502090451, 44.728601730977445], [-0.801634521477714, 44.72838328023987], [-0.801970096499038, 44.72818733284547], [-0.802330995521086, 44.72801577562574], [-0.802713743157493, 44.72787026053605], [-0.803114653728408, 44.72775218875534], [-0.80352986674066, 44.72766269720013], [-0.803955384047399, 44.72760264758233], [-0.804387108330103, 44.72757261811579], [-0.804820882533172, 44.72757289795164], [-0.805252529872329, 44.727603484395324], [-0.805677894032491, 44.72766408293268], [-0.806092879169052, 44.72775411006427], [-0.806493489328324, 44.727872698921104], [-0.806875866908481, 44.72801870760755], [-0.807236329791411, 44.728190730191585], [-0.807571406788671, 44.72838711023648], [-0.807877871060691, 44.728605956744275], [-0.808152771187806, 44.72884516235741], [-0.808393459594095, 44.72910242364411], [-0.808597618050254, 44.729375263272], [-0.808763280009714, 44.72966105385727], [-0.808888849562517, 44.72995704325964], [-0.808973116823802, 44.7302603810801], [-0.809015269607998, 44.730568146106414], [-0.80901490127543, 44.73087737444225], [-0.808972014674817, 44.73118508804925], [-0.808887022142681, 44.73148832342717], [-0.808760741558644, 44.731784160155975], [-0.808594388493577, 44.73206974902476], [-0.808389564525304, 44.73234233947666], [-0.808148241833478, 44.732599306105186], [-0.807872744221289, 44.732838173946384], [-0.807565724746223, 44.733056642323156], [-0.807230140174847, 44.733252607011586], [-0.806869222507502, 44.73342418051558], [-0.806486447847082, 44.73356971025398], [-0.806085502911954, 44.733687794484915], [-0.805670249515889, 44.73377729581336], [-0.805244687357662, 44.733837352151916], [-0.804812915479415, 44.73386738502836], [-0.804379092765815, 44.733867105160606], [-0.803947397865374, 44.73383651524437], [-0.803521988920927, 44.7337759099273], [-0.803106963498117, 44.73368587296934], [-0.802706319098805, 44.73356727161715], [-0.802323914640648, 44.7334212482465], [-0.801963433274662, 44.73324920935376], [-0.801628346899584, 44.733052812002384], [-0.801321882715369, 44.73283394785538], [-0.801046992138306, 44.73259472494822], [-0.800806322377314, 44.73233744737727], [-0.800602190945168, 44.73206459310067], [-0.80043656334992, 44.73177879006517], [-0.800311034180931, 44.73148279088953], [-0.800226811771132, 44.73117944634834], [-0.800184706582481, 44.73087167791212]]]}}, {"type": "Feature", "properties": {"nb_detections_cluster": 1, "frp_max": 1.26, "frp_moyen": 1.26, "derniere_detection": "2026-07-28T01:13:00", "fetch_timestamp": "2026-07-28T02:53:00"}, "geometry": {"type": "Polygon", "coordinates": [[[-0.808044097797094, 44.73890199162958], [-0.808044471516258, 44.73859276240983], [-0.80808736883307, 44.738285048346995], [-0.808172375937866, 44.73798181284576], [-0.808298673520712, 44.737685976132155], [-0.808465044686581, 44.73740038713401], [-0.808669886697017, 44.737127796049585], [-0.808911226424329, 44.73687082786861], [-0.809186739368767, 44.73663195710032], [-0.809493772054944, 44.73641348395163], [-0.80982936759145, 44.736217512184375], [-0.81019029414728, 44.73604592886481], [-0.81057307607085, 44.7359003861996], [-0.810974027352102, 44.73578228563321], [-0.811389287105844, 44.73569276435941], [-0.81181485673517, 44.73563268437619], [-0.812246638417791, 44.73560262418985], [-0.812680474545488, 44.735602873247274], [-0.813112187737813, 44.735633429150305], [-0.813537621045702, 44.73569399767883], [-0.813952677958858, 44.73578399562239], [-0.81435336183259, 44.735902556393015], [-0.814735814355395, 44.736048538365566], [-0.815096352687655, 44.736220535865215], [-0.81543150491451, 44.736416892696866], [-0.815738043472061, 44.73663571808605], [-0.816013016225376, 44.736874904878604], [-0.8162537748992, 44.73713214982401], [-0.816458000587561, 44.737404975747324], [-0.816623726096418, 44.73769075539676], [-0.816749354903752, 44.73798673673732], [-0.816833676553959, 44.73829006944773], [-0.816875878337542, 44.73859783236502], [-0.816875553142768, 44.738907061613176], [-0.816832703402717, 44.739214779145165], [-0.816747741098696, 44.73951802142296], [-0.816621483818979, 44.739813867960116], [-0.816455146909762, 44.740099469451316], [-0.816250331793038, 44.740372075218154], [-0.816009010562988, 44.74062905970671], [-0.815733507008522, 44.74086794778102], [-0.815426474244178, 44.741086438569134], [-0.815090869164364, 44.74128242763131], [-0.814729923966836, 44.7414540272367], [-0.814347115019564, 44.74159958455277], [-0.813946129371112, 44.74171769757199], [-0.813530829227385, 44.74180722862211], [-0.813105214737454, 44.74186731532938], [-0.812673385447573, 44.74189737892913], [-0.812239500795485, 44.74189712984331], [-0.811807740026403, 44.741866570471124], [-0.811382261917736, 44.741805995166025], [-0.810967164701451, 44.741715987398926], [-0.810566446571067, 44.74159741413524], [-0.810183967154549, 44.74145141748027], [-0.809823410325028, 44.741279403673026], [-0.809488248708202, 44.74108302953536], [-0.809181710228819, 44.7408641865068], [-0.80890674701881, 44.74062498241928], [-0.808666006986687, 44.740367721188065], [-0.808461808322027, 44.74009488061389], [-0.80829611718037, 44.73980908851161], [-0.808170528763021, 44.73951309739474], [-0.808086251973419, 44.73920975796026], [-0.808044097797094, 44.73890199162958]]]}}, {"type": "Feature", "properties": {"nb_detections_cluster": 2, "frp_max": 1.83, "frp_moyen": 1.75, "derniere_detection": "2026-07-27T02:53:00", "fetch_timestamp": "2026-07-28T02:53:00"}, "geometry": {"type": "Polygon", "coordinates": [[[-0.875066769960323, 44.89515543245934], [-0.875314438083565, 44.89506133881028], [-0.875716390024856, 44.894942997677866], [-0.87613272397291, 44.894853228979386], [-0.876559430988408, 44.894792897095336], [-0.876992402298638, 44.89476258295753], [-0.877427468842284, 44.894762578458106], [-0.877860441393291, 44.89479288364039], [-0.878287150878399, 44.894853206698464], [-0.87870348850113, 44.894942966785514], [-0.879105445286797, 44.89506129960396], [-0.879489150668675, 44.895207065723696], [-0.879850909744587, 44.895378861548515], [-0.880187238845822, 44.89557503282542], [-0.880494899076438, 44.89579369056695], [-0.880770927500322, 44.89603272923355], [-0.881012665675885, 44.89628984700134], [-0.88121778526356, 44.89656256792045], [-0.881384310459312, 44.89684826575053], [-0.881510637037709, 44.89714418924498], [-0.881595547820563, 44.897447488639955], [-0.881638224421483, 44.89775524309371], [-0.881638255152313, 44.898064488812224], [-0.881595639014406, 44.898372247590196], [-0.881510785735237, 44.898675555492844], [-0.881384511849004, 44.89897149140203], [-0.881218032857894, 44.89925720515204], [-0.881012951548612, 44.89952994498367], [-0.880771242575755, 44.89978708405198], [-0.880495233459832, 44.900026145732454], [-0.880187582182314, 44.900244827481266], [-0.879851251593084, 44.900441023019525], [-0.879489480876596, 44.90061284262777], [-0.879105754351482, 44.900758631354485], [-0.878703767904334, 44.90087698496329], [-0.878287393381292, 44.90096676346454], [-0.87786064128095, 44.901027102101054], [-0.877427622108605, 44.90105741968149], [-0.876992506764887, 44.90105742418143], [-0.876559486351211, 44.901027115557525], [-0.876132731780174, 44.90096678574794], [-0.875716353580876, 44.90087701585897], [-0.875314362287345, 44.90075867056487], [-0.874930629792418, 44.90061288977516], [-0.874568852040215, 44.90044107764981], [-0.874232513417165, 44.90024488906825], [-0.87392485318513, 44.90002621368295], [-0.873648834280275, 44.89978715771151], [-0.87340711477838, 44.899530023642775], [-0.873202022301391, 44.89925728805315], [-0.873113074581263, 44.899104647593255], [-0.872865384924149, 44.89919873645226], [-0.872463396491358, 44.89931706742481], [-0.872047023560147, 44.89940682249554], [-0.87162027661381, 44.899467137132966], [-0.871187266108012, 44.8994974303769], [-0.870752162859906, 44.899497410437355], [-0.87031915785438, 44.899467077506344], [-0.86989242185558, 44.899406723756236], [-0.86947606521367, 44.899316930523845], [-0.86907409825497, 44.899198562708314], [-0.868690392637856, 44.89905276043608], [-0.868328644047485, 44.89888092807401], [-0.867992336589327, 44.89868472069645], [-0.867684709224987, 44.8984660281369], [-0.867408724573989, 44.89822695677833], [-0.867167040382127, 44.8979698092578], [-0.866961983931205, 44.897697062281196], [-0.866795529636389, 44.89741134276225], [-0.866669280046516, 44.89711540251571], [-0.866584450429786, 44.89681209174907], [-0.86654185709252, 44.89650433160797], [-0.866541909542636, 44.896195086040336], [-0.866584606572359, 44.89588733324997], [-0.866669536296843, 44.895584037014864], [-0.86679588014734, 44.895288118146304], [-0.866962420779397, 44.895002426363554], [-0.867167553818997, 44.89472971285499], [-0.867409303332637, 44.89447260378952], [-0.867685340871638, 44.89423357503325], [-0.867993007906701, 44.8940149283146], [-0.868329341436257, 44.893818769066954], [-0.868691102521775, 44.89364698616195], [-0.869074807475242, 44.89350123372816], [-0.869476761398641, 44.893382915230006], [-0.869893093752836, 44.8932931699597], [-0.870319795613884, 44.89323286207215], [-0.870752758258722, 44.893202572268095], [-0.871187812709472, 44.89320259220537], [-0.871620769856494, 44.89323292169201], [-0.872047460774822, 44.89329326868806], [-0.872463776846706, 44.89338305211623], [-0.872865709304913, 44.89350140745416], [-0.873249387816899, 44.8936471950549], [-0.873611117739143, 44.89381901111541], [-0.873947415683581, 44.89401520118782], [-0.874255043054213, 44.894233876103655], [-0.874531037231274, 44.89447293015796], [-0.874772740102891, 44.89473006137868], [-0.874977823669405, 44.89500279368632], [-0.875066769960323, 44.89515543245934]]]}}]}