{"type": "FeatureCollection", "name": "zone_active", "crs": {"type": "name", "properties": {"name": "urn:ogc:def:crs:OGC:1.3:CRS84"}}, "features": [{"type": "Feature", "properties": {"nb_detections_cluster": 1, "frp_max": 18.25, "frp_moyen": 18.25, "derniere_detection": "2026-07-27T12:38:00", "fetch_timestamp": "2026-07-28T01:13:00"}, "geometry": {"type": "Polygon", "coordinates": [[[-0.976823142154963, 44.7570187197127], [-0.976822588339504, 44.7567094886486], [-0.976864576272659, 44.756401707964386], [-0.976948700901604, 44.75609834170739], [-0.977074151413571, 44.75580231136391], [-0.977239719069254, 44.755516467727375], [-0.97744380886601, 44.755243563449184], [-0.977684454917645, 44.75498622653586], [-0.97795933940195, 44.75474693504815], [-0.978265814892936, 44.75452799324492], [-0.978600929862301, 44.754331509401425], [-0.978961457104322, 44.75415937551526], [-0.979343924810432, 44.7540132490949], [-0.979744649994429, 44.75389453720613], [-0.980159773946763, 44.75380438292928], [-0.980585299377085, 44.75374365435761], [-0.981017128888037, 44.7537129362427], [-0.981451104410641, 44.75371252436652], [-0.981883047222451, 44.753742422695034], [-0.982308798164064, 44.75380234333985], [-0.982724257667753, 44.75389170932901], [-0.983125425213693, 44.75400966015965], [-0.983508437834783, 44.75415506007997], [-0.983869607300084, 44.754326509020025], [-0.984205455619511, 44.75452235606719], [-0.984512748528435, 44.754740715356334], [-0.98478852663009, 44.754979484222126], [-0.985030133896123, 44.75523636343909], [-0.985235243250744, 44.75550887935487], [-0.985401878991956, 44.75579440770382], [-0.985528435833504, 44.756090198871924], [-0.985613694383594, 44.75639340437023], [-0.985656832910602, 44.75670110426189], [-0.985657435281586, 44.75701033527899], [-0.985615494996213, 44.75731811935848], [-0.985531415276224, 44.757621492322556], [-0.985406005208567, 44.75791753242715], [-0.985240471978291, 44.75820338850371], [-0.985036409265093, 44.75847630742281], [-0.98479578191436, 44.75873366061526], [-0.984520907029635, 44.758972969394726], [-0.984214431668003, 44.75919192883782], [-0.983879307352793, 44.75938842999142], [-0.983518761648886, 44.75956058019268], [-0.983136267074323, 44.759706721306145], [-0.982735507647852, 44.759825445701416], [-0.982320343394939, 44.759915609817526], [-0.981894773154662, 44.75997634518309], [-0.981462896046401, 44.760007066785484], [-0.981028871968271, 44.76000747870863], [-0.980596881508681, 44.75997757698483], [-0.980171085658111, 44.75991764963295], [-0.979755585710111, 44.75982827388271], [-0.979354383738764, 44.75971031061201], [-0.978971344034116, 44.7595648960508], [-0.978610155867912, 44.75939343083161], [-0.978274297948904, 44.75919756649269], [-0.977967004910628, 44.758979189563654], [-0.977691236154818, 44.75874040338778], [-0.977449647350674, 44.758483507855736], [-0.977244564864504, 44.758210977246826], [-0.977077963365766, 44.757925436391396], [-0.976951446824797, 44.75762963538403], [-0.976866233084661, 44.75732642309181], [-0.976823142154963, 44.7570187197127]]]}}, {"type": "Feature", "properties": {"nb_detections_cluster": 2, "frp_max": 7.57, "frp_moyen": 7.27, "derniere_detection": "2026-07-27T12:57:00", "fetch_timestamp": "2026-07-28T01:13:00"}, "geometry": {"type": "Polygon", "coordinates": [[[-0.892211842854808, 44.770555348176636], [-0.892211754064363, 44.770246115406266], [-0.892254215049282, 44.7699383655015], [-0.892338816200956, 44.76963506221273], [-0.8924647421177, 44.76933912641932], [-0.892630779482354, 44.76905340800369], [-0.892835328769537, 44.76878065841087], [-0.893076419668971, 44.768523504157386], [-0.893351730075574, 44.76828442154468], [-0.893658608462894, 44.7680657128199], [-0.893994099424018, 44.76786948401363], [-0.894354972133747, 44.76769762466739], [-0.894737751457992, 44.76755178964596], [-0.895138751410923, 44.76743338320903], [-0.895554110638121, 44.76734354549564], [-0.895979829584521, 44.767283141550855], [-0.896411808989989, 44.76725275300039], [-0.896845889342603, 44.767252672452905], [-0.897277890910686, 44.76728290068397], [-0.897703653969022, 44.76734314662863], [-0.898119078832933, 44.76743283018258], [-0.898520165315641, 44.76755108778515], [-0.898903051229911, 44.76769678073052], [-0.899264049564003, 44.76786850612702], [-0.899599683974664, 44.76806461039987], [-0.899906722255921, 44.76828320520681], [-0.900182207461716, 44.768522185614316], [-0.900423486382902, 44.768779250359586], [-0.900628235104323, 44.76905192400333], [-0.900794481395638, 44.76933758076055], [-0.900920623719909, 44.76963346978025], [-0.901005446676258, 44.76993674163067], [-0.901048132727176, 44.77024447573544], [-0.90104827009669, 44.77055370849661], [-0.901005856762346, 44.7708614618338], [-0.900921300501566, 44.77116477186475], [-0.900795414990904, 44.771460717450935], [-0.900629411994737, 44.77174644833363], [-0.900424889717682, 44.77201921258873], [-0.900183817432036, 44.772276383136195], [-0.899908516527561, 44.77251548304845], [-0.89960163816555, 44.77273420941352], [-0.899266137751944, 44.772930455522925], [-0.898905246475191, 44.773102331170186], [-0.898522440182905, 44.773248180864094], [-0.898121405897278, 44.773366599781106], [-0.897706006292121, 44.77345644730256], [-0.897280242474195, 44.77351685800648], [-0.89684821542803, 44.773547250007404], [-0.896414086496343, 44.77354733056409], [-0.895982037277686, 44.77351709890059], [-0.895556229328456, 44.77345684621377], [-0.895140764058464, 44.773367152867046], [-0.89473964320727, 44.77324888279738], [-0.89435673028287, 44.77310317518978], [-0.89399571333499, 44.77293143349927], [-0.8936600694222, 44.77273531192686], [-0.893353031115634, 44.77251669947964], [-0.893077555362324, 44.77227770176899], [-0.892836295008161, 44.77202062072269], [-0.892631573254783, 44.77174793240648], [-0.892465361296162, 44.77146226316919], [-0.89233925934985, 44.77116636434141], [-0.892254481265026, 44.770863085731854], [-0.892211842854808, 44.770555348176636]]]}}, {"type": "Feature", "properties": {"nb_detections_cluster": 4, "frp_max": 6.07, "frp_moyen": 4.3, "derniere_detection": "2026-07-27T12:57:00", "fetch_timestamp": "2026-07-28T01:13:00"}, "geometry": {"type": "Polygon", "coordinates": [[[-1.209382651086416, 44.77187798861119], [-1.20938081858247, 44.7715687584476], [-1.209421544891613, 44.771260889391186], [-1.209504437110011, 44.7709573463418], [-1.20962869629178, 44.77066105248976], [-1.2097931251682, 44.77037486116747], [-1.209996139700535, 44.77010152837575], [-1.210235784354354, 44.76984368624883], [-1.210509750947518, 44.769603817713474], [-1.210815400889723, 44.76938423258616], [-1.211149790599031, 44.76918704533768], [-1.211509699850396, 44.76901415473953], [-1.211891662783166, 44.76886722558718], [-1.212292001269144, 44.768747672676284], [-1.21270686032023, 44.768656647185665], [-1.213132245195214, 44.7685950255976], [-1.213564059849107, 44.76856340126249], [-1.21399814635555, 44.768562078688284], [-1.214430324923604, 44.768591070609915], [-1.21485643412455, 44.76865009786674], [-1.215272370942325, 44.76873859208925], [-1.215674130262883, 44.768855701168924], [-1.21605784342317, 44.7690002974594], [-1.216419815449289, 44.76917098862931], [-1.216756560625996, 44.769366131063215], [-1.217064836055542, 44.76958384568145], [-1.217341672883076, 44.76982203602725], [-1.217584404888106, 44.77007840844688], [-1.217790694166669, 44.7703504941693], [-1.217958553656689, 44.77063567307267], [-1.21808636628921, 44.770931198909395], [-1.21817290058049, 44.77123422574707], [-1.218217322514075, 44.771541835370805], [-1.218219203597583, 44.77185106538347], [-1.218178525015634, 44.77215893773324], [-1.218095677837936, 44.772462487393604], [-1.217971459279481, 44.772758790920285], [-1.217807065047859, 44.773044994609], [-1.217604077850425, 44.77331834198374], [-1.217364452171145, 44.77357620034988], [-1.217090495462977, 44.77381608615652], [-1.216784845936353, 44.77403568892352], [-1.216450447157237, 44.77423289350218], [-1.216090519699226, 44.77440580045504], [-1.215708530122639, 44.7745527443581], [-1.21530815757958, 44.774672309848825], [-1.214893258366949, 44.77476334526501], [-1.214467828769338, 44.77482497374291], [-1.2140359665504, 44.77485660166736], [-1.213601831464395, 44.77485792439247], [-1.213169605169145, 44.77482892917749], [-1.2127434509275, 44.77476989530965], [-1.212327473486411, 44.77468139141255], [-1.211925679521056, 44.77456426996642], [-1.211541939025868, 44.77441965909293], [-1.21117994802521, 44.7742489516838], [-1.210843192963505, 44.77405379197859], [-1.21053491711838, 44.77383605972067], [-1.210258089360654, 44.773597852044695], [-1.210015375562273, 44.773341463270384], [-1.209809112927526, 44.77306936279725], [-1.209641287494584, 44.77278417131402], [-1.209513515023608, 44.77248863555175], [-1.209427025454957, 44.77218560182425], [-1.209382651086416, 44.77187798861119]]]}}, {"type": "Feature", "properties": {"nb_detections_cluster": 2, "frp_max": 1.1, "frp_moyen": 1.1, "derniere_detection": "2026-07-27T02:53:00", "fetch_timestamp": "2026-07-28T01:13:00"}, "geometry": {"type": "Polygon", "coordinates": [[[-0.944785777346786, 44.85394886917571], [-0.945012294249914, 44.85386256624512], [-0.945413804352679, 44.85374397452074], [-0.945829721362099, 44.85365394582489], [-0.946256040352653, 44.85359334704161], [-0.946688656287097, 44.85356276167269], [-0.947123403525326, 44.853562484221946], [-0.947556095915337, 44.853592517360944], [-0.947982567081201, 44.85365257190321], [-0.948398710521111, 44.85374206958748], [-0.948800519130295, 44.85386014864289], [-0.949184123769193, 44.854005672082856], [-0.949545830506298, 44.85417723864807], [-0.949882156177695, 44.85437319629324], [-0.950189861921489, 44.85459165808816], [-0.950465984364489, 44.854830520380354], [-0.950707864161065, 44.85508748304463], [-0.950913171609302, 44.85536007162493], [-0.951079929097569, 44.8556456611557], [-0.951206530164933, 44.855941501433605], [-0.951291754991275, 44.85624474349658], [-0.95133478216722, 44.85655246705542], [-0.951335196629636, 44.856861708614105], [-0.951292993685364, 44.85716949000781], [-0.95120857908337, 44.8574728470844], [-0.951082765133629, 44.85776885825261], [-0.950916762909059, 44.85805467262232], [-0.950712170604694, 44.85832753746559], [-0.950470958165293, 44.858584824733846], [-0.950195448328727, 44.858824056375525], [-0.949888294267118, 44.85904292821005], [-0.94955245404065, 44.85923933212794], [-0.949191162109898, 44.85941137640285], [-0.94880789818099, 44.85955740391946], [-0.948406353683858, 44.85967600814144], [-0.947990396206816, 44.85976604666534], [-0.947564032230531, 44.85982665222941], [-0.947131368521025, 44.85985724107128], [-0.946696572554373, 44.85985751855368], [-0.946263832355184, 44.859827482003844], [-0.945837316136662, 44.85976742073928], [-0.945421132131968, 44.859677913279604], [-0.945019289004755, 44.85955982177138], [-0.944635657221087, 44.859414283679705], [-0.944273931755637, 44.85924270082695], [-0.943937596492033, 44.859046725884355], [-0.943629890660796, 44.85882824644681], [-0.943353777638477, 44.858589366844804], [-0.943111916408674, 44.858332387868764], [-0.942906635959793, 44.858059784601565], [-0.942814066342604, 44.85790121025291], [-0.942587529772851, 44.8579875088101], [-0.942185983365112, 44.85810609047395], [-0.941770027544399, 44.858196105646726], [-0.941343668775455, 44.85825668729158], [-0.94091101377416, 44.85828725187654], [-0.940476229932704, 44.85828750499797], [-0.940043505158887, 44.85825744421774], [-0.9396170075173, 44.85819735908678], [-0.939200845062118, 44.85810782835461], [-0.938799026249366, 44.857989714391884], [-0.938415421310841, 44.85784415488002], [-0.938053724962567, 44.857672551847685], [-0.937717420807644, 44.85747655816048], [-0.937409747776883, 44.857258061593846], [-0.937133668930836, 44.857019166643205], [-0.936891842923865, 44.856762174246796], [-0.936686598405071, 44.85648955961672], [-0.936519911602419, 44.856203948392384], [-0.936393387305533, 44.855908091345896], [-0.936308243429735, 44.855604837883874], [-0.936265299309259, 44.855297108600475], [-0.936264967831514, 44.85498786714686], [-0.936307251487186, 44.85468009168772], [-0.936391742373222, 44.85437674621975], [-0.936517626147604, 44.854080752028814], [-0.936683689896836, 44.85379495955997], [-0.936888333839392, 44.853522120971554], [-0.937129586751584, 44.85326486363735], [-0.937405124966529, 44.85302566485154], [-0.937712294762674, 44.85280682798015], [-0.938048137925897, 44.852610460287835], [-0.938409420238745, 44.8524384526536], [-0.938792662622507, 44.85229246137013], [-0.939194174632363, 44.852173892201876], [-0.93961008998344, 44.85208388685481], [-0.940036403766219, 44.85202331198815], [-0.940469010993615, 44.85199275087342], [-0.940903746109357, 44.851992497780884], [-0.941336423078151, 44.85202255514753], [-0.941762875672526, 44.85208263355363], [-0.942178997569446, 44.85217215450815], [-0.942580781871516, 44.852290256016104], [-0.942964359673167, 44.85243580087474], [-0.943326037301227, 44.85260738761849], [-0.943662331872005, 44.85280336400775], [-0.943970004823005, 44.8530218429318], [-0.944246093096739, 44.853260720573246], [-0.944487937676543, 44.85351769665898], [-0.944693209199572, 44.853790296603734], [-0.944785777346786, 44.85394886917571]]]}}, {"type": "Feature", "properties": {"nb_detections_cluster": 1, "frp_max": 0.98, "frp_moyen": 0.98, "derniere_detection": "2026-07-27T01:32:00", "fetch_timestamp": "2026-07-28T01:13:00"}, "geometry": {"type": "Polygon", "coordinates": [[[-0.975613641390349, 44.877738678079595], [-0.975613093046084, 44.87742943456989], [-0.975655177893724, 44.87712164195933], [-0.975739489944156, 44.87681826441007], [-0.975865216576865, 44.876522223517156], [-0.97603114639086, 44.87623637017562], [-0.976235680893591, 44.875963457130204], [-0.976476849914446, 44.87570611247188], [-0.976752330593596, 44.87546681433592], [-0.977059469762797, 44.87524786704518], [-0.977395309502177, 44.87505137892771], [-0.977756615626679, 44.87487924202218], [-0.978139908827842, 44.87473311386617], [-0.978541498171174, 44.874614401542104], [-0.978957516626938, 44.874524248134485], [-0.979383958292736, 44.874463521728174], [-0.979816716950149, 44.8744328070539], [-0.980251625584964, 44.87443239986049], [-0.980684496491363, 44.874462304068814], [-0.981111161574835, 44.87452223173389], [-0.981527512466743, 44.87461160581613], [-0.981929540065199, 44.87472956573482], [-0.982313373122446, 44.87487497565063], [-0.982675315507958, 44.87504643539742], [-0.983011881789144, 44.875242293958564], [-0.983319830787586, 44.875460665358034], [-0.983596196788007, 44.87569944681394], [-0.983838318099662, 44.875956338979606], [-0.984043862695063, 44.87622886807801], [-0.984210850678922, 44.87651440971659], [-0.984337673370556, 44.87681021415337], [-0.98442310881538, 44.87711343277166], [-0.984466333575391, 44.87742114550822], [-0.984466930684223, 44.87773038897146], [-0.984424893689209, 44.87803818497846], [-0.984340626740508, 44.87834156923653], [-0.984214940725405, 44.87863761989281], [-0.984049045483979, 44.87892348567711], [-0.983844538180173, 44.87919641336643], [-0.983603387939363, 44.879453774307116], [-0.983327916899668, 44.87969308973815], [-0.983020777858896, 44.87991205467206], [-0.982684928731982, 44.88010856010276], [-0.982323604064739, 44.88028071332621], [-0.981940283878219, 44.880426856177785], [-0.981538660143943, 44.8805455810103], [-0.981122601213274, 44.88063574425857], [-0.980696114544038, 44.88069647745954], [-0.980263308084111, 44.88072719562141], [-0.979828350684728, 44.88072760286126], [-0.979395431925704, 44.880697695256515], [-0.9789687217405, 44.88063776088264], [-0.978552330230986, 44.88054837703703], [-0.978150268059961, 44.88043040467558], [-0.977766407803788, 44.88028498011584], [-0.977404446638232, 44.88011350408667], [-0.97706787071759, 44.87991762823046], [-0.976759921590721, 44.87969923918783], [-0.976483564977835, 44.87946044041871], [-0.97624146220892, 44.879203531935126], [-0.976035944598877, 44.87893098814115], [-0.975868991005961, 44.87864543399412], [-0.975742208789233, 44.878349619716694], [-0.975656818347846, 44.87804639430374], [-0.975613641390349, 44.877738678079595]]]}}, {"type": "Feature", "properties": {"nb_detections_cluster": 4, "frp_max": 6.03, "frp_moyen": 3.54, "derniere_detection": "2026-07-28T01:13:00", "fetch_timestamp": "2026-07-28T01:13:00"}, "geometry": {"type": "Polygon", "coordinates": [[[-1.1798, 44.87698], [-1.17966, 44.87771], [-1.17282, 44.87419], [-1.17762, 44.87342], [-1.1798, 44.87698]]]}}, {"type": "Feature", "properties": {"nb_detections_cluster": 1, "frp_max": 10.31, "frp_moyen": 10.31, "derniere_detection": "2026-07-27T14:20:00", "fetch_timestamp": "2026-07-28T01:13:00"}, "geometry": {"type": "Polygon", "coordinates": [[[-0.955241284586383, 44.906887867574014], [-0.95524084822823, 44.906578621169444], [-0.955283066678607, 44.90627083349709], [-0.95536753266109, 44.90596746867139], [-0.955493432072175, 44.90567144816475], [-0.955659551846514, 44.90538562267574], [-0.955864291661877, 44.90511274468079], [-0.95610567937027, 44.9048554419332], [-0.956381390005838, 44.90461619216459], [-0.956688768185943, 44.90439729923193], [-0.957024853689267, 44.9042008709398], [-0.95738640996441, 44.90402879875074], [-0.957769955294435, 44.9038827395791], [-0.958171796317416, 44.903764099843], [-0.958588063580577, 44.903674021927955], [-0.959014748786177, 44.90361337319194], [-0.959447743371186, 44.90358273761774], [-0.959882878050067, 44.90358241019258], [-0.960315962940804, 44.90361239406923], [-0.960742827888749, 44.90367240053555], [-0.961159362600993, 44.90376185179323], [-0.961561556205767, 44.90387988651843], [-0.961945535856845, 44.90402536815146], [-0.962307604012026, 44.904196895835604], [-0.962644274027438, 44.904392817900025], [-0.96295230372543, 44.90461124775715], [-0.963228726613187, 44.90485008206215], [-0.963470880451611, 44.90510702095932], [-0.963676432899351, 44.90537959022161], [-0.963843403984789, 44.90566516506954], [-0.963970185189214, 44.905960995441255], [-0.964055554956777, 44.90626423247018], [-0.964098690481169, 44.90657195591567], [-0.964099175654627, 44.906881202282875], [-0.964057005101748, 44.90718899336076], [-0.963972584258285, 44.90749236490398], [-0.963846725493074, 44.907788395182024], [-0.963680640309465, 44.90807423312079], [-0.963475927700386, 44.90834712576541], [-0.963234558768309, 44.908604444799614], [-0.962958857757523, 44.90884371186588], [-0.962651479680794, 44.9090626224425], [-0.962315384755466, 44.90925906804687], [-0.961953809895022, 44.90943115655115], [-0.961570237530621, 44.90957723041397], [-0.961168362063105, 44.90969588265268], [-0.960752054268935, 44.909785970401245], [-0.960325324003436, 44.909846625923834], [-0.959892281561264, 44.90987726497685], [-0.959457098067078, 44.90987759243936], [-0.95902396527884, 44.9098476051572], [-0.958597055191877, 44.90978759197334], [-0.958180479833757, 44.909698130944264], [-0.957778251638253, 44.90958008376931], [-0.957394244780892, 44.909434587486615], [-0.957032157849396, 44.90926304351585], [-0.956695478209202, 44.9090671041538], [-0.956387448407834, 44.90884865665267], [-0.956111034942082, 44.90860980503546], [-0.955868899688959, 44.90835284982305], [-0.955663374275595, 44.90808026586959], [-0.955496437634691, 44.90779467851907], [-0.955369696961276, 44.90749883831383], [-0.955284372253613, 44.90719559449834], [-0.955241284586383, 44.906887867574014]]]}}, {"type": "Feature", "properties": {"nb_detections_cluster": 1, "frp_max": 10.31, "frp_moyen": 10.31, "derniere_detection": "2026-07-27T14:20:00", "fetch_timestamp": "2026-07-28T01:13:00"}, "geometry": {"type": "Polygon", "coordinates": [[[-0.96472130495974, 44.90696824542886], [-0.964720816357005, 44.906658999056134], [-0.964762982870593, 44.906351207776375], [-0.964847397724226, 44.90604783573885], [-0.964973247306732, 44.90575180448547], [-0.965139319032544, 44.90546596481836], [-0.965344013042046, 44.90519306935052], [-0.965585357628236, 44.904935746003574], [-0.965861028240397, 44.90469647270754], [-0.966168369881168, 44.904477553545995], [-0.966504422680959, 44.904281096576064], [-0.966865950403157, 44.90410899353653], [-0.967249471605649, 44.903962901638785], [-0.967651293158734, 44.90384422761611], [-0.968067545797019, 44.903754114184146], [-0.968494221363518, 44.903693429042896], [-0.96892721138797, 44.90366275652568], [-0.969362346628726, 44.90366239197542], [-0.96979543719836, 44.90369233890237], [-0.970222312887566, 44.90375230895021], [-0.970638863300059, 44.90384172467126], [-0.971041077412964, 44.90395972508389], [-0.971425082182669, 44.90410517395883], [-0.97178717982521, 44.9042766707548], [-0.972123883412889, 44.90447256409837], [-0.972431950444905, 44.90469096767858], [-0.972708414069061, 44.90492977840366], [-0.972950611654114, 44.90518669664504], [-0.973156210437562, 44.905459248374555], [-0.973323230001691, 44.90574480898165], [-0.973450061361028, 44.90604062854167], [-0.973535482476801, 44.90634385829218], [-0.97357867004825, 44.90665157806271], [-0.973579207466402, 44.90696082439385], [-0.97353708885271, 44.90726861907497], [-0.973452719142688, 44.90757199782608], [-0.973326910212661, 44.90786803884734], [-0.973160873085947, 44.908153890961216], [-0.972956206292538, 44.90842680107635], [-0.972714880493535, 44.90868414070828], [-0.972439219517677, 44.90892343130115], [-0.972131877992002, 44.90914236810667], [-0.971795815781681, 44.90933884238963], [-0.971434269484969, 44.90951096174599], [-0.971050721257784, 44.90965706833728], [-0.970648865268374, 44.90977575486554], [-0.970232572105497, 44.90986587813453], [-0.969805851483479, 44.90992657006629], [-0.96937281360404, 44.90995724606649], [-0.968937629547867, 44.90995761065834], [-0.968504491078336, 44.90992766033003], [-0.968077570245519, 44.90986768356856], [-0.967660979180545, 44.909778258079626], [-0.967258730468542, 44.90966024522024], [-0.966874698482745, 44.909514781698], [-0.966512582053018, 44.90934326861707], [-0.966175868829038, 44.90914735797668], [-0.965867801681925, 44.90892893675248], [-0.965591347468298, 44.90869010871436], [-0.96534916845776, 44.90843317415615], [-0.965143596699004, 44.90816060773311], [-0.964976611571202, 44.90787503462041], [-0.964849820736456, 44.90757920522334], [-0.964764444676202, 44.90727596868237], [-0.96472130495974, 44.90696824542886]]]}}, {"type": "Feature", "properties": {"nb_detections_cluster": 3, "frp_max": 5.22, "frp_moyen": 2.37, "derniere_detection": "2026-07-28T01:13:00", "fetch_timestamp": "2026-07-28T01:13:00"}, "geometry": {"type": "Polygon", "coordinates": [[[-1.10879, 44.93298], [-1.10444, 44.93626], [-1.10323, 44.9328], [-1.10879, 44.93298]]]}}, {"type": "Feature", "properties": {"nb_detections_cluster": 16, "frp_max": 25.09, "frp_moyen": 8.75, "derniere_detection": "2026-07-27T14:20:00", "fetch_timestamp": "2026-07-28T01:13:00"}, "geometry": {"type": "Polygon", "coordinates": [[[-0.88832, 44.77559], [-0.88806, 44.77764], [-0.88187, 44.77715], [-0.87893, 44.7818], [-0.87849, 44.7795], [-0.86933, 44.7817], [-0.87369, 44.7774], [-0.87848, 44.77665], [-0.87925, 44.77465], [-0.88806, 44.77516], [-0.88832, 44.77559]]]}}, {"type": "Feature", "properties": {"nb_detections_cluster": 10, "frp_max": 84.32, "frp_moyen": 23.27, "derniere_detection": "2026-07-28T01:13:00", "fetch_timestamp": "2026-07-28T01:13:00"}, "geometry": {"type": "Polygon", "coordinates": [[[-0.896, 44.88251], [-0.9031, 44.88482], [-0.89769, 44.88585], [-0.89349, 44.88472], [-0.89468, 44.88178], [-0.89224, 44.88209], [-0.89767, 44.87982], [-0.89721, 44.88014], [-0.896, 44.88251]]]}}, {"type": "Feature", "properties": {"nb_detections_cluster": 8, "frp_max": 7.78, "frp_moyen": 3.36, "derniere_detection": "2026-07-28T01:13:00", "fetch_timestamp": "2026-07-28T01:13:00"}, "geometry": {"type": "Polygon", "coordinates": [[[-0.86118, 44.7224], [-0.86437, 44.72418], [-0.86136, 44.72448], [-0.859, 44.72678], [-0.85288, 44.72599], [-0.85332, 44.72034], [-0.86118, 44.7224]]]}}, {"type": "Feature", "properties": {"nb_detections_cluster": 2, "frp_max": 1.52, "frp_moyen": 1.39, "derniere_detection": "2026-07-28T01:13:00", "fetch_timestamp": "2026-07-28T01:13:00"}, "geometry": {"type": "Polygon", "coordinates": [[[-0.816696193501653, 44.73786148892232], [-0.816749354903752, 44.73798673673732], [-0.816833676553959, 44.73829006944773], [-0.816875878337542, 44.73859783236502], [-0.816875553142768, 44.738907061613176], [-0.816832703402717, 44.739214779145165], [-0.816747741098696, 44.73951802142296], [-0.816621483818979, 44.739813867960116], [-0.816455146909762, 44.740099469451316], [-0.816250331793038, 44.740372075218154], [-0.816009010562988, 44.74062905970671], [-0.815733507008522, 44.74086794778102], [-0.815426474244178, 44.741086438569134], [-0.815090869164364, 44.74128242763131], [-0.814729923966836, 44.7414540272367], [-0.814347115019564, 44.74159958455277], [-0.813946129371112, 44.74171769757199], [-0.813530829227385, 44.74180722862211], [-0.813105214737454, 44.74186731532938], [-0.812673385447573, 44.74189737892913], [-0.812239500795485, 44.74189712984331], [-0.811807740026403, 44.741866570471124], [-0.811382261917736, 44.741805995166025], [-0.810967164701451, 44.741715987398926], [-0.810566446571067, 44.74159741413524], [-0.810183967154549, 44.74145141748027], [-0.809823410325028, 44.741279403673026], [-0.809488248708202, 44.74108302953536], [-0.809181710228819, 44.7408641865068], [-0.80890674701881, 44.74062498241928], [-0.808666006986687, 44.740367721188065], [-0.808461808322027, 44.74009488061389], [-0.80829611718037, 44.73980908851161], [-0.808170528763021, 44.73951309739474], [-0.808086251973419, 44.73920975796026], [-0.808044097797094, 44.73890199162958], [-0.808044471516258, 44.73859276240983], [-0.80808736883307, 44.738285048346995], [-0.808172375937866, 44.73798181284576], [-0.808298673520712, 44.737685976132155], [-0.808465044686581, 44.73740038713401], [-0.808669886697017, 44.737127796049585], [-0.808911226424329, 44.73687082786861], [-0.809186739368767, 44.73663195710032], [-0.809233917512611, 44.73659838703566], [-0.80918077414673, 44.736473135676924], [-0.809096496464331, 44.73616979733982], [-0.809054339040605, 44.73586203172727], [-0.809054707189115, 44.73555280283953], [-0.809097596665741, 44.73524508871941], [-0.809182593736401, 44.734941852772124], [-0.809308879187853, 44.73464601522798], [-0.809475236241956, 44.73436042502287], [-0.809680062296199, 44.73408783236664], [-0.809921384376585, 44.73383086226419], [-0.810196878153325, 44.73359198924325], [-0.810503890335623, 44.73337351353241], [-0.810839464229518, 44.73317753891825], [-0.811200368212402, 44.733005952494366], [-0.811583126850033, 44.73286040649735], [-0.811984054356555, 44.73274230240377], [-0.812399290075672, 44.73265277744131], [-0.812824835641873, 44.73259269364354], [-0.813256593464532, 44.732562629553435], [-0.813690406165138, 44.73256287465549], [-0.814122096588782, 44.732593426589645], [-0.814547508005608, 44.73265399117401], [-0.814962544116075, 44.73274398523607], [-0.815363208475782, 44.73286254222527], [-0.815745642961118, 44.73300852055285], [-0.816106164906145, 44.73318051457911], [-0.81644130255381, 44.733376868142365], [-0.816747828480625, 44.73359569049962], [-0.817022790673315, 44.733834874525954], [-0.817263540958359, 44.73409211699746], [-0.817467760510626, 44.73436494076303], [-0.81763348219522, 44.734650718591624], [-0.817759109527019, 44.73494669846585], [-0.817843432064704, 44.73525003007852], [-0.817885637090306, 44.73555779227722], [-0.817885317460947, 44.735867021192924], [-0.817842475556184, 44.73617473878175], [-0.817757523281937, 44.73647798150516], [-0.817631278129952, 44.73677382887243], [-0.81746495532968, 44.73705943157021], [-0.817260156167277, 44.73733203890855], [-0.817018852583303, 44.73758902531833], [-0.816743368196739, 44.737827915645106], [-0.816696193501653, 44.73786148892232]]]}}, {"type": "Feature", "properties": {"nb_detections_cluster": 4, "frp_max": 1.83, "frp_moyen": 1.18, "derniere_detection": "2026-07-27T02:53:00", "fetch_timestamp": "2026-07-28T01:13:00"}, "geometry": {"type": "Polygon", "coordinates": [[[-0.87526, 44.89452], [-0.87721, 44.89791], [-0.87455, 44.89899], [-0.87097, 44.89635], [-0.87526, 44.89452]]]}}]}