{
"type": "FeatureCollection",
"name": "zone_active_points",
"crs": { "type": "name", "properties": { "name": "urn:ogc:def:crs:OGC:1.3:CRS84" } },
"features": [
{ "type": "Feature", "properties": { "lat": 44.73571, "lon": -0.81347, "frp": 1.52, "fetch_timestamp": "2026-07-28T01:13:00" }, "geometry": { "type": "Point", "coordinates": [ -0.81347, 44.73571 ] } },
{ "type": "Feature", "properties": { "lat": 44.77559, "lon": -0.88832, "frp": 1.21, "fetch_timestamp": "2026-07-28T01:13:00" }, "geometry": { "type": "Point", "coordinates": [ -0.88832, 44.77559 ] } },
{ "type": "Feature", "properties": { "lat": 44.77715, "lon": -0.88187, "frp": 1.16, "fetch_timestamp": "2026-07-28T01:13:00" }, "geometry": { "type": "Point", "coordinates": [ -0.88187, 44.77715 ] } },
{ "type": "Feature", "properties": { "lat": 44.77764, "lon": -0.88806, "frp": 1.79, "fetch_timestamp": "2026-07-28T01:13:00" }, "geometry": { "type": "Point", "coordinates": [ -0.88806, 44.77764 ] } },
{ "type": "Feature", "properties": { "lat": 44.87758, "lon": -0.98004, "frp": 0.98, "fetch_timestamp": "2026-07-28T01:13:00" }, "geometry": { "type": "Point", "coordinates": [ -0.98004, 44.87758 ] } },
{ "type": "Feature", "properties": { "lat": 44.88014, "lon": -0.89721, "frp": 1.11, "fetch_timestamp": "2026-07-28T01:13:00" }, "geometry": { "type": "Point", "coordinates": [ -0.89721, 44.88014 ] } },
{ "type": "Feature", "properties": { "lat": 44.88251, "lon": -0.896, "frp": 0.8, "fetch_timestamp": "2026-07-28T01:13:00" }, "geometry": { "type": "Point", "coordinates": [ -0.896, 44.88251 ] } },
{ "type": "Feature", "properties": { "lat": 44.89452, "lon": -0.87526, "frp": 0.62, "fetch_timestamp": "2026-07-28T01:13:00" }, "geometry": { "type": "Point", "coordinates": [ -0.87526, 44.89452 ] } },
{ "type": "Feature", "properties": { "lat": 44.89899, "lon": -0.87455, "frp": 0.62, "fetch_timestamp": "2026-07-28T01:13:00" }, "geometry": { "type": "Point", "coordinates": [ -0.87455, 44.89899 ] } },
{ "type": "Feature", "properties": { "lat": 44.72418, "lon": -0.86437, "frp": 5.13, "fetch_timestamp": "2026-07-28T01:13:00" }, "geometry": { "type": "Point", "coordinates": [ -0.86437, 44.72418 ] } },
{ "type": "Feature", "properties": { "lat": 44.7704, "lon": -0.89663, "frp": 7.57, "fetch_timestamp": "2026-07-28T01:13:00" }, "geometry": { "type": "Point", "coordinates": [ -0.89663, 44.7704 ] } },
{ "type": "Feature", "properties": { "lat": 44.77171, "lon": -1.2138, "frp": 4.22, "fetch_timestamp": "2026-07-28T01:13:00" }, "geometry": { "type": "Point", "coordinates": [ -1.2138, 44.77171 ] } },
{ "type": "Feature", "properties": { "lat": 44.77516, "lon": -0.88806, "frp": 2.47, "fetch_timestamp": "2026-07-28T01:13:00" }, "geometry": { "type": "Point", "coordinates": [ -0.88806, 44.77516 ] } },
{ "type": "Feature", "properties": { "lat": 44.77665, "lon": -0.87848, "frp": 5.36, "fetch_timestamp": "2026-07-28T01:13:00" }, "geometry": { "type": "Point", "coordinates": [ -0.87848, 44.77665 ] } },
{ "type": "Feature", "properties": { "lat": 44.7774, "lon": -0.87369, "frp": 11.61, "fetch_timestamp": "2026-07-28T01:13:00" }, "geometry": { "type": "Point", "coordinates": [ -0.87369, 44.7774 ] } },
{ "type": "Feature", "properties": { "lat": 44.87342, "lon": -1.17762, "frp": 4.19, "fetch_timestamp": "2026-07-28T01:13:00" }, "geometry": { "type": "Point", "coordinates": [ -1.17762, 44.87342 ] } },
{ "type": "Feature", "properties": { "lat": 44.87419, "lon": -1.17282, "frp": 6.03, "fetch_timestamp": "2026-07-28T01:13:00" }, "geometry": { "type": "Point", "coordinates": [ -1.17282, 44.87419 ] } },
{ "type": "Feature", "properties": { "lat": 44.87982, "lon": -0.89767, "frp": 6.9, "fetch_timestamp": "2026-07-28T01:13:00" }, "geometry": { "type": "Point", "coordinates": [ -0.89767, 44.87982 ] } },
{ "type": "Feature", "properties": { "lat": 44.93626, "lon": -1.10444, "frp": 5.22, "fetch_timestamp": "2026-07-28T01:13:00" }, "geometry": { "type": "Point", "coordinates": [ -1.10444, 44.93626 ] } },
{ "type": "Feature", "properties": { "lat": 44.72034, "lon": -0.85332, "frp": 1.22, "fetch_timestamp": "2026-07-28T01:13:00" }, "geometry": { "type": "Point", "coordinates": [ -0.85332, 44.72034 ] } },
{ "type": "Feature", "properties": { "lat": 44.72599, "lon": -0.85288, "frp": 1.22, "fetch_timestamp": "2026-07-28T01:13:00" }, "geometry": { "type": "Point", "coordinates": [ -0.85288, 44.72599 ] } },
{ "type": "Feature", "properties": { "lat": 44.73875, "lon": -0.81246, "frp": 1.26, "fetch_timestamp": "2026-07-28T01:13:00" }, "geometry": { "type": "Point", "coordinates": [ -0.81246, 44.73875 ] } },
{ "type": "Feature", "properties": { "lat": 44.87698, "lon": -1.1798, "frp": 2.17, "fetch_timestamp": "2026-07-28T01:13:00" }, "geometry": { "type": "Point", "coordinates": [ -1.1798, 44.87698 ] } },
{ "type": "Feature", "properties": { "lat": 44.87771, "lon": -1.17966, "frp": 1.76, "fetch_timestamp": "2026-07-28T01:13:00" }, "geometry": { "type": "Point", "coordinates": [ -1.17966, 44.87771 ] } },
{ "type": "Feature", "properties": { "lat": 44.88585, "lon": -0.89769, "frp": 1.33, "fetch_timestamp": "2026-07-28T01:13:00" }, "geometry": { "type": "Point", "coordinates": [ -0.89769, 44.88585 ] } },
{ "type": "Feature", "properties": { "lat": 44.9328, "lon": -1.10323, "frp": 1.07, "fetch_timestamp": "2026-07-28T01:13:00" }, "geometry": { "type": "Point", "coordinates": [ -1.10323, 44.9328 ] } },
{ "type": "Feature", "properties": { "lat": 44.93298, "lon": -1.10879, "frp": 0.83, "fetch_timestamp": "2026-07-28T01:13:00" }, "geometry": { "type": "Point", "coordinates": [ -1.10879, 44.93298 ] } },
{ "type": "Feature", "properties": { "lat": 44.7224, "lon": -0.86118, "frp": 1.04, "fetch_timestamp": "2026-07-28T01:13:00" }, "geometry": { "type": "Point", "coordinates": [ -0.86118, 44.7224 ] } },
{ "type": "Feature", "properties": { "lat": 44.72678, "lon": -0.859, "frp": 1.12, "fetch_timestamp": "2026-07-28T01:13:00" }, "geometry": { "type": "Point", "coordinates": [ -0.859, 44.72678 ] } },
{ "type": "Feature", "properties": { "lat": 44.85514, "lon": -0.94069, "frp": 1.1, "fetch_timestamp": "2026-07-28T01:13:00" }, "geometry": { "type": "Point", "coordinates": [ -0.94069, 44.85514 ] } },
{ "type": "Feature", "properties": { "lat": 44.85671, "lon": -0.94691, "frp": 1.1, "fetch_timestamp": "2026-07-28T01:13:00" }, "geometry": { "type": "Point", "coordinates": [ -0.94691, 44.85671 ] } },
{ "type": "Feature", "properties": { "lat": 44.88209, "lon": -0.89224, "frp": 1.09, "fetch_timestamp": "2026-07-28T01:13:00" }, "geometry": { "type": "Point", "coordinates": [ -0.89224, 44.88209 ] } },
{ "type": "Feature", "properties": { "lat": 44.89635, "lon": -0.87097, "frp": 1.66, "fetch_timestamp": "2026-07-28T01:13:00" }, "geometry": { "type": "Point", "coordinates": [ -0.87097, 44.89635 ] } },
{ "type": "Feature", "properties": { "lat": 44.89791, "lon": -0.87721, "frp": 1.83, "fetch_timestamp": "2026-07-28T01:13:00" }, "geometry": { "type": "Point", "coordinates": [ -0.87721, 44.89791 ] } },
{ "type": "Feature", "properties": { "lat": 44.75686, "lon": -0.98124, "frp": 18.25, "fetch_timestamp": "2026-07-28T01:13:00" }, "geometry": { "type": "Point", "coordinates": [ -0.98124, 44.75686 ] } },
{ "type": "Feature", "properties": { "lat": 44.7795, "lon": -0.87849, "frp": 25.09, "fetch_timestamp": "2026-07-28T01:13:00" }, "geometry": { "type": "Point", "coordinates": [ -0.87849, 44.7795 ] } },
{ "type": "Feature", "properties": { "lat": 44.72448, "lon": -0.86136, "frp": 4.25, "fetch_timestamp": "2026-07-28T01:13:00" }, "geometry": { "type": "Point", "coordinates": [ -0.86136, 44.72448 ] } },
{ "type": "Feature", "properties": { "lat": 44.77465, "lon": -0.87925, "frp": 11.32, "fetch_timestamp": "2026-07-28T01:13:00" }, "geometry": { "type": "Point", "coordinates": [ -0.87925, 44.77465 ] } },
{ "type": "Feature", "properties": { "lat": 44.7817, "lon": -0.86933, "frp": 15.55, "fetch_timestamp": "2026-07-28T01:13:00" }, "geometry": { "type": "Point", "coordinates": [ -0.86933, 44.7817 ] } },
{ "type": "Feature", "properties": { "lat": 44.7818, "lon": -0.87893, "frp": 11.32, "fetch_timestamp": "2026-07-28T01:13:00" }, "geometry": { "type": "Point", "coordinates": [ -0.87893, 44.7818 ] } },
{ "type": "Feature", "properties": { "lat": 44.88178, "lon": -0.89468, "frp": 61.53, "fetch_timestamp": "2026-07-28T01:13:00" }, "geometry": { "type": "Point", "coordinates": [ -0.89468, 44.88178 ] } },
{ "type": "Feature", "properties": { "lat": 44.88472, "lon": -0.89349, "frp": 84.32, "fetch_timestamp": "2026-07-28T01:13:00" }, "geometry": { "type": "Point", "coordinates": [ -0.89349, 44.88472 ] } },
{ "type": "Feature", "properties": { "lat": 44.88482, "lon": -0.9031, "frp": 35.61, "fetch_timestamp": "2026-07-28T01:13:00" }, "geometry": { "type": "Point", "coordinates": [ -0.9031, 44.88482 ] } },
{ "type": "Feature", "properties": { "lat": 44.90673, "lon": -0.95967, "frp": 10.31, "fetch_timestamp": "2026-07-28T01:13:00" }, "geometry": { "type": "Point", "coordinates": [ -0.95967, 44.90673 ] } },
{ "type": "Feature", "properties": { "lat": 44.90681, "lon": -0.96915, "frp": 10.31, "fetch_timestamp": "2026-07-28T01:13:00" }, "geometry": { "type": "Point", "coordinates": [ -0.96915, 44.90681 ] } }
]
}
