{"type": "FeatureCollection", "name": "zone_active", "crs": {"type": "name", "properties": {"name": "urn:ogc:def:crs:OGC:1.3:CRS84"}}, "features": [{"type": "Feature", "properties": {"nb_detections_cluster": 2, "frp_max": 8.85, "frp_moyen": 7.58, "derniere_detection": "2026-07-23T13:55:00", "fetch_timestamp": "2026-07-23T13:55:00"}, "geometry": {"type": "Polygon", "coordinates": [[[-1.158335674785244, 44.805132791652035], [-1.158670461158376, 44.804935760352436], [-1.159030760612699, 44.80476303807606], [-1.15941310353089, 44.80461628799749], [-1.159813808126553, 44.80449692318798], [-1.160229015887035, 44.80440609301502], [-1.160654728714125, 44.80434467208017], [-1.161086847405658, 44.804313251801744], [-1.161521211108284, 44.80431213472282], [-1.161953637362414, 44.80434133159966], [-1.162379962354676, 44.80440056129812], [-1.162796080991292, 44.80448925349934], [-1.163197986407436, 44.80460655418852], [-1.163581808533055, 44.80475133387418], [-1.163943851344587, 44.804922198458996], [-1.164280628444577, 44.80511750265757], [-1.164588896627107, 44.80533536583248], [-1.164865687106194, 44.805573690096224], [-1.165108334106629, 44.805830180505374], [-1.165314500541892, 44.806102367152455], [-1.165482200531689, 44.80638762894349], [-1.165609818541852, 44.806683218832426], [-1.165696124961695, 44.806986290269684], [-1.165740287968115, 44.807293924610576], [-1.165741881561274, 44.807603159219624], [-1.165700889693589, 44.80791101600034], [-1.165617706451174, 44.808214530075894], [-1.165493132285037, 44.80851077834432], [-1.165328366327229, 44.80879690763328], [-1.16512499486505, 44.80907016218298], [-1.164884976083416, 44.80932791019254], [-1.164610621221583, 44.80956766917376], [-1.164304572325149, 44.80978712986778], [-1.163969776807156, 44.80998417849413], [-1.163609459063091, 44.810156917117304], [-1.163227089413138, 44.81030368193452], [-1.163196988033529, 44.81031264900059], [-1.163035033828689, 44.81053023466503], [-1.162794999228887, 44.8107879782784], [-1.162520628325751, 44.81102773220763], [-1.162214563319393, 44.811247187242515], [-1.161879751778037, 44.81144422965709], [-1.161519418251529, 44.81161696157567], [-1.161137033212095, 44.811763719260064], [-1.16073627962168, 44.811883089141276], [-1.160321017448216, 44.81197392144119], [-1.159895246473118, 44.812035341252475], [-1.159463067748924, 44.81206675696983], [-1.159028644079113, 44.81206786599137], [-1.158596159901663, 44.81203865763481], [-1.158169780963696, 44.81197941324038], [-1.157753614176613, 44.8118907034595], [-1.157351668039334, 44.811773382755455], [-1.156967814011777, 44.81162858116915], [-1.156605749211402, 44.81145769342923], [-1.156268960792836, 44.81126236551203], [-1.155960692354186, 44.811044478780985], [-1.155683912693986, 44.81080613185844], [-1.155441287219852, 44.81054962040508], [-1.155235152284217, 44.8102774150018], [-1.155067492694122, 44.80999213734765], [-1.154939922611232, 44.80969653500328], [-1.154853670025486, 44.809393454923516], [-1.154809564951166, 44.80908581603405], [-1.154808031458201, 44.8087765811169], [-1.154849083614515, 44.80846872827518], [-1.154932325377455, 44.80816522225223], [-1.155056954434339, 44.80786898588141], [-1.155221769954105, 44.80758287194134], [-1.155425184174449, 44.807309635687304], [-1.155665237712005, 44.807051908323565], [-1.15593961844739, 44.806812171671595], [-1.156245683802644, 44.80659273427759], [-1.156580486196135, 44.80639570918963], [-1.156940801429563, 44.806222993617546], [-1.157323159733697, 44.80607625067131], [-1.157353259781688, 44.80606728521195], [-1.157515223120488, 44.80584970816975], [-1.157755260841266, 44.80559197640941], [-1.158029625537359, 44.80535223470522], [-1.158335674785244, 44.805132791652035]]]}}, {"type": "Feature", "properties": {"nb_detections_cluster": 1, "frp_max": 9.49, "frp_moyen": 9.49, "derniere_detection": "2026-07-23T13:55:00", "fetch_timestamp": "2026-07-23T13:55:00"}, "geometry": {"type": "Polygon", "coordinates": [[[-1.115726757905863, 44.82042750194133], [-1.115891810466644, 44.82014144527628], [-1.116095461334339, 44.81986828003567], [-1.116335748846944, 44.81961063673972], [-1.116610358632288, 44.81937099640017], [-1.116916645907154, 44.81915166663562], [-1.117251660953401, 44.81895475945764], [-1.11761217752551, 44.81878217094051], [-1.117994723916011, 44.81863556297075], [-1.118395616379762, 44.818516347251176], [-1.118810994595607, 44.81842567171364], [-1.119236858824459, 44.8183644094707], [-1.119669108406678, 44.81833315041262], [-1.120103581228856, 44.81833219553009], [-1.120536093780877, 44.818361554017606], [-1.120962481418478, 44.81842094318491], [-1.12137863844462, 44.81850979117758], [-1.121780557624652, 44.8186272424807], [-1.122164368755698, 44.818772166152506], [-1.122526375919672, 44.81894316670912], [-1.122863093061879, 44.819138597555835], [-1.12317127755318, 44.81935657683552], [-1.123447961412854, 44.81959500554261], [-1.123690479891702, 44.8198515877277], [-1.12389649714013, 44.82012385259943], [-1.124064028713786, 44.820409178310314], [-1.124191460699675, 44.820704817198504], [-1.124277565277923, 44.82100792224237], [-1.124321512568662, 44.821315574473324], [-1.12432287864903, 44.82162481108329], [-1.124281649662152, 44.82193265395627], [-1.124198221977534, 44.82223613834912], [-1.124073398400243, 44.8225323414455], [-1.123908380464411, 44.822818410507836], [-1.123704756884289, 44.823091590356164], [-1.123464488273239, 44.82334924990887], [-1.123189888277053, 44.82358890752957], [-1.12288360130276, 44.82380825493545], [-1.122548577056947, 44.82400517943709], [-1.122188042138668, 44.82417778429439], [-1.121805468960424, 44.824324406992936], [-1.121404542296798, 44.82444363526385], [-1.120989123783225, 44.82453432069299], [-1.120563214707416, 44.82459558978765], [-1.12013091745245, 44.82462685239426], [-1.119696395963773, 44.824627807385745], [-1.119263835621727, 44.82459844556342], [-1.11883740290712, 44.824539049745724], [-1.118421205249274, 44.824450192042654], [-1.118019251444295, 44.82433272834227], [-1.117635413025674, 44.82418779006274], [-1.117273386960146, 44.82401677324931], [-1.116936660028779, 44.82382132512151], [-1.116628475236906, 44.82360332820047], [-1.1163518005768, 44.82336488216975], [-1.116109300444123, 44.82310828364449], [-1.115903309983437, 44.82283600404398], [-1.115735812609656, 44.82255066578173], [-1.115608420921494, 44.822255017001915], [-1.115522361190203, 44.82195190510633], [-1.115478461572211, 44.821644249326866], [-1.115477144158343, 44.821335012607946], [-1.115518420935245, 44.82102717306975], [-1.115601893696869, 44.820723695327295], [-1.115726757905863, 44.82042750194133]]]}}, {"type": "Feature", "properties": {"nb_detections_cluster": 1, "frp_max": 9.01, "frp_moyen": 9.01, "derniere_detection": "2026-07-23T13:55:00", "fetch_timestamp": "2026-07-23T13:55:00"}, "geometry": {"type": "Polygon", "coordinates": [[[-1.138556022268027, 44.82457835927461], [-1.138720970803987, 44.82429226826463], [-1.138924525734186, 44.824019060753784], [-1.139164726320158, 44.823761367669455], [-1.139439259026469, 44.823521670502934], [-1.139745479811799, 44.82330227742015], [-1.140080439597929, 44.82310530104239], [-1.140440912671149, 44.82293263811038], [-1.14082342774257, 44.82278595122725], [-1.141224301368388, 44.822666652855695], [-1.141639673408653, 44.82257589172345], [-1.142065544183607, 44.8225145417673], [-1.14249781297051, 44.82248319372204], [-1.142932317471017, 44.822482149435245], [-1.143364873870037, 44.8225114189623], [-1.143791317101213, 44.82257072046949], [-1.144207540932359, 44.82265948294653], [-1.144609537485763, 44.82277685170189], [-1.144993435813763, 44.822921696588715], [-1.145355539158907, 44.8230926228818], [-1.14569236054064, 44.823287984701516], [-1.146000656326356, 44.823505900855544], [-1.146277457463912, 44.82374427294622], [-1.146520098075041, 44.82400080556944], [-1.146726241134282, 44.82427302841117], [-1.146893900985939, 44.8245583200288], [-1.147021462481843, 44.82485393308894], [-1.147107696555014, 44.82515702081879], [-1.147151772078536, 44.825464664416664], [-1.147153263894574, 44.825773901157746], [-1.147112156935253, 44.82608175292496], [-1.147028846394707, 44.82638525488961], [-1.146904133949594, 44.826681484066285], [-1.146739220063468, 44.82696758746635], [-1.146535692448175, 44.82724080957929], [-1.146295510792484, 44.82749851891652], [-1.146020987904345, 44.827738233362226], [-1.145714767447778, 44.82795764408641], [-1.145379798488363, 44.82815463778986], [-1.145019307092335, 44.82832731706599], [-1.144636765252718, 44.82847401868359], [-1.144235857442004, 44.82859332961376], [-1.143820445113849, 44.82868410064611], [-1.14339452949625, 44.828745457463434], [-1.14296221303523, 44.82877680906723], [-1.142527659861216, 44.82877785347315], [-1.1420950556598, 44.828748580621294], [-1.141668567334357, 44.82868927247314], [-1.141252302850021, 44.828600500294144], [-1.140850271646781, 44.8284831191487], [-1.140466346003875, 44.82833825965978], [-1.140104223728451, 44.828167317113774], [-1.139767392528544, 44.82797193801487], [-1.139459096414067, 44.82775400421944], [-1.139182304449796, 44.82751561480312], [-1.138939682161476, 44.82725906583577], [-1.138733565870431, 44.82698682825954], [-1.13856594020367, 44.826701524083305], [-1.138438418995656, 44.826405901123046], [-1.138352229765128, 44.826102806532035], [-1.138308201915726, 44.82579515937564], [-1.138306758773193, 44.82548592251539], [-1.13834791353491, 44.82517807407298], [-1.138431269169722, 44.82487457874931], [-1.138556022268027, 44.82457835927461]]]}}, {"type": "Feature", "properties": {"nb_detections_cluster": 1, "frp_max": 12.14, "frp_moyen": 12.14, "derniere_detection": "2026-07-23T13:55:00", "fetch_timestamp": "2026-07-23T13:55:00"}, "geometry": {"type": "Polygon", "coordinates": [[[-1.123665573031819, 44.83437779574245], [-1.123830626153729, 44.834091725950266], [-1.124034288987228, 44.83381854487949], [-1.124274599754761, 44.83356088320283], [-1.124549243859937, 44.83332122210905], [-1.124855576188812, 44.83310186941662], [-1.125190646589206, 44.83290493735792], [-1.125551228282436, 44.83273232224682], [-1.125933848933885, 44.83258568622595], [-1.126334824083307, 44.83246644126824], [-1.126750292613384, 44.83237573558705], [-1.127176253915461, 44.83231444258523], [-1.127608606395296, 44.83228315244918], [-1.128043186948836, 44.8322821664689], [-1.128475811028797, 44.832311494138274], [-1.128902312917209, 44.83237085306376], [-1.129318585817114, 44.83245967168221], [-1.129720621378298, 44.8325770947615], [-1.130104548277421, 44.83272199163169], [-1.130466669481795, 44.83289296706698], [-1.130803497838722, 44.83308837471454], [-1.131111789648211, 44.83330633294071], [-1.13138857589615, 44.833544742942635], [-1.13163119084736, 44.833801308951124], [-1.131837297723165, 44.83407356033058], [-1.132004911215978, 44.83435887536353], [-1.13213241662373, 44.83465450649097], [-1.132218585419253, 44.83495760676606], [-1.13226258710396, 44.83526525726618], [-1.132263997230832, 44.835574495200014], [-1.13222280151846, 44.835882342438815], [-1.132139396015526, 44.83618583419747], [-1.132014583313102, 44.83648204758873], [-1.131849564840217, 44.83676812977592], [-1.131645929315953, 44.83704132545275], [-1.131405637468385, 44.83729900338515], [-1.131131003166822, 44.837538681759725], [-1.13082467114846, 44.83775805209386], [-1.130489591553547, 44.83795500147725], [-1.130128991514103, 44.8381276329302], [-1.129746344069786, 44.83827428368212], [-1.12934533471047, 44.83839354119396], [-1.128929825868145, 44.838484256769895], [-1.128503819700641, 44.83854555662685], [-1.128071419526353, 44.838576850314965], [-1.127636790282207, 44.83857783640778], [-1.127204118386636, 44.83854850540701], [-1.126777571395139, 44.83848913983428], [-1.126361257837963, 44.83840031150816], [-1.125959187627755, 44.83828287603386], [-1.125575233419398, 44.83813796455762], [-1.125213093295058, 44.837966972866575], [-1.12487625513452, 44.83777154793823], [-1.124567963014518, 44.837553572070355], [-1.124291185961098, 44.837315144743755], [-1.124048589356099, 44.83705856239339], [-1.123842509273165, 44.83678629628288], [-1.123674929990245, 44.83650096869582], [-1.12354746489474, 44.836205327673625], [-1.123461340964646, 44.835902220543396], [-1.12341738697439, 44.83559456649121], [-1.123416025538126, 44.835285328444876], [-1.123457269066106, 44.834977484537454], [-1.123540719672123, 44.83467399942605], [-1.123665573031819, 44.83437779574245]]]}}, {"type": "Feature", "properties": {"nb_detections_cluster": 4, "frp_max": 10.81, "frp_moyen": 8.75, "derniere_detection": "2026-07-23T13:55:00", "fetch_timestamp": "2026-07-23T13:55:00"}, "geometry": {"type": "Polygon", "coordinates": [[[-1.093654850569326, 44.85166666100649], [-1.093820107328481, 44.85138063426054], [-1.094023978792363, 44.851107506748576], [-1.094264501174394, 44.85084990862741], [-1.094539357840544, 44.850610320473606], [-1.094845901630224, 44.850391049403186], [-1.095181180355301, 44.850194206862405], [-1.09554196523142, 44.85002168830312], [-1.095924781967854, 44.84987515493813], [-1.096325944216637, 44.849756017751844], [-1.096741589059262, 44.84966542391987], [-1.097167714189747, 44.84960424576803], [-1.097600216436696, 44.84957307237685], [-1.098034931254244, 44.84957220391216], [-1.09846767280251, 44.849601648736346], [-1.098894274232562, 44.84966112332778], [-1.099310627788999, 44.849750055009544], [-1.099712724344909, 44.84986758746085], [-1.100096691989471, 44.85001258895856], [-1.100458833297396, 44.850183663269384], [-1.100795660922056, 44.85037916308834], [-1.101103931170076, 44.850597205894154], [-1.101380675234463, 44.85083569206944], [-1.101623227785685, 44.85109232511138], [-1.10182925264535, 44.85136463373874], [-1.101996765295054, 44.851649995682614], [-1.102124152003221, 44.8519456629321], [-1.102210185385161, 44.85224878819231], [-1.102254036245796, 44.85255645229986], [-1.102255281590092, 44.852865692332145], [-1.102213908723152, 44.85317353014007], [-1.102130315399429, 44.85347700102913], [-1.102005306018615, 44.85377318231287], [-1.101840083903792, 44.854059221463714], [-1.10163623973529, 44.85433236358962], [-1.101395736250744, 44.854589977972175], [-1.101120889357966, 44.85482958340993], [-1.100814345841958, 44.855048872122616], [-1.100479057880335, 44.85524573198599], [-1.100118254612407, 44.85541826688252], [-1.099735411035692, 44.85556481497157], [-1.099334214529608, 44.8556839647029], [-1.098918529329152, 44.855774568418774], [-1.098492359291237, 44.85583575341357], [-1.098059809313026, 44.85586693034379], [-1.097625045774667, 44.85586779890757], [-1.097192256388355, 44.85583835073876], [-1.096765609841415, 44.855778869487466], [-1.0965243665379, 44.85572734037632], [-1.096786118466272, 44.85587926606844], [-1.097094403336435, 44.85609732039584], [-1.097371157476409, 44.856335816990054], [-1.097613715459531, 44.85659245924792], [-1.097819741054983, 44.85686477579945], [-1.097987249737137, 44.85715014429937], [-1.098114627812477, 44.857445816673675], [-1.098200647979306, 44.857748945578074], [-1.098244481169653, 44.85805661181406], [-1.098245704558513, 44.85836585243854], [-1.098204305662292, 44.85867368929664], [-1.098120682486001, 44.85897715770304], [-1.097995639716725, 44.8592733349951], [-1.097830380999019, 44.859559368683676], [-1.097626497365676, 44.85983250392937], [-1.097385951934378, 44.86009011007998], [-1.097111061016918, 44.86032970601327], [-1.096804471822323, 44.86054898404056], [-1.096469136968189, 44.86074583214052], [-1.096108286045523, 44.86091835430885], [-1.095725394510901, 44.86106488882756], [-1.095324150205737, 44.86118402427707], [-1.094908417825508, 44.86127461313722], [-1.094482201681647, 44.86133578284549], [-1.094049607115494, 44.86136694420557], [-1.093614800936757, 44.86136779706564], [-1.093181971268417, 44.86133833321076], [-1.092755287185856, 44.86127883644218], [-1.092463041436833, 44.86121640772068], [-1.092726577647657, 44.861369370419254], [-1.093034876892946, 44.86158743640392], [-1.093311640848099, 44.86182594353826], [-1.093554203991834, 44.86208259511753], [-1.093760230043513, 44.86235491968201], [-1.093927734472978, 44.86264029480926], [-1.094055103627523, 44.86293597236142], [-1.094141110291205, 44.863239104944306], [-1.094184925525945, 44.86354677332394], [-1.094186126679511, 44.863856014536594], [-1.094144701482309, 44.864163850421725], [-1.094061048192521, 44.86446731630326], [-1.093935971787141, 44.86476348954297], [-1.093770676234588, 44.86504951769066], [-1.093566752922341, 44.86532264596025], [-1.093326165350198, 44.86558024376673], [-1.093051230235805, 44.86581983006821], [-1.092744595213872, 44.86603909726876], [-1.092409213343412, 44.86623593345132], [-1.092048314668316, 44.86640844272636], [-1.091665375105163, 44.86655496350005], [-1.091264082958045, 44.86667408448525], [-1.090848303383331, 44.86676465830104], [-1.090422041147115, 44.866825812529854], [-1.08998940203479, 44.86685695812449], [-1.08955455328521, 44.86685779508493], [-1.08912168343148, 44.86682831534943], [-1.088694961936109, 44.866768802872194], [-1.088278499010308, 44.86667983088684], [-1.087876306005444, 44.86656225638224], [-1.087492256759008, 44.8664172118438], [-1.08713005026827, 44.866246094340276], [-1.086793175051807, 44.866050552060884], [-1.086484875542703, 44.865832468433624], [-1.086208120837493, 44.8655939439771], [-1.08596557610199, 44.86533727606165], [-1.085759576909414, 44.86506493677484], [-1.085592106757744, 44.86477954910488], [-1.085464777982406, 44.864483861671644], [-1.085378816247596, 44.864180722248996], [-1.085335048764801, 44.8638730503338], [-1.085333896351171, 44.863563809025656], [-1.085375369403253, 44.86325597648877], [-1.08545906782383, 44.86295251727052], [-1.085584184901554, 44.86265635375311], [-1.085749515104993, 44.862370338013086], [-1.085953465715053, 44.862097224359715], [-1.086194072182896, 44.861839642816314], [-1.086469017064726, 44.86160007379977], [-1.086775652350474, 44.86138082424179], [-1.087111024970993, 44.86118400538147], [-1.087135455490026, 44.8611723281935], [-1.087042448274946, 44.861137198082176], [-1.08668027720859, 44.860966079400065], [-1.086343435230317, 44.86077053608609], [-1.086035166453077, 44.86055245157816], [-1.085758439677431, 44.86031392640341], [-1.085515919800234, 44.860057257939054], [-1.085309942155346, 44.85978491827795], [-1.085142490033298, 44.85949953041193], [-1.085015175595968, 44.859203842962714], [-1.084929224369573, 44.85890070370438], [-1.084885463464517, 44.85859303213213], [-1.084884313634733, 44.85828379134231], [-1.084925785252012, 44.85797595949409], [-1.085009478233089, 44.857672501128256], [-1.085134585919126, 44.857376338618785], [-1.085299902869252, 44.85709032403251], [-1.085503836492107, 44.85681721166758], [-1.085744422402535, 44.856559631534935], [-1.086019343354772, 44.856320064037824], [-1.086325951569242, 44.856100816093374], [-1.086661294237518, 44.8559039989251], [-1.087022141959609, 44.855731507740515], [-1.087405019839742, 44.8555850034888], [-1.087806240941309, 44.85546589687403], [-1.08822194177923, 44.85537533477743], [-1.088648119508454, 44.85531418921921], [-1.089080670451224, 44.855283048966065], [-1.08951542959288, 44.85528221386475], [-1.089948210666816, 44.85531169195637], [-1.090374846443558, 44.85537119939903], [-1.090791228837002, 44.85546016319944], [-1.091193348442558, 44.85557772672753], [-1.091316913412265, 44.855624397512656], [-1.091531933829585, 44.85552160086836], [-1.091914798514537, 44.85537508107285], [-1.092316008552171, 44.85525595816725], [-1.092731700563892, 44.85516537918959], [-1.093157871789608, 44.855104216322694], [-1.093590418614155, 44.855073058499904], [-1.094025176062512, 44.85507220573714], [-1.094457957884375, 44.855101666245595], [-1.094884596843079, 44.85516115635262], [-1.095125836210246, 44.855212689017755], [-1.094864091879434, 44.85506075944362], [-1.094555821357743, 44.85484269899554], [-1.094279086529903, 44.854604195497664], [-1.09403655237049, 44.854347546118476], [-1.093830554351106, 44.85407522276705], [-1.093663075958703, 44.853789848278154], [-1.093535729608367, 44.85349417114475], [-1.093449741133857, 44.85319103904158], [-1.093405938004485, 44.85288337139502], [-1.093404741381, 44.85257413126362], [-1.093446162085983, 44.85226629680034], [-1.093529800526595, 44.851962832571125], [-1.093654850569326, 44.85166666100649]]]}}, {"type": "Feature", "properties": {"nb_detections_cluster": 2, "frp_max": 13.73, "frp_moyen": 13.42, "derniere_detection": "2026-07-23T13:55:00", "fetch_timestamp": "2026-07-23T13:55:00"}, "geometry": {"type": "Polygon", "coordinates": [[[-1.060683517819861, 44.85133506902945], [-1.061109694846686, 44.85127402927427], [-1.061542229918227, 44.85124299636432], [-1.061976958172669, 44.851242269112774], [-1.06240969364077, 44.85127185452224], [-1.062836269532074, 44.85133146771744], [-1.063252578336925, 44.85142053468684], [-1.063654611359079, 44.85153819780695], [-1.064038497299158, 44.851683324096385], [-1.064400539518224, 44.85185451612016], [-1.064737251623353, 44.85205012543977], [-1.065045391033068, 44.8522682684794], [-1.065321990199781, 44.85250684465639], [-1.065564385188764, 44.85276355660109], [-1.06577024133843, 44.853035932272334], [-1.065937575754585, 44.85332134875536], [-1.066064776421653, 44.85361705751395], [-1.066150617746233, 44.853920210853204], [-1.066194272382572, 44.8542278893391], [-1.066195319225218, 44.854537129910376], [-1.066153747490906, 44.8548449544125], [-1.066069956849373, 44.85514839827889], [-1.065944753600791, 44.8554445390831], [-1.065779342935613, 44.855730524687196], [-1.065575317350435, 44.856003600714665], [-1.06533464133054, 44.856261137083564], [-1.065059632445923, 44.85650065334358], [-1.064752939042277, 44.8567198425733], [-1.064417514741357, 44.856916593606535], [-1.064056589996134, 44.8570890113739], [-1.063673640974624, 44.857235435162856], [-1.063272356072299, 44.85735445462034], [-1.062856600375941, 44.85744492334342], [-1.062430378421772, 44.85750596992673], [-1.061997795607222, 44.85753700635991], [-1.061563018628843, 44.857537733694464], [-1.061130235328309, 44.85750814492452], [-1.060703614334252, 44.85744852505454], [-1.060287264889597, 44.85735944835255], [-1.059885197252358, 44.85724177281607], [-1.059757489787019, 44.857193492398025], [-1.05953638132876, 44.857299104654174], [-1.059153419090715, 44.857445512860366], [-1.058752123108953, 44.85756451598673], [-1.058336358577024, 44.8576549677876], [-1.057910130116286, 44.857715997020584], [-1.057477543186869, 44.857747015842506], [-1.057042764524973, 44.85774772547441], [-1.056609981988493, 44.857718119081], [-1.05618336419869, 44.85765848183648], [-1.055767020367608, 44.857569388176245], [-1.055364960699155, 44.85745169626112], [-1.054981057746152, 44.85730653970744], [-1.054619009096377, 44.857135316662735], [-1.054282301747691, 44.856939676332836], [-1.053974178515909, 44.85672150308997], [-1.053697606799338, 44.85648289831584], [-1.05345525000099, 44.85622616015422], [-1.053249441883695, 44.855953761369115], [-1.053082164104915, 44.8556683255216], [-1.052955027147175, 44.855372601695386], [-1.052869254827222, 44.85506943801467], [-1.052825672532365, 44.85476175420969], [-1.0528246992964, 44.85445251349437], [-1.052866343790517, 44.85414469402703], [-1.052950204266755, 44.85384126022892], [-1.05307547245351, 44.853545134237265], [-1.053240941364596, 44.853259167767064], [-1.053445016945654, 44.85298611465292], [-1.053685733444919, 44.852728604335006], [-1.053960772359547, 44.85248911654422], [-1.054267484774498, 44.85226995742996], [-1.054602916878405, 44.85207323736029], [-1.054963838410508, 44.85190085060763], [-1.055346773764692, 44.85175445711554], [-1.055748035451266, 44.85163546652148], [-1.056163759594628, 44.851545024589534], [-1.056589943125528, 44.85148400218281], [-1.057022482310465, 44.85145298688217], [-1.057457212248034, 44.85145227733123], [-1.057889946952787, 44.85148188036218], [-1.058316519641609, 44.851541510930055], [-1.058732822835663, 44.851630594856026], [-1.059134847892697, 44.85174827435333], [-1.059262542442385, 44.8517965554029], [-1.059483629754788, 44.85169094387944], [-1.059866551897289, 44.851544534805704], [-1.060267802508648, 44.85142552788196], [-1.060683517819861, 44.85133506902945]]]}}, {"type": "Feature", "properties": {"nb_detections_cluster": 1, "frp_max": 9.54, "frp_moyen": 9.54, "derniere_detection": "2026-07-23T13:55:00", "fetch_timestamp": "2026-07-23T13:55:00"}, "geometry": {"type": "Polygon", "coordinates": [[[-1.072513989977609, 44.8685758602064], [-1.072679404181453, 44.86828986339301], [-1.072883439858833, 44.86801677323673], [-1.073124131641779, 44.86775921953451], [-1.073399161265018, 44.867519682435095], [-1.073705879902575, 44.867300468562796], [-1.07404133368281, 44.86710368881299], [-1.07440229213594, 44.866931238032855], [-1.074785279300103, 44.866784776782495], [-1.075186607186569, 44.86666571535187], [-1.075602411282214, 44.86657520018712], [-1.076028687747919, 44.86651410285656], [-1.076461331955386, 44.866483011662474], [-1.076896177992082, 44.86648222597927], [-1.077329038754836, 44.86651175337218], [-1.07775574624696, 44.866571309524566], [-1.078172191691866, 44.866660320974134], [-1.078574365077854, 44.86677793063203], [-1.07895839375422, 44.86692300603167], [-1.079320579707834, 44.86709415022814], [-1.079657435161919, 44.867289715243444], [-1.079965716154807, 44.867507817928484], [-1.080242453775653, 44.86774635808923], [-1.080484982756529, 44.86800303870291], [-1.080690967145534, 44.86827538803011], [-1.080858422813468, 44.8685607834099], [-1.080985736576958, 44.86885647650929], [-1.081071681753252, 44.86915961978432], [-1.081115429996203, 44.86946729389796], [-1.081116559298555, 44.86977653583118], [-1.08107505808253, 44.87008436741639], [-1.080991325338314, 44.870387824018884], [-1.080866166808039, 44.870683983089684], [-1.080700787251037, 44.87096999231501], [-1.080496778863854, 44.87124309709091], [-1.080256105965716, 44.871500667058626], [-1.079981086096162, 44.87174022144432], [-1.079674367706338, 44.87195945295938], [-1.079338904658365, 44.87215625003044], [-1.078977927778177, 44.872328717144676], [-1.078594913735782, 44.87247519311428], [-1.078193551552822, 44.87259426708363], [-1.077777707060419, 44.87268479212472], [-1.077351385650113, 44.872745896289715], [-1.0769186936774, 44.87277699101365], [-1.076483798890405, 44.87277777678652], [-1.076050890265745, 44.872748246039606], [-1.075624137639413, 44.872688683218456], [-1.075207651522481, 44.87259966204163], [-1.074805443489653, 44.87248203997181], [-1.074421387523089, 44.87233694995255], [-1.074059182684669, 44.87216578949061], [-1.073722317476899, 44.87197020718902], [-1.073414036236277, 44.87175208686119], [-1.07313730788317, 44.87151352937919], [-1.072894797329351, 44.87125683243141], [-1.072688839818579, 44.870984468384954], [-1.072521418447138, 44.87069906046645], [-1.072394145080409, 44.870403357490716], [-1.072308244848714, 44.87010020738126], [-1.072264544371008, 44.869792529737765], [-1.072263463818955, 44.869483287714885], [-1.072305012896886, 44.869175459483685], [-1.07238879077531, 44.86887200954993], [-1.072513989977609, 44.8685758602064]]]}}, {"type": "Feature", "properties": {"nb_detections_cluster": 1, "frp_max": 9.92, "frp_moyen": 9.92, "derniere_detection": "2026-07-23T13:55:00", "fetch_timestamp": "2026-07-23T13:55:00"}, "geometry": {"type": "Polygon", "coordinates": [[[-1.068903254427853, 44.87937572082595], [-1.069068718845605, 44.879089728414094], [-1.069272811335783, 44.87881664395903], [-1.069513565983179, 44.87855909720275], [-1.069788663917057, 44.87831956822717], [-1.070095455653583, 44.87810036357829], [-1.070430986617194, 44.877903594062694], [-1.070792025594905, 44.87773115442899], [-1.071175095849521, 44.877584705129934], [-1.071576508592304, 44.877465656340405], [-1.071992398493157, 44.877375154384815], [-1.072418760886868, 44.87731407070427], [-1.072851490317879, 44.87728299346963], [-1.073286420053186, 44.877282221920886], [-1.073719362183823, 44.877311763487164], [-1.074146147929741, 44.87737133371535], [-1.074562667760947, 44.87746035900766], [-1.074964910949554, 44.87757798214189], [-1.075349004172765, 44.87772307052172], [-1.075711248795927, 44.87789422707722], [-1.07604815647729, 44.87808980371143], [-1.076356482752199, 44.878307917163326], [-1.076633258273654, 44.87854646713521], [-1.076875817408609, 44.878803156509804], [-1.077081823914605, 44.879075513463356], [-1.077249293449239, 44.87936091526142], [-1.077376612695357, 44.87965661350922], [-1.077462554917149, 44.87995976061319], [-1.077506291796646, 44.88026743719943], [-1.077507401435751, 44.88057668022501], [-1.077465872445783, 44.88088451151189], [-1.077382104084153, 44.881187966428136], [-1.077256902435784, 44.88148412244104], [-1.077091472675066, 44.881770127266186], [-1.076887407481893, 44.88204322634202], [-1.076646671722459, 44.882300789364656], [-1.076371583541649, 44.882540335627134], [-1.076064792048493, 44.88275955791909], [-1.075729251809199, 44.882956344755925], [-1.075368194393213, 44.883128800723405], [-1.074985097246302, 44.88327526474105], [-1.074583650190659, 44.88339432606837], [-1.074167719875008, 44.88348483789916], [-1.073741312517675, 44.88354592841275], [-1.073308535302147, 44.883577009175724], [-1.07287355679776, 44.88357778081252], [-1.072440566787647, 44.88354823589059], [-1.07201373589184, 44.88348865899203], [-1.071597175375417, 44.883399623970966], [-1.071194897529776, 44.88328198842345], [-1.070810777009561, 44.88313688542285], [-1.070448513498437, 44.88296571260098], [-1.070111596064006, 44.88277011867987], [-1.069803269545727, 44.8825519875849], [-1.069526503299956, 44.88231342029178], [-1.069283962603275, 44.882056714583406], [-1.069077982989574, 44.88178434291127], [-1.068910547767799, 44.88149892857541], [-1.068783268936482, 44.881203220452434], [-1.06869737167831, 44.880900066515395], [-1.06865368258333, 44.88059238640083], [-1.068652621713307, 44.880283143287194], [-1.068694198582749, 44.87997531535596], [-1.068778012094267, 44.879671867110076], [-1.068903254427853, 44.87937572082595]]]}}, {"type": "Feature", "properties": {"nb_detections_cluster": 1, "frp_max": 2.91, "frp_moyen": 2.91, "derniere_detection": "2026-07-23T13:55:00", "fetch_timestamp": "2026-07-23T13:55:00"}, "geometry": {"type": "Polygon", "coordinates": [[[-1.018924019104351, 44.88172384063412], [-1.019089745019475, 44.88143792253092], [-1.019294089121285, 44.88116492977482], [-1.019535083072122, 44.880907491224605], [-1.019810405697424, 44.88066808591989], [-1.020117405350314, 44.88044901921567], [-1.020453125453772, 44.880252400589995], [-1.020814332974174, 44.8800801233384], [-1.021197549552012, 44.87993384634994], [-1.021599084990151, 44.87981497814022], [-1.02201507277754, 44.879724663294766], [-1.022441507306816, 44.87966377145303], [-1.02287428242811, 44.879632888938644], [-1.023309230968632, 44.87963231311659], [-1.023742164838376, 44.87966204953144], [-1.024168915336735, 44.879721811853884], [-1.02458537327289, 44.8798110246364], [-1.02498752851459, 44.87992882885148], [-1.025371508585438, 44.880074090159106], [-1.025733615939792, 44.880245409824155], [-1.02607036355708, 44.880441138178945], [-1.026378508513293, 44.88065939050137], [-1.026655083206738, 44.880898065156295], [-1.026897423937573, 44.88115486382571], [-1.027103196565839, 44.88142731363307], [-1.027270419000734, 44.88171279094958], [-1.027397480304136, 44.88200854665293], [-1.027483156223817, 44.882311732596], [-1.027526621006046, 44.882619429030484], [-1.027527455372935, 44.882928672722045], [-1.027485650586766, 44.88323648548586], [-1.027401608561125, 44.88353990286812], [-1.027276138016753, 44.88383600269724], [-1.027110446718099, 44.884121933229665], [-1.026906129864389, 44.88439494061906], [-1.026665154746156, 44.884652395444334], [-1.026389841814234, 44.88489181804046], [-1.026082842342991, 44.885110902387936], [-1.025747112902465, 44.88530753833064], [-1.025385886885098, 44.8854798319076], [-1.025002643361228, 44.8856261236024], [-1.024601073563507, 44.88574500433423], [-1.024185045323408, 44.88583532903637], [-1.02375856580287, 44.88589622769059], [-1.023325742880748, 44.885927113711446], [-1.022890745566793, 44.8859276895992], [-1.022457763825347, 44.88589794980678], [-1.0220309681967, 44.88583818079328], [-1.021614469606001, 44.88574895826333], [-1.021212279747832, 44.885631141619044], [-1.020828272428884, 44.88548586567812], [-1.020466146241926, 44.88531452973799], [-1.020129388931257, 44.88511878409181], [-1.019821243793398, 44.88490051412614], [-1.019544678437021, 44.884661822154165], [-1.019302356203151, 44.88440500715939], [-1.019096610520918, 44.88413254264571], [-1.018929422445606, 44.88384705280709], [-1.018802401594912, 44.88355128724704], [-1.018716770666494, 44.883248094491485], [-1.018673353685092, 44.88294039455054], [-1.018672568091636, 44.88263115079326], [-1.018714420749506, 44.882323341407016], [-1.018798507905436, 44.88201993071584], [-1.018924019104351, 44.88172384063412]]]}}, {"type": "Feature", "properties": {"nb_detections_cluster": 2, "frp_max": 12.24, "frp_moyen": 10.41, "derniere_detection": "2026-07-23T13:55:00", "fetch_timestamp": "2026-07-23T13:55:00"}, "geometry": {"type": "Polygon", "coordinates": [[[-1.019274807469232, 44.90116461614495], [-1.01970140788524, 44.901103734417845], [-1.020134349850183, 44.90107286237439], [-1.020569464585013, 44.901072297278745], [-1.021002562399716, 44.90110204457215], [-1.021429473015325, 44.901161817820594], [-1.021846085699481, 44.901251041471326], [-1.022248388830048, 44.901368856392224], [-1.022632508506721, 44.90151412814014], [-1.022994745839639, 44.90168545787943], [-1.023331612556629, 44.90188119584542], [-1.023639864586743, 44.90209945722347], [-1.023916533297065, 44.90233814029125], [-1.024158954082164, 44.90259494664966], [-1.024364792030869, 44.90286740334819], [-1.024532064422968, 44.90315288669163], [-1.024659159838811, 44.90344864749965], [-1.02474485369718, 44.90375183757594], [-1.024788320071066, 44.90405953713238], [-1.024789139666718, 44.90436878290454], [-1.024747303888136, 44.90467659668758], [-1.024663214946864, 44.9049800140178], [-1.024537682014987, 44.905276112724145], [-1.024371913457358, 44.90556204107383], [-1.024167505216906, 44.90583504524153], [-1.023926425464004, 44.90609249583719], [-1.023650995657017, 44.90633191323644], [-1.023343868195821, 44.90655099146985], [-1.023008000883117, 44.906747620440164], [-1.022646628439279, 44.906919906253584], [-1.022263231345063, 44.9070661894684], [-1.021861502312425, 44.907185061085556], [-1.021445310706769, 44.90727537612602], [-1.021018665263805, 44.9073362646647], [-1.020585675460828, 44.907367140213545], [-1.020150511915279, 44.90736770537369], [-1.019717366192936, 44.90733795470136], [-1.019290410413831, 44.907278174760535], [-1.018873757045931, 44.90718894136103], [-1.018471419274826, 44.90707111400966], [-1.018342896181436, 44.90702250613458], [-1.018096418481928, 44.90714000007164], [-1.01771300802276, 44.90728626759556], [-1.017311267776126, 44.90740512276927], [-1.016895067215488, 44.90749542077215], [-1.016468415162847, 44.9075562918432], [-1.016035421159188, 44.90758714966263], [-1.015600255862429, 44.90758769700232], [-1.015167110855218, 44.90755792859021], [-1.014740158250692, 44.90749813116105], [-1.014323510486218, 44.90740888069318], [-1.013921180693382, 44.907291036857835], [-1.013537044026817, 44.90714573473457], [-1.013174800325175, 44.90697437387305], [-1.012837938464575, 44.90677860480641], [-1.012529702748391, 44.90656031314684], [-1.012253061657486, 44.90632160141641], [-1.01201067926202, 44.90606476878894], [-1.011804889570183, 44.90579228893812], [-1.011637674060691, 44.90550678620558], [-1.011510642614973, 44.905211010318986], [-1.011425018032198, 44.90490780990372], [-1.011381624275445, 44.90460010504356], [-1.01138087856142, 44.90429085915495], [-1.011422787368902, 44.903983050445696], [-1.011506946403364, 44.903679643233275], [-1.011632544517049, 44.90338355939855], [-1.011798371545764, 44.903097650250324], [-1.012002829985915, 44.90282466907097], [-1.012243950398506, 44.902567244607695], [-1.01251941039099, 44.90232785576444], [-1.012826556993587, 44.90210880773765], [-1.013162432214202, 44.90191220982551], [-1.013523801525576, 44.90173995512404], [-1.013907185010393, 44.90159370230514], [-1.01430889086452, 44.90147485965167], [-1.01472505093618, 44.90138457150309], [-1.015151657959341, 44.90132370724178], [-1.015584604123475, 44.90129285292573], [-1.016019720609112, 44.9012923056485], [-1.016452817709384, 44.90132207067971], [-1.016879725152193, 44.90138186141456], [-1.017296332235714, 44.901471102131964], [-1.017698627391702, 44.90158893353541], [-1.01782713748334, 44.90163754207447], [-1.018073591579935, 44.9015200489336], [-1.018456961704701, 44.90137378042488], [-1.018858656349094, 44.901254921329404], [-1.019274807469232, 44.90116461614495]]]}}]}