{
"type": "FeatureCollection",
"name": "zone_active_points",
"crs": { "type": "name", "properties": { "name": "urn:ogc:def:crs:OGC:1.3:CRS84" } },
"features": [
{ "type": "Feature", "properties": { "lat": 44.81094, "lon": -1.14202, "frp": 54.96, "fetch_timestamp": "2026-07-24T12:14:00" }, "geometry": { "type": "Point", "coordinates": [ -1.14202, 44.81094 ] } },
{ "type": "Feature", "properties": { "lat": 44.81852, "lon": -1.10745, "frp": 72.97, "fetch_timestamp": "2026-07-24T12:14:00" }, "geometry": { "type": "Point", "coordinates": [ -1.10745, 44.81852 ] } },
{ "type": "Feature", "properties": { "lat": 44.8193, "lon": -1.12292, "frp": 17.75, "fetch_timestamp": "2026-07-24T12:14:00" }, "geometry": { "type": "Point", "coordinates": [ -1.12292, 44.8193 ] } },
{ "type": "Feature", "properties": { "lat": 44.82233, "lon": -1.10909, "frp": 72.97, "fetch_timestamp": "2026-07-24T12:14:00" }, "geometry": { "type": "Point", "coordinates": [ -1.10909, 44.82233 ] } },
{ "type": "Feature", "properties": { "lat": 44.83366, "lon": -1.07635, "frp": 250.89, "fetch_timestamp": "2026-07-24T12:14:00" }, "geometry": { "type": "Point", "coordinates": [ -1.07635, 44.83366 ] } },
{ "type": "Feature", "properties": { "lat": 44.83458, "lon": -1.1295, "frp": 13.86, "fetch_timestamp": "2026-07-24T12:14:00" }, "geometry": { "type": "Point", "coordinates": [ -1.1295, 44.83458 ] } },
{ "type": "Feature", "properties": { "lat": 44.83608, "lon": -1.12259, "frp": 7.58, "fetch_timestamp": "2026-07-24T12:14:00" }, "geometry": { "type": "Point", "coordinates": [ -1.12259, 44.83608 ] } },
{ "type": "Feature", "properties": { "lat": 44.83828, "lon": -1.09337, "frp": 33.45, "fetch_timestamp": "2026-07-24T12:14:00" }, "geometry": { "type": "Point", "coordinates": [ -1.09337, 44.83828 ] } },
{ "type": "Feature", "properties": { "lat": 44.83897, "lon": -1.07112, "frp": 250.89, "fetch_timestamp": "2026-07-24T12:14:00" }, "geometry": { "type": "Point", "coordinates": [ -1.07112, 44.83897 ] } },
{ "type": "Feature", "properties": { "lat": 44.8429, "lon": -1.11043, "frp": 10.8, "fetch_timestamp": "2026-07-24T12:14:00" }, "geometry": { "type": "Point", "coordinates": [ -1.11043, 44.8429 ] } },
{ "type": "Feature", "properties": { "lat": 44.84972, "lon": -1.0983, "frp": 15.58, "fetch_timestamp": "2026-07-24T12:14:00" }, "geometry": { "type": "Point", "coordinates": [ -1.0983, 44.84972 ] } },
{ "type": "Feature", "properties": { "lat": 44.85121, "lon": -1.09143, "frp": 15.58, "fetch_timestamp": "2026-07-24T12:14:00" }, "geometry": { "type": "Point", "coordinates": [ -1.09143, 44.85121 ] } },
{ "type": "Feature", "properties": { "lat": 44.85502, "lon": -1.09306, "frp": 17.58, "fetch_timestamp": "2026-07-24T12:14:00" }, "geometry": { "type": "Point", "coordinates": [ -1.09306, 44.85502 ] } },
{ "type": "Feature", "properties": { "lat": 44.86032, "lon": -1.08781, "frp": 12.82, "fetch_timestamp": "2026-07-24T12:14:00" }, "geometry": { "type": "Point", "coordinates": [ -1.08781, 44.86032 ] } },
{ "type": "Feature", "properties": { "lat": 44.87092, "lon": -1.07737, "frp": 16.97, "fetch_timestamp": "2026-07-24T12:14:00" }, "geometry": { "type": "Point", "coordinates": [ -1.07737, 44.87092 ] } },
{ "type": "Feature", "properties": { "lat": 44.89182, "lon": -1.01904, "frp": 76.63, "fetch_timestamp": "2026-07-24T12:14:00" }, "geometry": { "type": "Point", "coordinates": [ -1.01904, 44.89182 ] } },
{ "type": "Feature", "properties": { "lat": 44.89732, "lon": -1.0513, "frp": 161.66, "fetch_timestamp": "2026-07-24T12:14:00" }, "geometry": { "type": "Point", "coordinates": [ -1.0513, 44.89732 ] } },
{ "type": "Feature", "properties": { "lat": 44.90467, "lon": -1.01713, "frp": 11.27, "fetch_timestamp": "2026-07-24T12:14:00" }, "geometry": { "type": "Point", "coordinates": [ -1.01713, 44.90467 ] } },
{ "type": "Feature", "properties": { "lat": 44.80413, "lon": -1.12547, "frp": 129.37, "fetch_timestamp": "2026-07-24T12:14:00" }, "geometry": { "type": "Point", "coordinates": [ -1.12547, 44.80413 ] } },
{ "type": "Feature", "properties": { "lat": 44.80423, "lon": -1.14387, "frp": 65.54, "fetch_timestamp": "2026-07-24T12:14:00" }, "geometry": { "type": "Point", "coordinates": [ -1.14387, 44.80423 ] } },
{ "type": "Feature", "properties": { "lat": 44.80902, "lon": -1.12195, "frp": 128.54, "fetch_timestamp": "2026-07-24T12:14:00" }, "geometry": { "type": "Point", "coordinates": [ -1.12195, 44.80902 ] } },
{ "type": "Feature", "properties": { "lat": 44.8111, "lon": -1.11609, "frp": 59.39, "fetch_timestamp": "2026-07-24T12:14:00" }, "geometry": { "type": "Point", "coordinates": [ -1.11609, 44.8111 ] } },
{ "type": "Feature", "properties": { "lat": 44.82287, "lon": -1.10327, "frp": 46.08, "fetch_timestamp": "2026-07-24T12:14:00" }, "geometry": { "type": "Point", "coordinates": [ -1.10327, 44.82287 ] } },
{ "type": "Feature", "properties": { "lat": 44.82954, "lon": -1.06593, "frp": 29.64, "fetch_timestamp": "2026-07-24T12:14:00" }, "geometry": { "type": "Point", "coordinates": [ -1.06593, 44.82954 ] } },
{ "type": "Feature", "properties": { "lat": 44.82963, "lon": -1.07518, "frp": 193.1, "fetch_timestamp": "2026-07-24T12:14:00" }, "geometry": { "type": "Point", "coordinates": [ -1.07518, 44.82963 ] } },
{ "type": "Feature", "properties": { "lat": 44.83192, "lon": -1.06918, "frp": 118.83, "fetch_timestamp": "2026-07-24T12:14:00" }, "geometry": { "type": "Point", "coordinates": [ -1.06918, 44.83192 ] } },
{ "type": "Feature", "properties": { "lat": 44.83665, "lon": -1.07499, "frp": 23.55, "fetch_timestamp": "2026-07-24T12:14:00" }, "geometry": { "type": "Point", "coordinates": [ -1.07499, 44.83665 ] } },
{ "type": "Feature", "properties": { "lat": 44.8924, "lon": -1.00781, "frp": 17.22, "fetch_timestamp": "2026-07-24T12:14:00" }, "geometry": { "type": "Point", "coordinates": [ -1.00781, 44.8924 ] } },
{ "type": "Feature", "properties": { "lat": 44.89248, "lon": -1.01725, "frp": 14.58, "fetch_timestamp": "2026-07-24T12:14:00" }, "geometry": { "type": "Point", "coordinates": [ -1.01725, 44.89248 ] } },
{ "type": "Feature", "properties": { "lat": 44.89267, "lon": -1.04526, "frp": 44.08, "fetch_timestamp": "2026-07-24T12:14:00" }, "geometry": { "type": "Point", "coordinates": [ -1.04526, 44.89267 ] } },
{ "type": "Feature", "properties": { "lat": 44.897, "lon": -1.0491, "frp": 53.23, "fetch_timestamp": "2026-07-24T12:14:00" }, "geometry": { "type": "Point", "coordinates": [ -1.0491, 44.897 ] } },
{ "type": "Feature", "properties": { "lat": 44.89711, "lon": -1.05851, "frp": 53.23, "fetch_timestamp": "2026-07-24T12:14:00" }, "geometry": { "type": "Point", "coordinates": [ -1.05851, 44.89711 ] } },
{ "type": "Feature", "properties": { "lat": 44.89952, "lon": -1.01702, "frp": 14.58, "fetch_timestamp": "2026-07-24T12:14:00" }, "geometry": { "type": "Point", "coordinates": [ -1.01702, 44.89952 ] } },
{ "type": "Feature", "properties": { "lat": 44.78714, "lon": -1.13437, "frp": 51.45, "fetch_timestamp": "2026-07-24T12:14:00" }, "geometry": { "type": "Point", "coordinates": [ -1.13437, 44.78714 ] } },
{ "type": "Feature", "properties": { "lat": 44.81438, "lon": -1.19315, "frp": 0.87, "fetch_timestamp": "2026-07-24T12:14:00" }, "geometry": { "type": "Point", "coordinates": [ -1.19315, 44.81438 ] } },
{ "type": "Feature", "properties": { "lat": 44.81911, "lon": -1.17856, "frp": 0.63, "fetch_timestamp": "2026-07-24T12:14:00" }, "geometry": { "type": "Point", "coordinates": [ -1.17856, 44.81911 ] } },
{ "type": "Feature", "properties": { "lat": 44.82476, "lon": -1.11154, "frp": 5.27, "fetch_timestamp": "2026-07-24T12:14:00" }, "geometry": { "type": "Point", "coordinates": [ -1.11154, 44.82476 ] } },
{ "type": "Feature", "properties": { "lat": 44.83667, "lon": -1.13208, "frp": 3.01, "fetch_timestamp": "2026-07-24T12:14:00" }, "geometry": { "type": "Point", "coordinates": [ -1.13208, 44.83667 ] } },
{ "type": "Feature", "properties": { "lat": 44.84374, "lon": -1.11026, "frp": 3.68, "fetch_timestamp": "2026-07-24T12:14:00" }, "geometry": { "type": "Point", "coordinates": [ -1.11026, 44.84374 ] } },
{ "type": "Feature", "properties": { "lat": 44.86154, "lon": -1.12212, "frp": 131.99, "fetch_timestamp": "2026-07-24T12:14:00" }, "geometry": { "type": "Point", "coordinates": [ -1.12212, 44.86154 ] } },
{ "type": "Feature", "properties": { "lat": 44.78231, "lon": -1.22092, "frp": 14.17, "fetch_timestamp": "2026-07-24T12:14:00" }, "geometry": { "type": "Point", "coordinates": [ -1.22092, 44.78231 ] } },
{ "type": "Feature", "properties": { "lat": 44.78431, "lon": -1.2134, "frp": 11.93, "fetch_timestamp": "2026-07-24T12:14:00" }, "geometry": { "type": "Point", "coordinates": [ -1.2134, 44.78431 ] } },
{ "type": "Feature", "properties": { "lat": 44.78498, "lon": -1.23095, "frp": 11.6, "fetch_timestamp": "2026-07-24T12:14:00" }, "geometry": { "type": "Point", "coordinates": [ -1.23095, 44.78498 ] } },
{ "type": "Feature", "properties": { "lat": 44.78556, "lon": -1.18868, "frp": 19.69, "fetch_timestamp": "2026-07-24T12:14:00" }, "geometry": { "type": "Point", "coordinates": [ -1.18868, 44.78556 ] } },
{ "type": "Feature", "properties": { "lat": 44.78826, "lon": -1.19856, "frp": 19.69, "fetch_timestamp": "2026-07-24T12:14:00" }, "geometry": { "type": "Point", "coordinates": [ -1.19856, 44.78826 ] } },
{ "type": "Feature", "properties": { "lat": 44.79024, "lon": -1.19113, "frp": 19.69, "fetch_timestamp": "2026-07-24T12:14:00" }, "geometry": { "type": "Point", "coordinates": [ -1.19113, 44.79024 ] } },
{ "type": "Feature", "properties": { "lat": 44.79123, "lon": -1.10745, "frp": 48.94, "fetch_timestamp": "2026-07-24T12:14:00" }, "geometry": { "type": "Point", "coordinates": [ -1.10745, 44.79123 ] } },
{ "type": "Feature", "properties": { "lat": 44.7922, "lon": -1.18372, "frp": 32.85, "fetch_timestamp": "2026-07-24T12:14:00" }, "geometry": { "type": "Point", "coordinates": [ -1.18372, 44.7922 ] } },
{ "type": "Feature", "properties": { "lat": 44.79393, "lon": -1.11724, "frp": 11.74, "fetch_timestamp": "2026-07-24T12:14:00" }, "geometry": { "type": "Point", "coordinates": [ -1.11724, 44.79393 ] } },
{ "type": "Feature", "properties": { "lat": 44.79833, "lon": -1.22083, "frp": 15.42, "fetch_timestamp": "2026-07-24T12:14:00" }, "geometry": { "type": "Point", "coordinates": [ -1.22083, 44.79833 ] } },
{ "type": "Feature", "properties": { "lat": 44.8023, "lon": -1.20584, "frp": 37.62, "fetch_timestamp": "2026-07-24T12:14:00" }, "geometry": { "type": "Point", "coordinates": [ -1.20584, 44.8023 ] } },
{ "type": "Feature", "properties": { "lat": 44.80445, "lon": -1.09759, "frp": 12.78, "fetch_timestamp": "2026-07-24T12:14:00" }, "geometry": { "type": "Point", "coordinates": [ -1.09759, 44.80445 ] } },
{ "type": "Feature", "properties": { "lat": 44.805, "lon": -1.21578, "frp": 15.42, "fetch_timestamp": "2026-07-24T12:14:00" }, "geometry": { "type": "Point", "coordinates": [ -1.21578, 44.805 ] } },
{ "type": "Feature", "properties": { "lat": 44.8082, "lon": -1.18358, "frp": 24.96, "fetch_timestamp": "2026-07-24T12:14:00" }, "geometry": { "type": "Point", "coordinates": [ -1.18358, 44.8082 ] } },
{ "type": "Feature", "properties": { "lat": 44.81404, "lon": -1.16148, "frp": 25.59, "fetch_timestamp": "2026-07-24T12:14:00" }, "geometry": { "type": "Point", "coordinates": [ -1.16148, 44.81404 ] } },
{ "type": "Feature", "properties": { "lat": 44.81677, "lon": -1.17129, "frp": 25.32, "fetch_timestamp": "2026-07-24T12:14:00" }, "geometry": { "type": "Point", "coordinates": [ -1.17129, 44.81677 ] } },
{ "type": "Feature", "properties": { "lat": 44.81865, "lon": -1.17324, "frp": 12.48, "fetch_timestamp": "2026-07-24T12:14:00" }, "geometry": { "type": "Point", "coordinates": [ -1.17324, 44.81865 ] } },
{ "type": "Feature", "properties": { "lat": 44.8196, "lon": -1.08037, "frp": 43.53, "fetch_timestamp": "2026-07-24T12:14:00" }, "geometry": { "type": "Point", "coordinates": [ -1.08037, 44.8196 ] } },
{ "type": "Feature", "properties": { "lat": 44.82859, "lon": -1.13645, "frp": 48.73, "fetch_timestamp": "2026-07-24T12:14:00" }, "geometry": { "type": "Point", "coordinates": [ -1.13645, 44.82859 ] } },
{ "type": "Feature", "properties": { "lat": 44.83389, "lon": -1.14664, "frp": 37.14, "fetch_timestamp": "2026-07-24T12:14:00" }, "geometry": { "type": "Point", "coordinates": [ -1.14664, 44.83389 ] } },
{ "type": "Feature", "properties": { "lat": 44.83789, "lon": -1.14135, "frp": 174.89, "fetch_timestamp": "2026-07-24T12:14:00" }, "geometry": { "type": "Point", "coordinates": [ -1.14135, 44.83789 ] } },
{ "type": "Feature", "properties": { "lat": 44.83934, "lon": -1.06566, "frp": 9.96, "fetch_timestamp": "2026-07-24T12:14:00" }, "geometry": { "type": "Point", "coordinates": [ -1.06566, 44.83934 ] } },
{ "type": "Feature", "properties": { "lat": 44.84048, "lon": -1.04127, "frp": 24.83, "fetch_timestamp": "2026-07-24T12:14:00" }, "geometry": { "type": "Point", "coordinates": [ -1.04127, 44.84048 ] } },
{ "type": "Feature", "properties": { "lat": 44.8432, "lon": -1.05102, "frp": 21.98, "fetch_timestamp": "2026-07-24T12:14:00" }, "geometry": { "type": "Point", "coordinates": [ -1.05102, 44.8432 ] } },
{ "type": "Feature", "properties": { "lat": 44.85729, "lon": -1.16803, "frp": 45.6, "fetch_timestamp": "2026-07-24T12:14:00" }, "geometry": { "type": "Point", "coordinates": [ -1.16803, 44.85729 ] } },
{ "type": "Feature", "properties": { "lat": 44.85978, "lon": -1.11916, "frp": 42.22, "fetch_timestamp": "2026-07-24T12:14:00" }, "geometry": { "type": "Point", "coordinates": [ -1.11916, 44.85978 ] } },
{ "type": "Feature", "properties": { "lat": 44.87054, "lon": -1.15823, "frp": 248.22, "fetch_timestamp": "2026-07-24T12:14:00" }, "geometry": { "type": "Point", "coordinates": [ -1.15823, 44.87054 ] } },
{ "type": "Feature", "properties": { "lat": 44.8764, "lon": -1.13631, "frp": 62.07, "fetch_timestamp": "2026-07-24T12:14:00" }, "geometry": { "type": "Point", "coordinates": [ -1.13631, 44.8764 ] } },
{ "type": "Feature", "properties": { "lat": 44.87693, "lon": -1.09469, "frp": 46.99, "fetch_timestamp": "2026-07-24T12:14:00" }, "geometry": { "type": "Point", "coordinates": [ -1.09469, 44.87693 ] } },
{ "type": "Feature", "properties": { "lat": 44.87961, "lon": -1.10445, "frp": 38.28, "fetch_timestamp": "2026-07-24T12:14:00" }, "geometry": { "type": "Point", "coordinates": [ -1.10445, 44.87961 ] } },
{ "type": "Feature", "properties": { "lat": 44.88084, "lon": -1.08007, "frp": 35.83, "fetch_timestamp": "2026-07-24T12:14:00" }, "geometry": { "type": "Point", "coordinates": [ -1.08007, 44.88084 ] } },
{ "type": "Feature", "properties": { "lat": 44.88443, "lon": -1.00734, "frp": 9.25, "fetch_timestamp": "2026-07-24T12:14:00" }, "geometry": { "type": "Point", "coordinates": [ -1.00734, 44.88443 ] } },
{ "type": "Feature", "properties": { "lat": 44.88625, "lon": -1.00729, "frp": 8.29, "fetch_timestamp": "2026-07-24T12:14:00" }, "geometry": { "type": "Point", "coordinates": [ -1.00729, 44.88625 ] } },
{ "type": "Feature", "properties": { "lat": 44.88889, "lon": -1.10934, "frp": 231.5, "fetch_timestamp": "2026-07-24T12:14:00" }, "geometry": { "type": "Point", "coordinates": [ -1.10934, 44.88889 ] } },
{ "type": "Feature", "properties": { "lat": 44.89011, "lon": -1.08494, "frp": 61.23, "fetch_timestamp": "2026-07-24T12:14:00" }, "geometry": { "type": "Point", "coordinates": [ -1.08494, 44.89011 ] } },
{ "type": "Feature", "properties": { "lat": 44.89277, "lon": -1.00244, "frp": 16.31, "fetch_timestamp": "2026-07-24T12:14:00" }, "geometry": { "type": "Point", "coordinates": [ -1.00244, 44.89277 ] } },
{ "type": "Feature", "properties": { "lat": 44.89938, "lon": -1.08984, "frp": 135.35, "fetch_timestamp": "2026-07-24T12:14:00" }, "geometry": { "type": "Point", "coordinates": [ -1.08984, 44.89938 ] } },
{ "type": "Feature", "properties": { "lat": 44.90206, "lon": -1.0996, "frp": 394.96, "fetch_timestamp": "2026-07-24T12:14:00" }, "geometry": { "type": "Point", "coordinates": [ -1.0996, 44.90206 ] } },
{ "type": "Feature", "properties": { "lat": 44.90252, "lon": -1.05817, "frp": 48.24, "fetch_timestamp": "2026-07-24T12:14:00" }, "geometry": { "type": "Point", "coordinates": [ -1.05817, 44.90252 ] } },
{ "type": "Feature", "properties": { "lat": 44.90596, "lon": -1.08495, "frp": 335.72, "fetch_timestamp": "2026-07-24T12:14:00" }, "geometry": { "type": "Point", "coordinates": [ -1.08495, 44.90596 ] } },
{ "type": "Feature", "properties": { "lat": 44.90744, "lon": -1.11919, "frp": 248.79, "fetch_timestamp": "2026-07-24T12:14:00" }, "geometry": { "type": "Point", "coordinates": [ -1.11919, 44.90744 ] } },
{ "type": "Feature", "properties": { "lat": 44.9079, "lon": -1.07765, "frp": 335.72, "fetch_timestamp": "2026-07-24T12:14:00" }, "geometry": { "type": "Point", "coordinates": [ -1.07765, 44.9079 ] } },
{ "type": "Feature", "properties": { "lat": 44.911, "lon": -1.04611, "frp": 52.56, "fetch_timestamp": "2026-07-24T12:14:00" }, "geometry": { "type": "Point", "coordinates": [ -1.04611, 44.911 ] } },
{ "type": "Feature", "properties": { "lat": 44.91208, "lon": -1.12162, "frp": 248.79, "fetch_timestamp": "2026-07-24T12:14:00" }, "geometry": { "type": "Point", "coordinates": [ -1.12162, 44.91208 ] } },
{ "type": "Feature", "properties": { "lat": 44.91402, "lon": -1.11429, "frp": 248.79, "fetch_timestamp": "2026-07-24T12:14:00" }, "geometry": { "type": "Point", "coordinates": [ -1.11429, 44.91402 ] } },
{ "type": "Feature", "properties": { "lat": 44.91597, "lon": -1.10695, "frp": 597.37, "fetch_timestamp": "2026-07-24T12:14:00" }, "geometry": { "type": "Point", "coordinates": [ -1.10695, 44.91597 ] } },
{ "type": "Feature", "properties": { "lat": 44.82079, "lon": -1.15644, "frp": 24.68, "fetch_timestamp": "2026-07-24T12:14:00" }, "geometry": { "type": "Point", "coordinates": [ -1.15644, 44.82079 ] } },
{ "type": "Feature", "properties": { "lat": 44.82921, "lon": -1.0861, "frp": 23.02, "fetch_timestamp": "2026-07-24T12:14:00" }, "geometry": { "type": "Point", "coordinates": [ -1.0861, 44.82921 ] } },
{ "type": "Feature", "properties": { "lat": 44.82931, "lon": -1.10605, "frp": 25.66, "fetch_timestamp": "2026-07-24T12:14:00" }, "geometry": { "type": "Point", "coordinates": [ -1.10605, 44.82931 ] } },
{ "type": "Feature", "properties": { "lat": 44.83418, "lon": -1.08884, "frp": 41.02, "fetch_timestamp": "2026-07-24T12:14:00" }, "geometry": { "type": "Point", "coordinates": [ -1.08884, 44.83418 ] } },
{ "type": "Feature", "properties": { "lat": 44.8354, "lon": -1.08455, "frp": 58.57, "fetch_timestamp": "2026-07-24T12:14:00" }, "geometry": { "type": "Point", "coordinates": [ -1.08455, 44.8354 ] } },
{ "type": "Feature", "properties": { "lat": 44.84037, "lon": -1.08729, "frp": 58.57, "fetch_timestamp": "2026-07-24T12:14:00" }, "geometry": { "type": "Point", "coordinates": [ -1.08729, 44.84037 ] } },
{ "type": "Feature", "properties": { "lat": 44.84279, "lon": -1.07873, "frp": 57.6, "fetch_timestamp": "2026-07-24T12:14:00" }, "geometry": { "type": "Point", "coordinates": [ -1.07873, 44.84279 ] } },
{ "type": "Feature", "properties": { "lat": 44.84401, "lon": -1.07443, "frp": 57.6, "fetch_timestamp": "2026-07-24T12:14:00" }, "geometry": { "type": "Point", "coordinates": [ -1.07443, 44.84401 ] } },
{ "type": "Feature", "properties": { "lat": 44.84765, "lon": -1.06154, "frp": 100.76, "fetch_timestamp": "2026-07-24T12:14:00" }, "geometry": { "type": "Point", "coordinates": [ -1.06154, 44.84765 ] } },
{ "type": "Feature", "properties": { "lat": 44.8514, "lon": -1.06858, "frp": 13.63, "fetch_timestamp": "2026-07-24T12:14:00" }, "geometry": { "type": "Point", "coordinates": [ -1.06858, 44.8514 ] } },
{ "type": "Feature", "properties": { "lat": 44.87864, "lon": -1.07375, "frp": 9.69, "fetch_timestamp": "2026-07-24T12:14:00" }, "geometry": { "type": "Point", "coordinates": [ -1.07375, 44.87864 ] } },
{ "type": "Feature", "properties": { "lat": 44.89046, "lon": -1.0112, "frp": 28.77, "fetch_timestamp": "2026-07-24T12:14:00" }, "geometry": { "type": "Point", "coordinates": [ -1.0112, 44.89046 ] } },
{ "type": "Feature", "properties": { "lat": 44.89542, "lon": -1.01391, "frp": 28.77, "fetch_timestamp": "2026-07-24T12:14:00" }, "geometry": { "type": "Point", "coordinates": [ -1.01391, 44.89542 ] } },
{ "type": "Feature", "properties": { "lat": 44.89815, "lon": -1.04504, "frp": 108.91, "fetch_timestamp": "2026-07-24T12:14:00" }, "geometry": { "type": "Point", "coordinates": [ -1.04504, 44.89815 ] } },
{ "type": "Feature", "properties": { "lat": 44.9031, "lon": -1.04778, "frp": 80.78, "fetch_timestamp": "2026-07-24T12:14:00" }, "geometry": { "type": "Point", "coordinates": [ -1.04778, 44.9031 ] } },
{ "type": "Feature", "properties": { "lat": 44.80746, "lon": -1.16132, "frp": 8.85, "fetch_timestamp": "2026-07-24T12:14:00" }, "geometry": { "type": "Point", "coordinates": [ -1.16132, 44.80746 ] } },
{ "type": "Feature", "properties": { "lat": 44.80892, "lon": -1.15923, "frp": 6.31, "fetch_timestamp": "2026-07-24T12:14:00" }, "geometry": { "type": "Point", "coordinates": [ -1.15923, 44.80892 ] } },
{ "type": "Feature", "properties": { "lat": 44.82148, "lon": -1.1199, "frp": 9.49, "fetch_timestamp": "2026-07-24T12:14:00" }, "geometry": { "type": "Point", "coordinates": [ -1.1199, 44.82148 ] } },
{ "type": "Feature", "properties": { "lat": 44.82563, "lon": -1.14273, "frp": 9.01, "fetch_timestamp": "2026-07-24T12:14:00" }, "geometry": { "type": "Point", "coordinates": [ -1.14273, 44.82563 ] } },
{ "type": "Feature", "properties": { "lat": 44.83543, "lon": -1.12784, "frp": 12.14, "fetch_timestamp": "2026-07-24T12:14:00" }, "geometry": { "type": "Point", "coordinates": [ -1.12784, 44.83543 ] } },
{ "type": "Feature", "properties": { "lat": 44.85272, "lon": -1.09783, "frp": 7.31, "fetch_timestamp": "2026-07-24T12:14:00" }, "geometry": { "type": "Point", "coordinates": [ -1.09783, 44.85272 ] } },
{ "type": "Feature", "properties": { "lat": 44.85439, "lon": -1.06177, "frp": 13.11, "fetch_timestamp": "2026-07-24T12:14:00" }, "geometry": { "type": "Point", "coordinates": [ -1.06177, 44.85439 ] } },
{ "type": "Feature", "properties": { "lat": 44.8546, "lon": -1.05725, "frp": 13.73, "fetch_timestamp": "2026-07-24T12:14:00" }, "geometry": { "type": "Point", "coordinates": [ -1.05725, 44.8546 ] } },
{ "type": "Feature", "properties": { "lat": 44.85822, "lon": -1.09382, "frp": 10.81, "fetch_timestamp": "2026-07-24T12:14:00" }, "geometry": { "type": "Point", "coordinates": [ -1.09382, 44.85822 ] } },
{ "type": "Feature", "properties": { "lat": 44.85843, "lon": -1.08931, "frp": 10.81, "fetch_timestamp": "2026-07-24T12:14:00" }, "geometry": { "type": "Point", "coordinates": [ -1.08931, 44.85843 ] } },
{ "type": "Feature", "properties": { "lat": 44.86371, "lon": -1.08976, "frp": 6.06, "fetch_timestamp": "2026-07-24T12:14:00" }, "geometry": { "type": "Point", "coordinates": [ -1.08976, 44.86371 ] } },
{ "type": "Feature", "properties": { "lat": 44.86963, "lon": -1.07669, "frp": 9.54, "fetch_timestamp": "2026-07-24T12:14:00" }, "geometry": { "type": "Point", "coordinates": [ -1.07669, 44.86963 ] } },
{ "type": "Feature", "properties": { "lat": 44.88043, "lon": -1.07308, "frp": 9.92, "fetch_timestamp": "2026-07-24T12:14:00" }, "geometry": { "type": "Point", "coordinates": [ -1.07308, 44.88043 ] } },
{ "type": "Feature", "properties": { "lat": 44.88278, "lon": -1.0231, "frp": 2.91, "fetch_timestamp": "2026-07-24T12:14:00" }, "geometry": { "type": "Point", "coordinates": [ -1.0231, 44.88278 ] } },
{ "type": "Feature", "properties": { "lat": 44.90422, "lon": -1.02036, "frp": 8.59, "fetch_timestamp": "2026-07-24T12:14:00" }, "geometry": { "type": "Point", "coordinates": [ -1.02036, 44.90422 ] } },
{ "type": "Feature", "properties": { "lat": 44.90444, "lon": -1.01581, "frp": 12.24, "fetch_timestamp": "2026-07-24T12:14:00" }, "geometry": { "type": "Point", "coordinates": [ -1.01581, 44.90444 ] } },
{ "type": "Feature", "properties": { "lat": 44.82153, "lon": -1.10568, "frp": 3.2, "fetch_timestamp": "2026-07-24T12:14:00" }, "geometry": { "type": "Point", "coordinates": [ -1.10568, 44.82153 ] } },
{ "type": "Feature", "properties": { "lat": 44.82484, "lon": -1.10472, "frp": 2.12, "fetch_timestamp": "2026-07-24T12:14:00" }, "geometry": { "type": "Point", "coordinates": [ -1.10472, 44.82484 ] } },
{ "type": "Feature", "properties": { "lat": 44.83076, "lon": -1.09789, "frp": 3.23, "fetch_timestamp": "2026-07-24T12:14:00" }, "geometry": { "type": "Point", "coordinates": [ -1.09789, 44.83076 ] } },
{ "type": "Feature", "properties": { "lat": 44.83148, "lon": -1.10281, "frp": 4.34, "fetch_timestamp": "2026-07-24T12:14:00" }, "geometry": { "type": "Point", "coordinates": [ -1.10281, 44.83148 ] } },
{ "type": "Feature", "properties": { "lat": 44.86434, "lon": -1.06768, "frp": 2.92, "fetch_timestamp": "2026-07-24T12:14:00" }, "geometry": { "type": "Point", "coordinates": [ -1.06768, 44.86434 ] } },
{ "type": "Feature", "properties": { "lat": 44.78633, "lon": -1.11822, "frp": 12.8, "fetch_timestamp": "2026-07-24T12:14:00" }, "geometry": { "type": "Point", "coordinates": [ -1.11822, 44.78633 ] } },
{ "type": "Feature", "properties": { "lat": 44.78822, "lon": -1.1158, "frp": 16.15, "fetch_timestamp": "2026-07-24T12:14:00" }, "geometry": { "type": "Point", "coordinates": [ -1.1158, 44.78822 ] } },
{ "type": "Feature", "properties": { "lat": 44.78996, "lon": -1.12904, "frp": 14.15, "fetch_timestamp": "2026-07-24T12:14:00" }, "geometry": { "type": "Point", "coordinates": [ -1.12904, 44.78996 ] } },
{ "type": "Feature", "properties": { "lat": 44.81174, "lon": -1.08893, "frp": 27.02, "fetch_timestamp": "2026-07-24T12:14:00" }, "geometry": { "type": "Point", "coordinates": [ -1.08893, 44.81174 ] } },
{ "type": "Feature", "properties": { "lat": 44.81425, "lon": -1.07746, "frp": 23.51, "fetch_timestamp": "2026-07-24T12:14:00" }, "geometry": { "type": "Point", "coordinates": [ -1.07746, 44.81425 ] } },
{ "type": "Feature", "properties": { "lat": 44.81637, "lon": -1.07517, "frp": 37.47, "fetch_timestamp": "2026-07-24T12:14:00" }, "geometry": { "type": "Point", "coordinates": [ -1.07517, 44.81637 ] } },
{ "type": "Feature", "properties": { "lat": 44.82473, "lon": -1.06752, "frp": 32.63, "fetch_timestamp": "2026-07-24T12:14:00" }, "geometry": { "type": "Point", "coordinates": [ -1.06752, 44.82473 ] } },
{ "type": "Feature", "properties": { "lat": 44.82701, "lon": -1.06059, "frp": 33.67, "fetch_timestamp": "2026-07-24T12:14:00" }, "geometry": { "type": "Point", "coordinates": [ -1.06059, 44.82701 ] } },
{ "type": "Feature", "properties": { "lat": 44.82979, "lon": -1.14287, "frp": 12.6, "fetch_timestamp": "2026-07-24T12:14:00" }, "geometry": { "type": "Point", "coordinates": [ -1.14287, 44.82979 ] } },
{ "type": "Feature", "properties": { "lat": 44.83442, "lon": -1.12905, "frp": 22.75, "fetch_timestamp": "2026-07-24T12:14:00" }, "geometry": { "type": "Point", "coordinates": [ -1.12905, 44.83442 ] } },
{ "type": "Feature", "properties": { "lat": 44.83743, "lon": -1.05545, "frp": 54.35, "fetch_timestamp": "2026-07-24T12:14:00" }, "geometry": { "type": "Point", "coordinates": [ -1.05545, 44.83743 ] } },
{ "type": "Feature", "properties": { "lat": 44.83943, "lon": -1.1573, "frp": 87.18, "fetch_timestamp": "2026-07-24T12:14:00" }, "geometry": { "type": "Point", "coordinates": [ -1.1573, 44.83943 ] } },
{ "type": "Feature", "properties": { "lat": 44.84167, "lon": -1.15059, "frp": 87.18, "fetch_timestamp": "2026-07-24T12:14:00" }, "geometry": { "type": "Point", "coordinates": [ -1.15059, 44.84167 ] } },
{ "type": "Feature", "properties": { "lat": 44.84399, "lon": -1.14368, "frp": 139.69, "fetch_timestamp": "2026-07-24T12:14:00" }, "geometry": { "type": "Point", "coordinates": [ -1.14368, 44.84399 ] } },
{ "type": "Feature", "properties": { "lat": 44.85022, "lon": -1.03875, "frp": 13.59, "fetch_timestamp": "2026-07-24T12:14:00" }, "geometry": { "type": "Point", "coordinates": [ -1.03875, 44.85022 ] } },
{ "type": "Feature", "properties": { "lat": 44.85454, "lon": -1.13372, "frp": 25.73, "fetch_timestamp": "2026-07-24T12:14:00" }, "geometry": { "type": "Point", "coordinates": [ -1.13372, 44.85454 ] } },
{ "type": "Feature", "properties": { "lat": 44.85685, "lon": -1.1268, "frp": 25.73, "fetch_timestamp": "2026-07-24T12:14:00" }, "geometry": { "type": "Point", "coordinates": [ -1.1268, 44.85685 ] } },
{ "type": "Feature", "properties": { "lat": 44.85955, "lon": -1.16205, "frp": 166.21, "fetch_timestamp": "2026-07-24T12:14:00" }, "geometry": { "type": "Point", "coordinates": [ -1.16205, 44.85955 ] } },
{ "type": "Feature", "properties": { "lat": 44.86145, "lon": -1.11301, "frp": 24.11, "fetch_timestamp": "2026-07-24T12:14:00" }, "geometry": { "type": "Point", "coordinates": [ -1.11301, 44.86145 ] } },
{ "type": "Feature", "properties": { "lat": 44.86162, "lon": -1.1567, "frp": 176.56, "fetch_timestamp": "2026-07-24T12:14:00" }, "geometry": { "type": "Point", "coordinates": [ -1.1567, 44.86162 ] } },
{ "type": "Feature", "properties": { "lat": 44.8618, "lon": -1.15529, "frp": 144.7, "fetch_timestamp": "2026-07-24T12:14:00" }, "geometry": { "type": "Point", "coordinates": [ -1.15529, 44.8618 ] } },
{ "type": "Feature", "properties": { "lat": 44.86243, "lon": -1.08848, "frp": 12.68, "fetch_timestamp": "2026-07-24T12:14:00" }, "geometry": { "type": "Point", "coordinates": [ -1.08848, 44.86243 ] } },
{ "type": "Feature", "properties": { "lat": 44.863, "lon": -1.17401, "frp": 74.8, "fetch_timestamp": "2026-07-24T12:14:00" }, "geometry": { "type": "Point", "coordinates": [ -1.17401, 44.863 ] } },
{ "type": "Feature", "properties": { "lat": 44.86394, "lon": -1.14986, "frp": 114.64, "fetch_timestamp": "2026-07-24T12:14:00" }, "geometry": { "type": "Point", "coordinates": [ -1.14986, 44.86394 ] } },
{ "type": "Feature", "properties": { "lat": 44.86409, "lon": -1.14841, "frp": 144.7, "fetch_timestamp": "2026-07-24T12:14:00" }, "geometry": { "type": "Point", "coordinates": [ -1.14841, 44.86409 ] } },
{ "type": "Feature", "properties": { "lat": 44.86605, "lon": -1.09922, "frp": 44.28, "fetch_timestamp": "2026-07-24T12:14:00" }, "geometry": { "type": "Point", "coordinates": [ -1.09922, 44.86605 ] } },
{ "type": "Feature", "properties": { "lat": 44.86627, "lon": -1.14299, "frp": 114.64, "fetch_timestamp": "2026-07-24T12:14:00" }, "geometry": { "type": "Point", "coordinates": [ -1.14299, 44.86627 ] } },
{ "type": "Feature", "properties": { "lat": 44.86737, "lon": -1.11691, "frp": 24.11, "fetch_timestamp": "2026-07-24T12:14:00" }, "geometry": { "type": "Point", "coordinates": [ -1.11691, 44.86737 ] } },
{ "type": "Feature", "properties": { "lat": 44.86967, "lon": -1.10999, "frp": 44.28, "fetch_timestamp": "2026-07-24T12:14:00" }, "geometry": { "type": "Point", "coordinates": [ -1.10999, 44.86967 ] } },
{ "type": "Feature", "properties": { "lat": 44.87092, "lon": -1.12928, "frp": 21.6, "fetch_timestamp": "2026-07-24T12:14:00" }, "geometry": { "type": "Point", "coordinates": [ -1.12928, 44.87092 ] } },
{ "type": "Feature", "properties": { "lat": 44.87097, "lon": -1.12774, "frp": 15.86, "fetch_timestamp": "2026-07-24T12:14:00" }, "geometry": { "type": "Point", "coordinates": [ -1.12774, 44.87097 ] } },
{ "type": "Feature", "properties": { "lat": 44.87123, "lon": -1.17111, "frp": 19.96, "fetch_timestamp": "2026-07-24T12:14:00" }, "geometry": { "type": "Point", "coordinates": [ -1.17111, 44.87123 ] } },
{ "type": "Feature", "properties": { "lat": 44.87142, "lon": -1.16979, "frp": 34.51, "fetch_timestamp": "2026-07-24T12:14:00" }, "geometry": { "type": "Point", "coordinates": [ -1.16979, 44.87142 ] } },
{ "type": "Feature", "properties": { "lat": 44.87223, "lon": -1.14678, "frp": 114.64, "fetch_timestamp": "2026-07-24T12:14:00" }, "geometry": { "type": "Point", "coordinates": [ -1.14678, 44.87223 ] } },
{ "type": "Feature", "properties": { "lat": 44.87233, "lon": -1.14534, "frp": 92.67, "fetch_timestamp": "2026-07-24T12:14:00" }, "geometry": { "type": "Point", "coordinates": [ -1.14534, 44.87233 ] } },
{ "type": "Feature", "properties": { "lat": 44.87355, "lon": -1.16428, "frp": 19.96, "fetch_timestamp": "2026-07-24T12:14:00" }, "geometry": { "type": "Point", "coordinates": [ -1.16428, 44.87355 ] } },
{ "type": "Feature", "properties": { "lat": 44.8737, "lon": -1.16293, "frp": 32.15, "fetch_timestamp": "2026-07-24T12:14:00" }, "geometry": { "type": "Point", "coordinates": [ -1.16293, 44.8737 ] } },
{ "type": "Feature", "properties": { "lat": 44.87585, "lon": -1.15746, "frp": 40.12, "fetch_timestamp": "2026-07-24T12:14:00" }, "geometry": { "type": "Point", "coordinates": [ -1.15746, 44.87585 ] } },
{ "type": "Feature", "properties": { "lat": 44.87598, "lon": -1.15609, "frp": 32.15, "fetch_timestamp": "2026-07-24T12:14:00" }, "geometry": { "type": "Point", "coordinates": [ -1.15609, 44.87598 ] } },
{ "type": "Feature", "properties": { "lat": 44.87916, "lon": -1.12629, "frp": 21.59, "fetch_timestamp": "2026-07-24T12:14:00" }, "geometry": { "type": "Point", "coordinates": [ -1.12629, 44.87916 ] } },
{ "type": "Feature", "properties": { "lat": 44.87918, "lon": -1.12475, "frp": 15.86, "fetch_timestamp": "2026-07-24T12:14:00" }, "geometry": { "type": "Point", "coordinates": [ -1.12475, 44.87918 ] } },
{ "type": "Feature", "properties": { "lat": 44.88276, "lon": -1.13703, "frp": 45.97, "fetch_timestamp": "2026-07-24T12:14:00" }, "geometry": { "type": "Point", "coordinates": [ -1.13703, 44.88276 ] } },
{ "type": "Feature", "properties": { "lat": 44.88279, "lon": -1.13558, "frp": 134.06, "fetch_timestamp": "2026-07-24T12:14:00" }, "geometry": { "type": "Point", "coordinates": [ -1.13558, 44.88279 ] } },
{ "type": "Feature", "properties": { "lat": 44.88508, "lon": -1.13018, "frp": 59.96, "fetch_timestamp": "2026-07-24T12:14:00" }, "geometry": { "type": "Point", "coordinates": [ -1.13018, 44.88508 ] } },
{ "type": "Feature", "properties": { "lat": 44.8874, "lon": -1.12172, "frp": 71.66, "fetch_timestamp": "2026-07-24T12:14:00" }, "geometry": { "type": "Point", "coordinates": [ -1.12172, 44.8874 ] } },
{ "type": "Feature", "properties": { "lat": 44.88742, "lon": -1.12326, "frp": 59.96, "fetch_timestamp": "2026-07-24T12:14:00" }, "geometry": { "type": "Point", "coordinates": [ -1.12326, 44.88742 ] } },
{ "type": "Feature", "properties": { "lat": 44.88974, "lon": -1.1164, "frp": 163.66, "fetch_timestamp": "2026-07-24T12:14:00" }, "geometry": { "type": "Point", "coordinates": [ -1.1164, 44.88974 ] } },
{ "type": "Feature", "properties": { "lat": 44.89078, "lon": -1.09194, "frp": 37.41, "fetch_timestamp": "2026-07-24T12:14:00" }, "geometry": { "type": "Point", "coordinates": [ -1.09194, 44.89078 ] } },
{ "type": "Feature", "properties": { "lat": 44.89328, "lon": -1.12573, "frp": 71.66, "fetch_timestamp": "2026-07-24T12:14:00" }, "geometry": { "type": "Point", "coordinates": [ -1.12573, 44.89328 ] } },
{ "type": "Feature", "properties": { "lat": 44.89331, "lon": -1.12721, "frp": 59.96, "fetch_timestamp": "2026-07-24T12:14:00" }, "geometry": { "type": "Point", "coordinates": [ -1.12721, 44.89331 ] } },
{ "type": "Feature", "properties": { "lat": 44.89556, "lon": -1.11884, "frp": 71.66, "fetch_timestamp": "2026-07-24T12:14:00" }, "geometry": { "type": "Point", "coordinates": [ -1.11884, 44.89556 ] } },
{ "type": "Feature", "properties": { "lat": 44.89564, "lon": -1.12034, "frp": 163.66, "fetch_timestamp": "2026-07-24T12:14:00" }, "geometry": { "type": "Point", "coordinates": [ -1.12034, 44.89564 ] } },
{ "type": "Feature", "properties": { "lat": 44.89788, "lon": -1.00357, "frp": 18.95, "fetch_timestamp": "2026-07-24T12:14:00" }, "geometry": { "type": "Point", "coordinates": [ -1.00357, 44.89788 ] } },
{ "type": "Feature", "properties": { "lat": 44.90146, "lon": -1.12277, "frp": 20.87, "fetch_timestamp": "2026-07-24T12:14:00" }, "geometry": { "type": "Point", "coordinates": [ -1.12277, 44.90146 ] } },
{ "type": "Feature", "properties": { "lat": 44.90152, "lon": -1.01422, "frp": 18.95, "fetch_timestamp": "2026-07-24T12:14:00" }, "geometry": { "type": "Point", "coordinates": [ -1.01422, 44.90152 ] } },
{ "type": "Feature", "properties": { "lat": 44.90459, "lon": -1.05104, "frp": 10.26, "fetch_timestamp": "2026-07-24T12:14:00" }, "geometry": { "type": "Point", "coordinates": [ -1.05104, 44.90459 ] } },
{ "type": "Feature", "properties": { "lat": 44.90563, "lon": -1.06677, "frp": 86.15, "fetch_timestamp": "2026-07-24T12:14:00" }, "geometry": { "type": "Point", "coordinates": [ -1.06677, 44.90563 ] } },
{ "type": "Feature", "properties": { "lat": 44.90788, "lon": -1.05998, "frp": 86.15, "fetch_timestamp": "2026-07-24T12:14:00" }, "geometry": { "type": "Point", "coordinates": [ -1.05998, 44.90788 ] } },
{ "type": "Feature", "properties": { "lat": 44.91012, "lon": -1.05321, "frp": 18.94, "fetch_timestamp": "2026-07-24T12:14:00" }, "geometry": { "type": "Point", "coordinates": [ -1.05321, 44.91012 ] } },
{ "type": "Feature", "properties": { "lat": 44.91048, "lon": -1.05494, "frp": 62.37, "fetch_timestamp": "2026-07-24T12:14:00" }, "geometry": { "type": "Point", "coordinates": [ -1.05494, 44.91048 ] } },
{ "type": "Feature", "properties": { "lat": 44.91148, "lon": -1.07079, "frp": 86.15, "fetch_timestamp": "2026-07-24T12:14:00" }, "geometry": { "type": "Point", "coordinates": [ -1.07079, 44.91148 ] } },
{ "type": "Feature", "properties": { "lat": 44.91179, "lon": -1.07244, "frp": 175.35, "fetch_timestamp": "2026-07-24T12:14:00" }, "geometry": { "type": "Point", "coordinates": [ -1.07244, 44.91179 ] } },
{ "type": "Feature", "properties": { "lat": 44.91511, "lon": -1.08155, "frp": 285.01, "fetch_timestamp": "2026-07-24T12:14:00" }, "geometry": { "type": "Point", "coordinates": [ -1.08155, 44.91511 ] } },
{ "type": "Feature", "properties": { "lat": 44.91539, "lon": -1.08313, "frp": 204.17, "fetch_timestamp": "2026-07-24T12:14:00" }, "geometry": { "type": "Point", "coordinates": [ -1.08313, 44.91539 ] } }
]
}
