{"type": "FeatureCollection", "name": "zone_active", "crs": {"type": "name", "properties": {"name": "urn:ogc:def:crs:OGC:1.3:CRS84"}}, "features": [{"type": "Feature", "properties": {"nb_detections_cluster": 8, "frp_max": 126.53, "frp_moyen": 71.03, "derniere_detection": "2026-07-22T12:49:00", "fetch_timestamp": "2026-07-22T12:49:00"}, "geometry": {"type": "Polygon", "coordinates": [[[-1.03115, 44.89782], [-1.03611, 44.89697], [-1.03227, 44.90112], [-1.02237, 44.90282], [-1.02732, 44.90197], [-1.03115, 44.89782]]]}}]}