{"type": "FeatureCollection", "name": "zone_active", "crs": {"type": "name", "properties": {"name": "urn:ogc:def:crs:OGC:1.3:CRS84"}}, "features": [{"type": "Feature", "properties": {"nb_detections": 33, "derniere_detection": "2026-07-22T14:12:00", "fetch_timestamp": "2026-07-25T11:43:01.458650"}, "geometry": {"type": "Polygon", "coordinates": [[[-1.027693694184147, 44.883874169668736], [-1.027859381780807, 44.88358823828847], [-1.028063691062637, 44.8833152292146], [-1.028304654027153, 44.883057771463065], [-1.028579949798041, 44.882818344258425], [-1.028886926986886, 44.88259925316658], [-1.029222629232852, 44.8824026079005], [-1.029583823674151, 44.88223030201221], [-1.029967032077108, 44.88208399466653], [-1.030368564323217, 44.88196509467143], [-1.030784553932095, 44.88187474691848], [-1.031210995278794, 44.881813821364005], [-1.031643782147781, 44.88178290465626], [-1.032078747253149, 44.881782294489476], [-1.032511702345417, 44.88181199673892], [-1.032938478519675, 44.88187172540424], [-1.033354966337944, 44.88196090536206], [-1.033757155380318, 44.88207867790089], [-1.034141172845032, 44.88222390898574], [-1.034503320826479, 44.88239520017252], [-1.034840111912992, 44.882590902067776], [-1.035148302762091, 44.882809130204265], [-1.035424925330267, 44.883047783179734], [-1.035667315456759, 44.88330456288495], [-1.035812704082976, 44.88349700405095], [-1.035963465189812, 44.883295499960404], [-1.036204391838829, 44.88303802507302], [-1.036479653819449, 44.88279857829038], [-1.036786600068536, 44.882579465366945], [-1.037122274523082, 44.88238279622589], [-1.037483444588806, 44.882210464649226], [-1.037866632266655, 44.8820641300491], [-1.038268147637598, 44.881945201495945], [-1.038684124383671, 44.88185482415637], [-1.03911055700372, 44.88179386827151], [-1.039543339366202, 44.88176292078171], [-1.039978304228579, 44.88176227967762], [-1.040411263343713, 44.88179195113238], [-1.040838047767976, 44.88185164944216], [-1.041254547983988, 44.88194079977584], [-1.041656753452527, 44.88205854370726], [-1.042040791213729, 44.88220374747684], [-1.042402963166641, 44.882375012903545], [-1.042739781668864, 44.882570690842], [-1.043048003114029, 44.88278889705561], [-1.043324659164111, 44.88302753035332], [-1.043567085336038, 44.88328429281537], [-1.043683828616865, 44.88343878115473], [-1.043813241471152, 44.88326576901378], [-1.044054131988695, 44.88300827710238], [-1.044329360340552, 44.882768810868775], [-1.044636275787316, 44.88254967625476], [-1.044971922562481, 44.88235298339244], [-1.045333068338196, 44.88218062629222], [-1.045716235349206, 44.88203426461208], [-1.046117733875395, 44.881915307683194], [-1.046533697760923, 44.88182490094539], [-1.046960121628415, 44.88176391492292], [-1.04739289943056, 44.88173293684632], [-1.047827863968715, 44.88173226500072], [-1.048260826998859, 44.88176190585529], [-1.048687619539689, 44.88182157400088], [-1.049104131995708, 44.88191069489678], [-1.049506353709894, 44.88202841040029], [-1.049890411566026, 44.88217358702559], [-1.050252607269741, 44.88234482685301], [-1.050589452950035, 44.88254048098372], [-1.050897704738936, 44.882758665410364], [-1.051174394006334, 44.88299727915171], [-1.05141685594939, 44.8832540244764], [-1.051622755261192, 44.883526429021686], [-1.05179010863124, 44.883811869594766], [-1.051917303860708, 44.8841075974273], [-1.052003115407787, 44.88441076464069], [-1.052042881353903, 44.88469138954237], [-1.052299503346191, 44.884840433580244], [-1.052607774410872, 44.88505861341811], [-1.052884482283377, 44.88529722307132], [-1.05312696198171, 44.88555396484783], [-1.053332878027973, 44.885826366419145], [-1.053500246950496, 44.886111804621066], [-1.053627456400655, 44.88640753070809], [-1.053713280699658, 44.88671069681847], [-1.053756892664879, 44.88701838339508], [-1.053757871600963, 44.88732762729865], [-1.053716207377801, 44.8876354503425], [-1.053632300555086, 44.88793888797398], [-1.053506958551202, 44.88823501782666], [-1.05334138789233, 44.88852098786794], [-1.053137182615468, 44.88879404387119], [-1.052896308936149, 44.889051555947184], [-1.052621086327826, 44.88929104387958], [-1.05231416519452, 44.8895102010197], [-1.051978501351364, 44.88970691651043], [-1.051617327558625, 44.88987929562464], [-1.051234122383299, 44.890025678022056], [-1.050832576688393, 44.89014465374831], [-1.050416558073004, 44.89023507682167], [-1.049990073606207, 44.89029607627642], [-1.049557231214417, 44.890327064556196], [-1.049122200094899, 44.89032774317625], [-1.048689170537673, 44.89029810560001], [-1.048262313543716, 44.89023843730199], [-1.047845740629441, 44.890149313016735], [-1.047443464205552, 44.89003159120007], [-1.047059358912823, 44.8898864057563], [-1.046697124288015, 44.88971515511127], [-1.046360249120214, 44.88951948873659], [-1.046051977841451, 44.88930129125539], [-1.045775279275666, 44.8890626642828], [-1.045532818047206, 44.88880590617636], [-1.045326928924182, 44.888533489892154], [-1.045159594343618, 44.88824803915977], [-1.045032425334397, 44.88795230320627], [-1.044946646021185, 44.88764913027256], [-1.044906913455554, 44.887368502571604], [-1.044650299535551, 44.88721944133626], [-1.044342047534697, 44.88700123926636], [-1.044065367575333, 44.88676260820581], [-1.043822924102591, 44.88650584655157], [-1.043706174060396, 44.886351358209964], [-1.043576753762593, 44.88652437039339], [-1.043335845966606, 44.88678186155303], [-1.043060593700286, 44.88702132562566], [-1.042753647653454, 44.887240456192366], [-1.042417963881346, 44.887437142651926], [-1.042056775336312, 44.88760949055685], [-1.041673560727554, 44.88775583986744], [-1.041272011009043, 44.88787478094802], [-1.040855993818701, 44.887965168150494], [-1.04042951621193, 44.88802613085473], [-1.039996686049091, 44.8880570818583], [-1.03956167240966, 44.88805772303556], [-1.039128665415253, 44.88802804821052], [-1.03870183584947, 44.88796834321655], [-1.038285294964454, 44.88787918314161], [-1.037970305054057, 44.88778696956785], [-1.037892097660858, 44.888069497652914], [-1.03776667233008, 44.888365609750046], [-1.037601021099661, 44.888651556334906], [-1.037396738782739, 44.88892458340666], [-1.037155792337022, 44.8891820613547], [-1.036880501936995, 44.8894215102913], [-1.036573518639824, 44.88964062394332], [-1.036237798859597, 44.88983729187242], [-1.03587657589556, 44.89000961980956], [-1.035766293743481, 44.89005172700066], [-1.035883611122004, 44.89020699345404], [-1.036050904368699, 44.89049245833294], [-1.036178031810869, 44.89078820480166], [-1.036263768559241, 44.89109138480201], [-1.036307288274128, 44.89139907864308], [-1.036307527637849, 44.89148292093217], [-1.036510519083173, 44.89160085082342], [-1.036818765897811, 44.89181907493925], [-1.037095439972437, 44.89205772442615], [-1.037337876650238, 44.892314501208425], [-1.037543740867304, 44.89258693262038], [-1.03771104965078, 44.892872395210475], [-1.037838191230898, 44.8931681399982], [-1.037923940582192, 44.893471318941636], [-1.037967471243558, 44.893779012359985], [-1.037968363302421, 44.89408825704799], [-1.03796551193205, 44.894109277029266], [-1.037997344798484, 44.894118595153515], [-1.038381455610784, 44.894263812123164], [-1.038743694217799, 44.894435090127295], [-1.039080572335273, 44.89463077989937], [-1.039388845782704, 44.8948489970889], [-1.039578766217892, 44.89501279662571], [-1.039938355647317, 44.89501226674931], [-1.040371416952197, 44.89504193848235], [-1.040798302087363, 44.89510163719203], [-1.041214900565837, 44.89519078804337], [-1.041617200902352, 44.89530853260521], [-1.042001329223651, 44.895453737111914], [-1.042363586556818, 44.89562500337535], [-1.042700484437327, 44.89582068224211], [-1.043008778494416, 44.89603888946665], [-1.04328549969077, 44.8962775238482], [-1.043527982915858, 44.896534287456525], [-1.043660163776826, 44.89670916417722], [-1.043812343445074, 44.89650576233963], [-1.044053290793292, 44.89624826936701], [-1.04432858407538, 44.89600880214649], [-1.044635571926552, 44.89578966662937], [-1.044971297883005, 44.89559297295646], [-1.045332528854395, 44.89542061514594], [-1.045461220002332, 44.89537146947682], [-1.045296456043587, 44.89515349159281], [-1.045129101881206, 44.89486804022634], [-1.045001918033385, 44.894572303628344], [-1.044916128767561, 44.89426913004603], [-1.044872559633277, 44.893961439304924], [-1.044871629536601, 44.893652194685714], [-1.044913346732285, 44.89334437438423], [-1.044997308771276, 44.893040942829764], [-1.045122706403013, 44.89274482213784], [-1.045288331393945, 44.89245886397237], [-1.045492588185983, 44.89218582208795], [-1.045733509281766, 44.89192832581656], [-1.04600877420783, 44.891688854753745], [-1.046315731872461, 44.89146971488784], [-1.046651426102541, 44.89127301640147], [-1.04701262411322, 44.89110065335923], [-1.047395847636243, 44.890954285476305], [-1.047797406407355, 44.89083532214359], [-1.048213433690658, 44.8907449088626], [-1.04863992349839, 44.89068391622057], [-1.049072769148395, 44.890652931511774], [-1.04950780278883, 44.890652253085214], [-1.049940835510405, 44.89068188747343], [-1.050367697660873, 44.8907415493295], [-1.05078427897458, 44.890830664173336], [-1.051186568131567, 44.890948373920466], [-1.051570691366282, 44.89109354514052], [-1.05193294975488, 44.891264779965915], [-1.052269854822781, 44.89146042954592], [-1.052578162130152, 44.891678609917086], [-1.052854902512239, 44.891917220137174], [-1.053097410673932, 44.892173962508735], [-1.053303350863146, 44.892446364697555], [-1.053470739375614, 44.89273180353345], [-1.053597963673932, 44.893027530264874], [-1.053683797936177, 44.89333069702381], [-1.053727414883614, 44.8936383842469], [-1.053728393772745, 44.893947628788695], [-1.05368672447375, 44.89425545245631], [-1.053602807595041, 44.89455889069112], [-1.053477450651694, 44.894855021120875], [-1.053311860313627, 44.89514099170742], [-1.05310763080724, 44.89541404821885], [-1.052866728581321, 44.89567156076109], [-1.052591473384177, 44.89591104911326], [-1.052284515933642, 44.89613020662268], [-1.051948812394608, 44.89632692242862], [-1.051587595909665, 44.896499301800944], [-1.05145890754061, 44.89654845458409], [-1.051623699527888, 44.89676642342183], [-1.051791092382298, 44.89705186517136], [-1.051918317623147, 44.89734759422277], [-1.052004149419324, 44.89765076268572], [-1.052047760515737, 44.897958450980425], [-1.052048730225121, 44.89826769595109], [-1.052007048505956, 44.89857551940073], [-1.051923116086166, 44.89887895677277], [-1.051797740630406, 44.89917508570326], [-1.051632128986808, 44.899461054168526], [-1.051427875586896, 44.89973410795701], [-1.051186947109533, 44.899991617200875], [-1.050911663555826, 44.900231101711036], [-1.050604675916708, 44.90045025487176], [-1.050268940647832, 44.900646965864226], [-1.049907691197411, 44.90081934000466], [-1.049524406861202, 44.90096571700067], [-1.049122779264748, 44.90108468694992], [-1.048706676796118, 44.90117510392631], [-1.048280107332184, 44.90123609702285], [-1.047847179618195, 44.901267078744404], [-1.047412063673391, 44.90126775066944], [-1.046978950604975, 44.9012381063258], [-1.046552012218451, 44.901178431253264], [-1.046135360814324, 44.90108930025156], [-1.045769828622823, 44.90098234521977], [-1.045693214319765, 44.9012591986335], [-1.045567800673302, 44.901555320750155], [-1.045402150260122, 44.90184128013775], [-1.045197857885162, 44.902114322672205], [-1.04495689060269, 44.902371818593984], [-1.04468156878761, 44.902611287842305], [-1.044374543799428, 44.9028304239484], [-1.044038772453598, 44.90302711625771], [-1.043677488545899, 44.90319947026639], [-1.043597978910583, 44.903229828302834], [-1.04375436521088, 44.90343670425491], [-1.043921737933897, 44.90372215844819], [-1.044048936826329, 44.904017897119004], [-1.044134736310601, 44.90432107228434], [-1.044178309442593, 44.904628764299815], [-1.044179235900467, 44.904938009973776], [-1.044137506059071, 44.90524583110237], [-1.044053521109634, 44.90554926315134], [-1.0439280892226, 44.90584538380798], [-1.043762417789502, 44.90613134112821], [-1.043558101817651, 44.906404381007796], [-1.043317108588533, 44.906661873712835], [-1.043041758726915, 44.90690133921347], [-1.042734703862416, 44.90712047107702], [-1.042398901098243, 44.90731715868979], [-1.042037584532799, 44.90748950759316], [-1.041654234108385, 44.907635857737816], [-1.041252542087223, 44.90775479948003], [-1.040836377478038, 44.90784518716537], [-1.040409748756372, 44.90790615016899], [-1.039976765238362, 44.90793710128561], [-1.039541597480865, 44.90793774238849], [-1.039108437090239, 44.90790806730238], [-1.038681456327859, 44.9078483618631], [-1.038264767902438, 44.907759201162975], [-1.037862385337392, 44.90764144400857], [-1.037478184295884, 44.90749622464455], [-1.037115865236892, 44.90732494182346], [-1.036778917762663, 44.907129245326836], [-1.0364705870015, 44.90691102006792], [-1.036193842350022, 44.90667236792934], [-1.035951348876154, 44.90641558751101], [-1.035836189675813, 44.90626322091827], [-1.035707878006223, 44.90643465006223], [-1.035466848626206, 44.90669212574189], [-1.035191465117054, 44.906931571789706], [-1.034884379432568, 44.907150681960374], [-1.034548548972909, 44.90734734584908], [-1.034187208103339, 44.90751966922567], [-1.033803837000349, 44.90766599228674], [-1.033402128125426, 44.907784905649365], [-1.032985950649707, 44.907875263932475], [-1.032559313172721, 44.907936196794445], [-1.03212632509498, 44.90796711732032], [-1.031691157017284, 44.90796772767799], [-1.031258000549073, 44.907938021988386], [-1.030831027913922, 44.90787828638207], [-1.030414351742222, 44.90778909624195], [-1.030011985439304, 44.907671310658145], [-1.029627804511618, 44.907526064149174], [-1.029265509224319, 44.90735475572903], [-1.028928588950594, 44.907159035425785], [-1.02862028855665, 44.90694078838196], [-1.028343577146516, 44.906702116689964], [-1.028101119467846, 44.90644531913808], [-1.027981171152887, 44.90628657829615], [-1.027847653869141, 44.906464919443394], [-1.027606588294685, 44.90672237807344], [-1.027331171098016, 44.9069618046413], [-1.027024054557499, 44.90718089308927], [-1.026688196370597, 44.90737753322173], [-1.026326831169737, 44.90754983103733], [-1.025943439365866, 44.907696126978834], [-1.025541713619946, 44.90781501192455], [-1.025125523265693, 44.9079053407671], [-1.02469887702674, 44.90796624344842], [-1.024265884388039, 44.90799713334427], [-1.023830715994341, 44.907997712917556], [-1.02339756345813, 44.90796797658573], [-1.02297059896509, 44.90790821077456], [-1.022553935067145, 44.90781899115782], [-1.022151585051346, 44.90770117710958], [-1.021767424267193, 44.907555903422534], [-1.021405152785731, 44.9073845693724], [-1.021068259750755, 44.90718882523412], [-1.020759989766009, 44.90697055637982], [-1.020483311642528, 44.906731865111894], [-1.020240889807258, 44.906475050407145], [-1.02003505864835, 44.90620258576664], [-1.019867800043982, 44.90591709538562], [-1.019740724290711, 44.90562132887276], [-1.019655054614483, 44.90531813476328], [-1.019653491986187, 44.905307065940555], [-1.019398297652409, 44.905158779109826], [-1.019090045314994, 44.904940505758525], [-1.018813384303603, 44.90470181048122], [-1.018570978880366, 44.9044449922933], [-1.018365163275366, 44.90417252472937], [-1.018197919216994, 44.90388703201278], [-1.018180039824117, 44.90384541361481], [-1.018015517216857, 44.90385714203382], [-1.017580380863932, 44.903857697127734], [-1.017147263596499, 44.90382793646865], [-1.016720337260461, 44.90376814671672], [-1.016303714040129, 44.9036789037763], [-1.015901406830661, 44.903561067246116], [-1.015517290569155, 44.90341577213536], [-1.015155064897729, 44.903244417926174], [-1.014818218518859, 44.90304865508761], [-1.014509995586838, 44.90283036917187], [-1.014233364459443, 44.9025916626457], [-1.013990989110933, 44.90233483463281], [-1.013785203481703, 44.902062358762436], [-1.01361798901142, 44.901776859337915], [-1.0134909555716, 44.90148108605504], [-1.013405325980711, 44.90117788751415], [-1.013361924250163, 44.900870183780945], [-1.013361167673554, 44.90056093826104], [-1.013403062834369, 44.90025312915874], [-1.013487205569587, 44.89994972079524], [-1.013612784888499, 44.89965363506258], [-1.013778590807973, 44.899367723287824], [-1.013983026027751, 44.89909473877864], [-1.014224121332484, 44.89883731031433], [-1.014499554571429, 44.898597916837375], [-1.014806673032444, 44.89837886358881], [-1.015142518994415, 44.898182259917164], [-1.015503858211811, 44.89800999897389], [-1.015887211057066, 44.89786373949099], [-1.016288886021044, 44.89774488981553], [-1.016705015249366, 44.89765459435456], [-1.017131591772939, 44.89759372256085], [-1.017564508074864, 44.897562860564996], [-1.017999595623163, 44.89756230553442], [-1.018432664989557, 44.897592062813494], [-1.018859546168954, 44.897651845871955], [-1.019276128712385, 44.89774107906272], [-1.019670529516797, 44.89785659756872], [-1.019683206348982, 44.89776337748741], [-1.0197673114005, 44.8974599646021], [-1.019892852017154, 44.897163871999766], [-1.020058618588526, 44.89687795107364], [-1.020146913332782, 44.896760022786005], [-1.020126093682176, 44.896769949659884], [-1.019742759354922, 44.89691622372], [-1.01934109763592, 44.89703508585265], [-1.018924977242157, 44.89712539117022], [-1.01849840622335, 44.897186269841235], [-1.018065493339831, 44.89721713547272], [-1.017630408468024, 44.897217690761316], [-1.017197342415781, 44.897187930358356], [-1.016770466535613, 44.89712814092151], [-1.01635389252576, 44.89703889835207], [-1.015951632807317, 44.89692106224523], [-1.0155675618599, 44.89677576760607], [-1.015205378889137, 44.8966044139122], [-1.014868572186208, 44.896408651627716], [-1.014560385523273, 44.89619036629946], [-1.014283786908821, 44.89595166038855], [-1.014041440004023, 44.89569483301275], [-1.013835678475411, 44.895422357795155], [-1.013668483530643, 44.895136859032824], [-1.01354146485331, 44.894841086415155], [-1.013455845119847, 44.89453788853607], [-1.013412448246889, 44.89423018545494], [-1.013412115775876, 44.8940943248112], [-1.013178631476149, 44.89395860464466], [-1.01287046483841, 44.893740314794286], [-1.012593885484978, 44.89350160485736], [-1.012351556891516, 44.89324477399044], [-1.012145812548201, 44.892972295850214], [-1.011978633497195, 44.89268679476189], [-1.011851629269048, 44.89239102043728], [-1.011766022401073, 44.89208782148671], [-1.01172263668605, 44.891780117979835], [-1.011721889263552, 44.89147087332011], [-1.011763786629133, 44.89116306570349], [-1.011847924598769, 44.89085965943691], [-1.011973492227868, 44.89056357639216], [-1.01213927964608, 44.89027766787044], [-1.01234368973151, 44.89000468714807], [-1.012584753511015, 44.88974726296788], [-1.012860149137575, 44.88950787423108], [-1.013167224261348, 44.88928882613309], [-1.01350302157861, 44.88909222797281], [-1.013864307312292, 44.888919972848626], [-1.01390172973907, 44.88890569371119], [-1.013816150958067, 44.88879235429126], [-1.013648975860501, 44.88850685608856], [-1.013521972288425, 44.88821108405901], [-1.01343636277294, 44.887907886790806], [-1.013392971132423, 44.88760018433742], [-1.01339221456363, 44.887290940092164], [-1.013434099650298, 44.88698313224704], [-1.013518222326756, 44.88667972511116], [-1.013643771795776, 44.8863836405647], [-1.013809538361975, 44.88609772992336], [-1.014013925104321, 44.885824746483856], [-1.014254963274516, 44.885567319015195], [-1.014530331272183, 44.885327926450294], [-1.014837377013553, 44.88510887402141], [-1.015173143477843, 44.88491227106916], [-1.015534397185064, 44.8847400107381], [-1.015917659331033, 44.884593751754316], [-1.016319239279912, 44.88447490246006], [-1.016735270092138, 44.88438460725878], [-1.017161745746141, 44.884323735600695], [-1.017594559696145, 44.884292873615095], [-1.018029544395551, 44.88429231846934], [-1.018462511406239, 44.884322075508855], [-1.018889291708533, 44.88438185820575], [-1.01930577582466, 44.88447109091635], [-1.019707953370286, 44.884588914421236], [-1.020091951654229, 44.88473419419463], [-1.020454072955435, 44.8849055313236], [-1.020790830118974, 44.8851012759723], [-1.021098980128831, 44.885319543261716], [-1.021375555334555, 44.885558231412595], [-1.02161789203125, 44.885815041976876], [-1.021737603339155, 44.88597355659956], [-1.021893702441196, 44.885765016536], [-1.022134704218509, 44.88550757197351], [-1.022410038318362, 44.88526815987888], [-1.022717052983303, 44.88504908567249], [-1.023052791491693, 44.884852458904675], [-1.023414020632634, 44.884680172949324], [-1.023797261838401, 44.8845338867793], [-1.024198824674705, 44.884415008998694], [-1.024614842366683, 44.884324684285154], [-1.025041309019044, 44.884263782373125], [-1.025474118172645, 44.88423288968324], [-1.025909102327049, 44.88423230367846], [-1.026342073049385, 44.88426203000137], [-1.026768861284255, 44.88432178241984], [-1.027185357477544, 44.88441098558178], [-1.027480939679631, 44.88449755624972], [-1.027484181456001, 44.884473687392436], [-1.027568224433298, 44.88417026985885], [-1.027693694184147, 44.883874169668736]], [[-1.035901936673627, 44.90322917527993], [-1.035817113299042, 44.90326963214348], [-1.035769219938894, 44.90328791420819], [-1.035813813003936, 44.90334691838729], [-1.035901936673627, 44.90322917527993]], [[-1.027967067363851, 44.8900870853462], [-1.027946327457235, 44.89009500221782], [-1.027953769001837, 44.8901048532674], [-1.027967067363851, 44.8900870853462]], [[-1.029703837605736, 44.888818195571695], [-1.029671129869013, 44.88877489866298], [-1.029612684441087, 44.88885299327274], [-1.029703837605736, 44.888818195571695]], [[-1.037542146887863, 44.9020600939181], [-1.037486204556566, 44.90198607493328], [-1.037377815019829, 44.90213090559411], [-1.037462635548109, 44.90209044755324], [-1.037542146887863, 44.9020600939181]], [[-1.021762838632113, 44.89553005746434], [-1.021783657533295, 44.895520130287544], [-1.021807854504871, 44.89551089638518], [-1.021792451060935, 44.8954905035624], [-1.021762838632113, 44.89553005746434]], [[-1.021763928543325, 44.888890135440505], [-1.021803801176797, 44.88887491772528], [-1.021782402018653, 44.8888465837981], [-1.02174195677462, 44.8889006135548], [-1.021763928543325, 44.888890135440505]], [[-1.020088920124707, 44.89018139520361], [-1.020127795254373, 44.89012946670993], [-1.020105822695136, 44.89013994450462], [-1.020068401023855, 44.89015422573769], [-1.020088920124707, 44.89018139520361]]]}}]}