{"type": "FeatureCollection", "name": "zone_active", "crs": {"type": "name", "properties": {"name": "urn:ogc:def:crs:OGC:1.3:CRS84"}}, "features": [{"type": "Feature", "properties": {"nb_detections_cluster": 6, "frp_max": 2.8, "frp_moyen": 1.66, "derniere_detection": "2026-07-31T01:37:00", "fetch_timestamp": "2026-07-31T01:37:00"}, "geometry": {"type": "Polygon", "coordinates": [[[-1.20914, 44.77111], [-1.21508, 44.77181], [-1.20988, 44.77258], [-1.20828, 44.77475], [-1.2033, 44.76987], [-1.20414, 44.76955], [-1.20914, 44.77111]]]}}, {"type": "Feature", "properties": {"nb_detections_cluster": 2, "frp_max": 2.02, "frp_moyen": 1.51, "derniere_detection": "2026-07-30T01:58:00", "fetch_timestamp": "2026-07-31T01:37:00"}, "geometry": {"type": "Polygon", "coordinates": [[[-1.226786157665977, 44.816108411410625], [-1.226893733122376, 44.81625014528855], [-1.227061775888355, 44.816535314858385], [-1.227189740769352, 44.81683083481059], [-1.227276394814535, 44.81713385926946], [-1.227320902853167, 44.817441470043114], [-1.227322835562541, 44.81775070472339], [-1.227282173628949, 44.81805858521353], [-1.227199307960614, 44.81836214640875], [-1.227075035949481, 44.81865846475368], [-1.226910553816875, 44.818944686401416], [-1.226707445115758, 44.819218054702986], [-1.226467665499466, 44.81947593676222], [-1.226193523902857, 44.81971584880011], [-1.225887660316549, 44.81993548008388], [-1.225553020367848, 44.820132715190155], [-1.225192826953, 44.82030565438744], [-1.224810549193912, 44.82045263194117], [-1.224409869018536, 44.82057223216473], [-1.223994645687122, 44.82066330306133], [-1.223568878606561, 44.82072496742548], [-1.223136668791641, 44.82075663129634], [-1.222702179345244, 44.820757989681766], [-1.222269595339023, 44.820729029497535], [-1.22184308348193, 44.82067002969348], [-1.22142675196607, 44.82058155856505], [-1.221024610877599, 44.820464468276924], [-1.220640533554864, 44.82031988665058], [-1.220278219266838, 44.820149206296165], [-1.219941157571975, 44.81995407119261], [-1.219632594701334, 44.81973636084635], [-1.21935550229012, 44.819498172181085], [-1.219112548758982, 44.81924179933345], [-1.218906073620687, 44.81896971154962], [-1.21873806495944, 44.81868452939621], [-1.218610140299304, 44.81838899951439], [-1.218573681704126, 44.818261437365464], [-1.218466123380668, 44.81811969532539], [-1.218298119492842, 44.81783451258642], [-1.218170199080839, 44.81753898228094], [-1.218083593508931, 44.817235950670366], [-1.218039136191105, 44.816928336213934], [-1.218037254589627, 44.81661910145881], [-1.218077966124704, 44.81631122450692], [-1.218160878033655, 44.81600767033421], [-1.218285191179866, 44.81571136223816], [-1.21844970777389, 44.81542515368838], [-1.218652842931314, 44.81515180085169], [-1.218892639955264, 44.81489393605531], [-1.219166789195612, 44.81465404244438], [-1.219472650302685, 44.8144344300768], [-1.219807277660748, 44.81423721368575], [-1.220167448756126, 44.8140642923233], [-1.220549695206745, 44.813917331081214], [-1.220950336154464, 44.81379774506413], [-1.221365513698984, 44.81370668576959], [-1.221791230032673, 44.813645030005446], [-1.222223385919386, 44.813613371451126], [-1.222657820147572, 44.813612014944106], [-1.22309034957866, 44.81364097354603], [-1.223516809406061, 44.81369996841711], [-1.223933093238085, 44.81378843149961], [-1.22433519261977, 44.81390551098498], [-1.224719235613996, 44.81405007951178], [-1.225081524071143, 44.814220745016016], [-1.225418569229142, 44.814415864129415], [-1.225727125301641, 44.81463355799689], [-1.226004220731206, 44.81487173036153], [-1.226247186806808, 44.81512808774284], [-1.226453683369978, 44.81540016151464], [-1.226621721361891, 44.815685331670196], [-1.226749681993842, 44.81598085204621], [-1.226786157665977, 44.816108411410625]]]}}, {"type": "Feature", "properties": {"nb_detections_cluster": 3, "frp_max": 2.1, "frp_moyen": 1.5, "derniere_detection": "2026-07-30T02:15:00", "fetch_timestamp": "2026-07-31T01:37:00"}, "geometry": {"type": "Polygon", "coordinates": [[[-1.207678716604117, 44.8218679236366], [-1.207676891846106, 44.82155868820035], [-1.20771766371708, 44.821250814547106], [-1.207800638873199, 44.820947267621015], [-1.207925017568703, 44.820650970649744], [-1.208089601382866, 44.820364776995675], [-1.208292804783949, 44.8200914426821], [-1.208532670417937, 44.81983359985785], [-1.208806887974073, 44.81959373145642], [-1.209112816444916, 44.81937414729292], [-1.209447509566168, 44.81917696182888], [-1.20980774419102, 44.819004073818576], [-1.210190051325793, 44.81885714803256], [-1.210590749528143, 44.818737599234076], [-1.211005980346599, 44.81864657856228], [-1.211431745460674, 44.81858496245307], [-1.211863945164626, 44.81855334420409], [-1.212298417825078, 44.81855202826467], [-1.212730979933463, 44.81858102730587], [-1.213157466368577, 44.818640062098495], [-1.213573770482526, 44.81872856420044], [-1.213975883625028, 44.81884568142738], [-1.214359933726395, 44.81899028605448], [-1.214722222568482, 44.81916098567012], [-1.215059261385387, 44.81935613657753], [-1.215367804451676, 44.81957385961548], [-1.215644880334984, 44.81981205824612], [-1.215887820512324, 44.82006843873595], [-1.216094285074424, 44.820340532236244], [-1.216262285270423, 44.82062571855025], [-1.216390202675399, 44.82092125135901], [-1.216476804795542, 44.82122428466299], [-1.216521256960015, 44.821531900184986], [-1.216523130384072, 44.821841135471125], [-1.21648240632485, 44.822149012418684], [-1.21639947628881, 44.822452565956965], [-1.216275138287774, 44.82274887260426], [-1.216110589178602, 44.823035078626255], [-1.21590741315934, 44.823308427524395], [-1.215667566531736, 44.82356628658942], [-1.21539335887614, 44.823806172263644], [-1.215087430819521, 44.82402577406819], [-1.214752728610259, 44.8242229768636], [-1.21439247574441, 44.82439588122957], [-1.214010141916646, 44.824542821767004], [-1.213609409595106, 44.82466238314578], [-1.213194138542444, 44.824753413743274], [-1.212768328625323, 44.824815036742145], [-1.21233608127124, 44.82484665857999], [-1.211901559944743, 44.82484797466957], [-1.211468950024605, 44.824818972334036], [-1.211042418469412, 44.82475993092919], [-1.210626073660994, 44.824671419151244], [-1.2102239258135, 44.824554289556374], [-1.209839848330312, 44.824409670344686], [-1.209477540481844, 44.824238954488294], [-1.209140491764399, 44.824043786308096], [-1.208831948283888, 44.8238260456291], [-1.208554881488588, 44.823587829667076], [-1.208311959552244, 44.823331432821576], [-1.208105521683135, 44.823059324569854], [-1.207937555606325, 44.82277412567558], [-1.207809678435557, 44.82247858294111], [-1.207723121118461, 44.8221755427475], [-1.207678716604117, 44.8218679236366]]]}}, {"type": "Feature", "properties": {"nb_detections_cluster": 1, "frp_max": 0.43, "frp_moyen": 0.43, "derniere_detection": "2026-07-30T02:15:00", "fetch_timestamp": "2026-07-31T01:37:00"}, "geometry": {"type": "Polygon", "coordinates": [[[-0.877384521239301, 44.735914755251784], [-0.877384513967907, 44.735605526246914], [-0.877427029891591, 44.735297785781995], [-0.877511658873553, 44.734994497516354], [-0.877637585244981, 44.73469858218463], [-0.877803595685199, 44.73441288947213], [-0.878008090928917, 44.73414017057627], [-0.878249101187021, 44.733883051717896], [-0.878524305131621, 44.733644008857574], [-0.878831052261979, 44.7334253438596], [-0.879166388435518, 44.73322916233345], [-0.879527084317823, 44.733057353365375], [-0.879909666477658, 44.73291157133497], [-0.88031045082774, 44.73279321999172], [-0.880725578089595, 44.73270343894413], [-0.881151050941545, 44.73264309269165], [-0.881582772492782, 44.73261276230444], [-0.882016585713873, 44.73261273983115], [-0.882448313444901, 44.73264302548816], [-0.882873798596956, 44.732703327657546], [-0.88328894416085, 44.732793065693606], [-0.883689752638761, 44.732911375511065], [-0.884072364519995, 44.733057117901275], [-0.884433095431204, 44.733228889496495], [-0.884768471603991, 44.73342503627696], [-0.885075263318929, 44.733643669491116], [-0.885350516004264, 44.73388268383548], [-0.885591578690061, 44.73413977772045], [-0.885796129543713, 44.734412475426026], [-0.885962198240715, 44.73469815093541], [-0.886088184954881, 44.73499405321696], [-0.886172875784511, 44.73529733271108], [-0.886215454465246, 44.73560506876771], [-0.886215510255939, 44.735914297769995], [-0.886173041920643, 44.736222041673685], [-0.886088457767366, 44.73652533668722], [-0.885962571742178, 44.73682126181673], [-0.885796595615272, 44.73710696700034], [-0.885592127333295, 44.73737970056136], [-0.885351135649239, 44.73763683571537], [-0.885075941177202, 44.73787589587562], [-0.884769194053896, 44.73809457851297], [-0.884433848421629, 44.73829077734003], [-0.884073133978308, 44.73846260260574], [-0.88369052486846, 44.73860839930415], [-0.883289706215041, 44.738726763122116], [-0.882874538614782, 44.73881655397174], [-0.882449020939545, 44.73887690697688], [-0.88201725180267, 44.73890724080786], [-0.881583390062281, 44.738907263283714], [-0.881151614742864, 44.73887697418796], [-0.880726084762125, 44.73881666527066], [-0.880310898851989, 44.73872691743683], [-0.879910056060767, 44.73860859514827], [-0.879527417217791, 44.738462838092886], [-0.879166667732536, 44.73829105020203], [-0.878831282087185, 44.738094886121615], [-0.878524490365197, 44.73787623526813], [-0.878249247138589, 44.737637203622825], [-0.878008203013807, 44.73738009344024], [-0.877803679110169, 44.73710738106666], [-0.877637644716505, 44.73682169308254], [-0.877511698340742, 44.73652578099897], [-0.877427052334399, 44.73622249475218], [-0.877384521239301, 44.735914755251784]]]}}, {"type": "Feature", "properties": {"nb_detections_cluster": 7, "frp_max": 2.03, "frp_moyen": 1.45, "derniere_detection": "2026-07-30T02:15:00", "fetch_timestamp": "2026-07-31T01:37:00"}, "geometry": {"type": "Polygon", "coordinates": [[[-1.023843722150809, 44.75133059336897], [-1.023842909979992, 44.75102136321356], [-1.023884636464511, 44.750713565385155], [-1.023968499069417, 44.750410164096515], [-1.024093689505188, 44.75011408117157], [-1.024259001536852, 44.749828167910444], [-1.02446284262308, 44.749555177635195], [-1.024703249272282, 44.74929773918077], [-1.024977905967114, 44.74905833158591], [-1.025284167474534, 44.74883926022773], [-1.025619084326189, 44.74864263462918], [-1.02597943122349, 44.748470348152935], [-1.026361738093871, 44.74832405977696], [-1.026762323499289, 44.74820517812653], [-1.027177330075648, 44.748114847916675], [-1.027602761662414, 44.74805393893476], [-1.02803452176554, 44.7480230376695], [-1.028468452984183, 44.748022441666436], [-1.028900377022421, 44.748052156664464], [-1.029326134901675, 44.74811189654045], [-1.029741626987588, 44.74820108606308], [-1.030142852446891, 44.74831886642871], [-1.030525947755235, 44.74846410352697], [-1.030887223885967, 44.74863539885583], [-1.031223201822472, 44.74883110298191], [-1.031530646052621, 44.749049331416415], [-1.031806595723179, 44.7492879827542], [-1.03204839315433, 44.749544758901706], [-1.032253709439717, 44.74981718719934], [-1.032420566885258, 44.75010264422539], [-1.032547358070255, 44.75039838105294], [-1.032632861346638, 44.75070154971665], [-1.03267625262639, 44.751009230634665], [-1.032677113342722, 44.75131846072206], [-1.032635434507442, 44.7516262619251], [-1.032551616824361, 44.751929669901315], [-1.032426466856685, 44.75222576256979], [-1.032261189284215, 44.75251168825595], [-1.032057375324034, 44.75278469316024], [-1.031816987425294, 44.75304214788556], [-1.031542340384771, 44.75328157276785], [-1.031236079064492, 44.753500661765656], [-1.030901152925623, 44.75369730467817], [-1.030540787623652, 44.753869607477355], [-1.030158453938431, 44.75401591055794], [-1.02975783433848, 44.75413480472956], [-1.029342787501967, 44.75422514479602], [-1.028917311136609, 44.75428606059116], [-1.028485503457263, 44.754316965364445], [-1.028051523693102, 44.75431756143549], [-1.027619552005625, 44.75428784306284], [-1.027193749204546, 44.754228096499276], [-1.02677821665054, 44.75413889723314], [-1.026376956732042, 44.75402110444248], [-1.025993834297651, 44.75387585271516], [-1.025632539416456, 44.753704541115425], [-1.025296551825645, 44.75350881970189], [-1.024989107408353, 44.75329057362775], [-1.02471316702501, 44.753051904976004], [-1.024471387998527, 44.75279511250557], [-1.024266098527981, 44.752522669503335], [-1.024099275276975, 44.752237199956085], [-1.02397252435213, 44.751941453271925], [-1.023887065854341, 44.751638277794996], [-1.023843722150809, 44.75133059336897]]]}}, {"type": "Feature", "properties": {"nb_detections_cluster": 1, "frp_max": 2.29, "frp_moyen": 2.29, "derniere_detection": "2026-07-30T02:15:00", "fetch_timestamp": "2026-07-31T01:37:00"}, "geometry": {"type": "Polygon", "coordinates": [[[-0.943102965048988, 44.758067375833235], [-0.943102596561746, 44.757758144515066], [-0.943144769740887, 44.75745037652138], [-0.943229077749659, 44.7571470357771], [-0.943354708009446, 44.75685104352262], [-0.943520450050186, 44.75656525018441], [-0.943724707190213, 44.75629240792926], [-0.943965511932206, 44.75603514416627], [-0.944240544926223, 44.75579593625164], [-0.944547157316627, 44.75557708763932], [-0.944882396257295, 44.75538070570711], [-0.945243033349183, 44.75520868147114], [-0.945625595726376, 44.75506267138405], [-0.946026399491443, 44.754944081391336], [-0.946441585178501, 44.75485405339955], [-0.946867154903014, 44.754793454285945], [-0.947299010841303, 44.754762867555584], [-0.947732994670022, 44.75476258772532], [-0.948164927586759, 44.754792617489635], [-0.94859065052732, 44.75485266769459], [-0.949006064193437, 44.75494216012065], [-0.949407168506418, 44.75506023304756], [-0.949790101107729, 44.755205749547706], [-0.950151174536581, 44.75537730842862], [-0.950486911727234, 44.755573257718964], [-0.950794079484707, 44.75579171056894], [-0.951069719616918, 44.75603056341222], [-0.951311177423638, 44.75628751621452], [-0.951516127267897, 44.756560094614755], [-0.951682594983355, 44.75684567374537], [-0.951808976901494, 44.75714150350316], [-0.951894055314775, 44.75744473502737], [-0.951937010226134, 44.75775244813027], [-0.951937427270807, 44.758061679416514], [-0.951895301733226, 44.75836945082027], [-0.951811038619303, 44.75867279828555], [-0.95168544878237, 44.75896880031371], [-0.951519741139063, 44.759254606102665], [-0.951315511049175, 44.759527463007146], [-0.951074724970503, 44.759784743055086], [-0.950799701535768, 44.76002396826446], [-0.950493089233252, 44.76024283451671], [-0.950157840905696, 44.76043923375614], [-0.949797185312881, 44.760611274301496], [-0.9494145960317, 44.7607572990734], [-0.94901375799349, 44.760875901562], [-0.948598531981231, 44.760965939380554], [-0.948172917429133, 44.76102654527413], [-0.947741013883577, 44.76105713547722], [-0.947306981497427, 44.7610574153394], [-0.946875000939129, 44.76102738216503], [-0.946449233103721, 44.76096732523905], [-0.946033779014747, 44.760877823039316], [-0.945632640304333, 44.760759737661694], [-0.945249680652884, 44.760614206512194], [-0.944888588560711, 44.760442631346336], [-0.944552841810776, 44.76024666476124], [-0.944245673965417, 44.76002819427133], [-0.943970043220093, 44.759789324120845], [-0.9437286039143, 44.75953235500914], [-0.94352368097403, 44.75925976192411], [-0.943357247531716, 44.75897417029761], [-0.943230905938778, 44.758678330713046], [-0.94314587235308, 44.75837509240885], [-0.943102965048988, 44.758067375833235]]]}}, {"type": "Feature", "properties": {"nb_detections_cluster": 8, "frp_max": 7.36, "frp_moyen": 2.91, "derniere_detection": "2026-07-30T13:42:00", "fetch_timestamp": "2026-07-31T01:37:00"}, "geometry": {"type": "Polygon", "coordinates": [[[-1.16813, 44.8438], [-1.16279, 44.84447], [-1.16067, 44.84426], [-1.16813, 44.8438]]]}}, {"type": "Feature", "properties": {"nb_detections_cluster": 1, "frp_max": 0.99, "frp_moyen": 0.99, "derniere_detection": "2026-07-30T02:15:00", "fetch_timestamp": "2026-07-31T01:37:00"}, "geometry": {"type": "Polygon", "coordinates": [[[-0.964544058724119, 44.87204823658576], [-0.96454357140144, 44.87173899358098], [-0.964585712662911, 44.871431205722345], [-0.964670075976304, 44.8711278371262], [-0.964795848227617, 44.87083180930125], [-0.964961817576755, 44.87054597301665], [-0.965166385150664, 44.870273080852854], [-0.96540758046048, 44.87001576069966], [-0.965683080393433, 44.869776490456324], [-0.965990231596076, 44.86955757417702], [-0.966326076032846, 44.86936111989121], [-0.966687379473614, 44.86918901931177], [-0.967070662635891, 44.869042929626424], [-0.96747223468195, 44.86892425754716], [-0.967888228748677, 44.86883414577094], [-0.968314639168544, 44.86877346198181], [-0.968747360023991, 44.86874279050006], [-0.969182224664762, 44.86874242665867], [-0.969615045808579, 44.868772373961065], [-0.970041655839997, 44.86883234404729], [-0.970457946920353, 44.86892175946931], [-0.970859910523551, 44.86903975924836], [-0.971243676017902, 44.869185207161244], [-0.971605547923306, 44.869356702675965], [-0.971942041485699, 44.8695525944314], [-0.972249916226758, 44.8697709961319], [-0.972526207146153, 44.87000980470375], [-0.972768253276044, 44.87026672053912], [-0.972973723312855, 44.87053926963302], [-0.973140638079254, 44.870824827400234], [-0.973267389599642, 44.87112064394344], [-0.973352756604861, 44.871423870529256], [-0.973395916316075, 44.87173158701773], [-0.973396452393473, 44.87204082998099], [-0.973354358972294, 44.87234862124088], [-0.973270040746293, 44.87265199655037], [-0.973144309096788, 44.872948034142716], [-0.97297837430357, 44.87323388287344], [-0.972773833911727, 44.873506789683816], [-0.972532657365534, 44.87376412612115], [-0.972257167056681, 44.874003413660404], [-0.97195001596877, 44.8742223475827], [-0.971614162132953, 44.87441881918062], [-0.971252840140561, 44.87459093607597], [-0.97086952998701, 44.874737040454015], [-0.970467923547288, 44.874855725038124], [-0.970051889006236, 44.874945846650796], [-0.969625433586788, 44.87500653722999], [-0.969192664935813, 44.875037212194435], [-0.968757751540325, 44.87503757607733], [-0.968324882556214, 44.875007625373684], [-0.967898227437403, 44.874947648574135], [-0.967481895755238, 44.87485822338469], [-0.967079897596122, 44.87474021115952], [-0.966696104919704, 44.874594748600046], [-0.966334214250679, 44.87442323680122], [-0.965997711064186, 44.874227327749864], [-0.965689836208395, 44.874008908406346], [-0.965413554688046, 44.8737700825224], [-0.96517152710978, 44.87351315037112], [-0.964966084064242, 44.873240586584515], [-0.964799203691508, 44.87295501631247], [-0.964672492645445, 44.872659189932804], [-0.964587170639805, 44.87235595655693], [-0.964544058724119, 44.87204823658576]]]}}]}