{"type": "FeatureCollection", "name": "zone_brulee", "crs": {"type": "name", "properties": {"name": "urn:ogc:def:crs:OGC:1.3:CRS84"}}, "features": [{"type": "Feature", "properties": {"commune": "Porge", "firedate": "2026-07-22T11:55:00", "lastupdate": "2026-07-23T07:45:17.536087", "surface_ha": 20544.0, "fetch_timestamp": "2026-07-25T18:20:36.497630"}, "geometry": {"type": "Polygon", "coordinates": [[[-1.056839526131027, 44.94894800947283], [-1.05091682818161, 44.94983726091892], [-1.045976417820868, 44.950309058423876], [-1.042018424114621, 44.95036353934116], [-1.038739100186109, 44.950319880680816], [-1.036138459288824, 44.95017814618246], [-1.033603348902137, 44.95073354223566], [-1.031133678324471, 44.95198607469153], [-1.02869775161401, 44.954330276755265], [-1.026295446807699, 44.95776614802846], [-1.023278466003767, 44.95996303787135], [-1.019646921704366, 44.9609208962538], [-1.015806347769373, 44.96101405741706], [-1.011756922110061, 44.960242494781376], [-1.008527443820189, 44.95841927443241], [-1.006118024825997, 44.95554446626591], [-1.005051134373293, 44.95239742816556], [-1.005326564958051, 44.948978203830634], [-1.005479228398175, 44.945311159826026], [-1.005509152823319, 44.94139629423024], [-1.002508894650028, 44.93887073567782], [-0.996478628159949, 44.93773422627648], [-0.992076481429207, 44.937025373162164], [-0.989302281281828, 44.93674438671905], [-0.987269518490736, 44.935941807455066], [-0.985978219136464, 44.934617677329726], [-0.98485269916724, 44.93283273717148], [-0.983892975747353, 44.93058699029267], [-0.984505667938477, 44.928305797687095], [-0.986690583445558, 44.9259891354268], [-0.990277302677955, 44.92388957180837], [-0.995265711924823, 44.92200696543109], [-0.998894258023982, 44.921415164282344], [-1.001163225361622, 44.92211430606229], [-1.004409020390972, 44.92255371654555], [-1.008631623642525, 44.92273330513137], [-1.011519694139017, 44.92289681962949], [-1.013073213385231, 44.923044371342726], [-1.013647663307329, 44.922720653246195], [-1.013243046769492, 44.92192568115002], [-1.012632192508477, 44.92065437644748], [-1.011815134365705, 44.91890673355985], [-1.010902089161221, 44.91726649707554], [-1.009893059019852, 44.91573366479255], [-1.00878804504512, 44.91430823424079], [-1.007587047319419, 44.9129902026823], [-1.00657231910178, 44.91162468262207], [-1.005743849535836, 44.91021167958892], [-1.005101626869841, 44.90875119812681], [-1.00464563845707, 44.90724324179523], [-1.004370223315471, 44.905757881249905], [-1.00427536643284, 44.90429511830159], [-1.004361053276675, 44.90285495381163], [-1.00462726979407, 44.90143738769225], [-1.00501777202787, 44.89998735417127], [-1.005532549986359, 44.89850485195994], [-1.006171593270102, 44.89698987933114], [-1.006934891072002, 44.89544243411954], [-1.007483748328306, 44.894214873013105], [-1.007818185879589, 44.8933071997851], [-1.007938217925062, 44.8927194168097], [-1.007843852024428, 44.8924515250624], [-1.007814366063614, 44.89203380603398], [-1.007849759234748, 44.89146625966624], [-1.00795002983889, 44.89074888575137], [-1.008115175286175, 44.88988168393223], [-1.00839189102263, 44.88899723412847], [-1.008780171630961, 44.88809553553143], [-1.009280011503565, 44.88717658697735], [-1.009891404842534, 44.886240386947556], [-1.010604811024815, 44.885238918653734], [-1.011420222580797, 44.88417218001884], [-1.012337631366678, 44.883040168671144], [-1.013357028564651, 44.88184288194469], [-1.014478404683092, 44.88058031687901], [-1.015701749556747, 44.87925247021942], [-1.017027052346974, 44.87785933841696], [-1.018454301541911, 44.876400917628594], [-1.019781769228723, 44.87504437670303], [-1.021009468869107, 44.873789719462515], [-1.022137412911839, 44.87263694944177], [-1.023165612793183, 44.87158606988814], [-1.023934791857698, 44.87079603078516], [-1.024444970265914, 44.87026683788184], [-1.02469616145208, 44.8699984949929], [-1.024688372125254, 44.86999100399875], [-1.024691510718138, 44.869636758249605], [-1.024705577773835, 44.86893575747736], [-1.024730574221023, 44.86788800115201], [-1.024766501373889, 44.86649348848137], [-1.025308976555745, 44.86498967138175], [-1.026357957122519, 44.86337654247974], [-1.027913394861924, 44.86165408710343], [-1.029975235994735, 44.85982228328385], [-1.031722688547431, 44.857787339597344], [-1.033155769908455, 44.855549270643216], [-1.034274504693061, 44.85310808793768], [-1.035078924739703, 44.850463799913754], [-1.03567467725747, 44.84814759736868], [-1.036061793486508, 44.84615948482037], [-1.036240298079794, 44.844499465445196], [-1.036210209106648, 44.843167541077904], [-1.036150543269769, 44.84158841956497], [-1.036061306437115, 44.83976209991775], [-1.035942505662931, 44.83768858096989], [-1.03579414918714, 44.835367861377], [-1.03561813855871, 44.83320305725918], [-1.035414473295758, 44.83119416919107], [-1.035183152615445, 44.829341197681025], [-1.03492417543406, 44.827644143170986], [-1.034817994815285, 44.82612557929627], [-1.034864595510364, 44.82478550740832], [-1.035063965429946, 44.82362392805373], [-1.035416095643114, 44.822640840974096], [-1.035962391202462, 44.82165105086343], [-1.03670284178035, 44.82065455486532], [-1.037637436952879, 44.819651349038786], [-1.038766166199792, 44.81864142835841], [-1.040302524541507, 44.81751866929251], [-1.042246479716917, 44.816283054195104], [-1.044597994810107, 44.81493456070231], [-1.047357028250577, 44.81347316173341], [-1.050931685382628, 44.81149383237564], [-1.055321790652051, 44.808996490089534], [-1.057713137820513, 44.80763247625263], [-1.058106002443267, 44.80740192614407], [-1.059968821695624, 44.80717374742634], [-1.063301580905704, 44.806947861465595], [-1.06667041201935, 44.806358526122004], [-1.070075249904941, 44.805405738801966], [-1.071546812063127, 44.80411769767093], [-1.0710852050679, 44.80249448161702], [-1.070655481616849, 44.80134702237732], [-1.070257625185084, 44.8006753218369], [-1.070417035616141, 44.80009583235185], [-1.071133696157078, 44.79960855182285], [-1.070727175891714, 44.79759868796269], [-1.069197649494601, 44.794066217536795], [-1.06825297766358, 44.790007312180194], [-1.067893073467869, 44.7854219851434], [-1.067079378193208, 44.780639043123024], [-1.065812023190686, 44.77565847073027], [-1.066755923323786, 44.77172126836027], [-1.069910640858323, 44.76882739360821], [-1.074095147851592, 44.76833225458094], [-1.07930995083008, 44.77023571884994], [-1.083646621181594, 44.77154398166687], [-1.087104950035105, 44.77225715891243], [-1.093017147121943, 44.77349530053268], [-1.101383561489482, 44.775257979364035], [-1.106392883353095, 44.77700318907553], [-1.108044775650483, 44.778731421887706], [-1.109292819884992, 44.77953063548392], [-1.110136931278886, 44.77940084774272], [-1.112102946750613, 44.77933775742777], [-1.11519087197325, 44.779341300811474], [-1.118040854276781, 44.77962058779952], [-1.120652931904051, 44.78017563698565], [-1.123524472844852, 44.781050592945604], [-1.126655541090761, 44.78224543225862], [-1.13004621027697, 44.78376012913989], [-1.133696563687929, 44.78559465543866], [-1.137127332288447, 44.78742666655364], [-1.140338493230579, 44.789256184711924], [-1.143330023777532, 44.79108323074784], [-1.146101901302967, 44.792907824102834], [-1.148189036091867, 44.79427428122387], [-1.14959132112309, 44.79518264689419], [-1.150308684871917, 44.79563295118714], [-1.150341091318008, 44.79562520946207], [-1.15061915678448, 44.795548588377066], [-1.151142879350737, 44.79540308599162], [-1.151912255384358, 44.795188698651195], [-1.152927279540985, 44.79490542098698], [-1.153947648059728, 44.79461066190026], [-1.154973360258194, 44.79430442124092], [-1.15600441544833, 44.79398669885785], [-1.157040812936448, 44.793657494598975], [-1.158187475300252, 44.79334368234463], [-1.159444401742952, 44.79304525847551], [-1.160811591664518, 44.79276221901682], [-1.162289044661638, 44.79249455963873], [-1.163524845020504, 44.792280081184494], [-1.164518998620367, 44.79211879216603], [-1.165271510049545, 44.79201069943251], [-1.165782382605222, 44.791955808170414], [-1.166261115890261, 44.79144462757267], [-1.166707700630439, 44.79047715778845], [-1.167122130510662, 44.78905339843754], [-1.167504402175397, 44.787173348610025], [-1.167911286302896, 44.78538871296927], [-1.168342781497802, 44.78369949161312], [-1.168798886677469, 44.7821056845965], [-1.169279601071893, 44.780607291931155], [-1.169989857510621, 44.77918159129057], [-1.170929640742556, 44.77782857851146], [-1.172098937398034, 44.77654824786024], [-1.173497735988099, 44.77534059203331], [-1.174986718347263, 44.77438751824264], [-1.176565898689993, 44.773689022824115], [-1.178235294126792, 44.773245101680956], [-1.179994924664915, 44.77305575028313], [-1.181784659006317, 44.77301614977086], [-1.183604511445312, 44.773126298300106], [-1.185454496909304, 44.77338619393966], [-1.187334630959288, 44.77379583467081], [-1.189097411030182, 44.77430833915129], [-1.190742843723941, 44.77492371309875], [-1.192270934438033, 44.77564196183641], [-1.193681687365348, 44.7764630902934], [-1.194816224197755, 44.77706389752624], [-1.195674521448457, 44.77744439335004], [-1.196256562551439, 44.77760458513068], [-1.196562337862392, 44.777544477784446], [-1.197953084718764, 44.77754115627274], [-1.20042880885614, 44.77759457694893], [-1.203989523945687, 44.77770466203484], [-1.208635251580712, 44.777871299619335], [-1.212586133000485, 44.778235860476535], [-1.215842193882839, 44.77879842310043], [-1.218403446003599, 44.77955905226875], [-1.220269887229095, 44.78051779904453], [-1.221783773073486, 44.781224024886704], [-1.222945067965516, 44.78167774632025], [-1.223753746426909, 44.781878975937104], [-1.22420979307367, 44.78182772239522], [-1.224838774103699, 44.78184546574972], [-1.225640692134577, 44.7819322028052], [-1.226615551126357, 44.78208792946489], [-1.22776335638154, 44.782312640730915], [-1.228812742516212, 44.78258067218923], [-1.229763710512322, 44.78289202677375], [-1.230616260919232, 44.78324670714417], [-1.231370393853645, 44.78364471568607], [-1.232026108999594, 44.784086054510716], [-1.232583405608338, 44.784570725455346], [-1.233042282498362, 44.785098730082936], [-1.233402738055254, 44.78567006968232], [-1.233733230992429, 44.78624464807663], [-1.234033760447269, 44.786822465565855], [-1.234304325547778, 44.787403522424334], [-1.234544925412655, 44.787987818900675], [-1.234755559151215, 44.78857535521775], [-1.234936225863429, 44.78916613157272], [-1.235086924639947, 44.78976014813699], [-1.235207654562028, 44.79035740505634], [-1.235244883684824, 44.79095824142287], [-1.235198609341325, 44.79156265737829], [-1.235068828840379, 44.792170652863646], [-1.234855539466704, 44.792782227619426], [-1.234558738480776, 44.79339738118532], [-1.234178423119002, 44.794016112900565], [-1.233714590593612, 44.79463842190358], [-1.23316723809269, 44.79526430713209], [-1.232642305026109, 44.79584962063767], [-1.23213979306356, 44.79639436277417], [-1.231659703789064, 44.79689853387948], [-1.231202038700942, 44.79736213427528], [-1.230766799211789, 44.79778516426712], [-1.230353986648466, 44.79816762414444], [-1.229963602252096, 44.79850951418053], [-1.229595647178017, 44.79881083463259], [-1.229165951842424, 44.79910010209991], [-1.228674515573218, 44.79937731583905], [-1.228121337783244, 44.79964247499455], [-1.227506417970321, 44.799895578598814], [-1.227022086490892, 44.800090904425964], [-1.226668346061091, 44.800228454266026], [-1.226445198630969, 44.80030822942658], [-1.226352645384504, 44.800330230732484], [-1.226226153665062, 44.80049860203892], [-1.226065722345547, 44.80081334319431], [-1.22587134991183, 44.80127445397695], [-1.225643034462559, 44.8018819340953], [-1.22517770671942, 44.80258537280482], [-1.224475355943054, 44.80338476701099], [-1.223535969083368, 44.804280112028806], [-1.222359530779146, 44.8052714015827], [-1.220716065298185, 44.80635630798379], [-1.21860553882181, 44.80753480960362], [-1.216027913153025, 44.8088068785974], [-1.212983145717079, 44.81017248090278], [-1.21016301680495, 44.811153405343255], [-1.20756759305995, 44.81174966957253], [-1.205196932919802, 44.811961289655166], [-1.203051086611265, 44.81178828006553], [-1.200925195594329, 44.81184745066239], [-1.198819233541985, 44.81213880319524], [-1.196733174983099, 44.81266233926969], [-1.194666995301074, 44.81341806034782], [-1.19243846570661, 44.81426497559344], [-1.1900475688744, 44.815203074780776], [-1.187494285977609, 44.81623234693766], [-1.184778596687564, 44.8173527803452], [-1.182203109980486, 44.81844715474871], [-1.179767837065362, 44.81951548038448], [-1.177472788787216, 44.82055776692871], [-1.175317975627164, 44.82157402349712], [-1.173303407702532, 44.82256425864513], [-1.171429094766966, 44.8235284803675], [-1.169695046210443, 44.824466696098355], [-1.168101271059394, 44.8253789127112], [-1.166487095551185, 44.82630418816633], [-1.164852517661293, 44.82724252153298], [-1.163197535338102, 44.82819391186834], [-1.161522146502894, 44.829158358217896], [-1.160236121487292, 44.82989871753443], [-1.159339489505929, 44.83041500398407], [-1.158832270930443, 44.83070722744401], [-1.158714477288446, 44.83077539350185], [-1.159611509757366, 44.83160500957404], [-1.161523455281879, 44.83319604627486], [-1.164450488658151, 44.8355484414706], [-1.1683928725705, 44.83866210026563], [-1.171768829139294, 44.841814681898455], [-1.174578268393956, 44.845006243132794], [-1.176821098347165, 44.848236831524204], [-1.178497224988905, 44.851506485417545], [-1.179626082075405, 44.854389813134304], [-1.180207553487661, 44.85688683724532], [-1.180241547089565, 44.85899757087204], [-1.179727994742086, 44.86072201768396], [-1.179219905741909, 44.86247369139192], [-1.178717280174759, 44.864252591975074], [-1.178220118147236, 44.86605871941003], [-1.17772841978687, 44.86789207367035], [-1.176899966229508, 44.8696085870127], [-1.175734730633357, 44.871208252382694], [-1.174232690593964, 44.87269105933693], [-1.172393828146278, 44.87405699404274], [-1.170973379812114, 44.87507587255707], [-1.169971391879953, 44.87574771176468], [-1.169387896060266, 44.8760725235627], [-1.169222909482451, 44.8760503148596], [-1.16914510816408, 44.87614290499665], [-1.169154492122368, 44.87635029414676], [-1.169251062545042, 44.87667248221196], [-1.169434821790365, 44.87710946882322], [-1.169148785317772, 44.87766338153048], [-1.168392937953916, 44.8783342166469], [-1.167167258969556, 44.87912196421667], [-1.165471722079244, 44.88002660801424], [-1.163051275450024, 44.88092560324609], [-1.159905886785651, 44.88181890006849], [-1.156035524826458, 44.882706433480244], [-1.151440159357137, 44.88358812332175], [-1.147298749147957, 44.88468502213485], [-1.143611272528277, 44.885997184029854], [-1.140377718847204, 44.887524656852236], [-1.137598088478329, 44.889267482184366], [-1.134506243919495, 44.891891343382945], [-1.131102011426919, 44.89539621148348], [-1.127385192922336, 44.899782053599104], [-1.123355565941453, 44.90504883291865], [-1.119990628847459, 44.90943837512147], [-1.117290668702057, 44.912950746630244], [-1.115669229906684, 44.91505531128242], [-1.115126535327047, 44.91575212091751], [-1.114428405458111, 44.91817749280194], [-1.113574783201343, 44.922331416316425], [-1.112464031431502, 44.92687131300645], [-1.111096076335566, 44.9317971725689], [-1.107926641063177, 44.936974881383826], [-1.102955196350075, 44.94240428347201], [-1.095946249831591, 44.947333447366276], [-1.08689944952334, 44.95176197467905], [-1.079136536029465, 44.954619183836535], [-1.072658321480439, 44.95590535412474], [-1.067180712273005, 44.954472440702155], [-1.062704451802225, 44.95032057782423], [-1.060300144331137, 44.94830923835764], [-1.059967255035359, 44.94843858555375], [-1.056839526131027, 44.94894800947283]], [[-1.105535974799908, 44.80244690454641], [-1.105538030952951, 44.80245105179603], [-1.105539470260279, 44.80245395487069], [-1.105540292721676, 44.80245561377053], [-1.1055407496447, 44.80245653538152], [-1.105540841029309, 44.802456719703734], [-1.105540943836996, 44.802456927066224], [-1.105541058067761, 44.80245715746894], [-1.105542657298532, 44.80246038310743], [-1.105545741529891, 44.80246660398156], [-1.105553142131713, 44.80246908846874], [-1.10556485910307, 44.802467836568084], [-1.105582434559239, 44.80246595871468], [-1.105605868499149, 44.80246345490552], [-1.105623443952853, 44.80246157704521], [-1.105635160921401, 44.8024603251367], [-1.10565119425185, 44.80245533683611], [-1.105671543940039, 44.80244661214154], [-1.105691893622218, 44.80243788744306], [-1.105712243298393, 44.80242916274066], [-1.105729201357271, 44.80242189215234], [-1.105742767801358, 44.80241607567973], [-1.105751195439526, 44.80241246241559], [-1.105754484273656, 44.80241105236107], [-1.105756553110021, 44.80241016536827], [-1.105757401948732, 44.802409801437136], [-1.105759149141724, 44.802409052345624], [-1.105761794688934, 44.802407918093586], [-1.105773292290807, 44.802402988610005], [-1.10579364194291, 44.80239426389199], [-1.105823333337638, 44.80237700805195], [-1.105862366454067, 44.80235122108199], [-1.10588282047535, 44.802337708253596], [-1.10588469542683, 44.80233646957743], [-1.105887483503898, 44.802334627649884], [-1.105891184706365, 44.80233218247081], [-1.105896752742847, 44.80232850397751], [-1.105904187612637, 44.802323592169664], [-1.105920916065176, 44.80231254060012], [-1.105946938090085, 44.80229534926441], [-1.105979465600046, 44.802273860085805], [-1.106018498580938, 44.80224807305829], [-1.106057531527947, 44.80222228601636], [-1.106096564441074, 44.802196498960036], [-1.106144938989339, 44.802162180742684], [-1.106202655135938, 44.8021193313515], [-1.106289229200286, 44.80205505720553], [-1.106404660995728, 44.80196935823376], [-1.106491234624538, 44.80190508392208], [-1.10654895027338, 44.80186223434151], [-1.106598618281377, 44.80182057218246], [-1.106640238668857, 44.80178009745612], [-1.106661962296641, 44.80175897177432], [-1.106663789206541, 44.80175719514949], [-1.106666762086966, 44.801754304096306], [-1.106670880937588, 44.80175029861464], [-1.106676904202029, 44.801744441135824], [-1.106684831879184, 44.80173673165946], [-1.106702669145354, 44.801719385335446], [-1.10673041598346, 44.80169240215871], [-1.106765099496182, 44.801658673177386], [-1.10680671966025, 44.80161819838455], [-1.106848339768465, 44.8015777235751], [-1.106889959820833, 44.801537248749035], [-1.106923532310849, 44.80149796138372], [-1.106949057256958, 44.80145986148666], [-1.10697458217181, 44.80142176158302], [-1.107000107055414, 44.80138366167276], [-1.107019250697598, 44.801355086735704], [-1.10703201311596, 44.80133603677561], [-1.107038885184145, 44.8013257791041], [-1.107039866907992, 44.801324313722404], [-1.107041993976153, 44.80132113872873], [-1.107045266388296, 44.80131625412299], [-1.107051156728852, 44.801307461832344], [-1.107059664995599, 44.801294761856376], [-1.107076681518683, 44.80126936190219], [-1.107102206277262, 44.80123126196545], [-1.107124768777042, 44.801194461136994], [-1.107144369025043, 44.80115895941876], [-1.107163969251141, 44.801123457696434], [-1.107183569455318, 44.80108795597001], [-1.107203169637605, 44.80105245423941], [-1.107222769797991, 44.80101695250471], [-1.107242369936466, 44.80098145076591], [-1.10726197005304, 44.80094594902299], [-1.107278607937692, 44.80091174639518], [-1.107292283596661, 44.800878842883854], [-1.107305959242029, 44.80084593937024], [-1.107319634873803, 44.80081303585437], [-1.107333310491983, 44.80078013233623], [-1.107346986096564, 44.800747228815844], [-1.107360661687548, 44.80071432529318], [-1.107374337264935, 44.80068142176819], [-1.107386725005856, 44.800648983386836], [-1.107397824912733, 44.80061701014947], [-1.107406377292935, 44.80059237503103], [-1.107412382151958, 44.80057507803235], [-1.107416144632539, 44.80056424020094], [-1.107417664736805, 44.8005598615371], [-1.107418706661247, 44.80055686027101], [-1.10741927040597, 44.80055523640274], [-1.107421057867683, 44.80055008761367], [-1.107424069045824, 44.800541413903744], [-1.107431124571209, 44.80052109042729], [-1.107442224436656, 44.80048911718326], [-1.107453324291726, 44.80045714393747], [-1.107464424136438, 44.80042517069002], [-1.107474236154216, 44.800393662587794], [-1.107482760347348, 44.80036261963108], [-1.107488443138723, 44.80034192432592], [-1.1074912845332, 44.80033157667316], [-1.107492897765012, 44.80032570168228], [-1.107493282834753, 44.80032429935346], [-1.107493817685278, 44.80032235155997], [-1.107494502316562, 44.8003198583018], [-1.107497151174513, 44.80031021181314], [-1.107501764257575, 44.80029341209379], [-1.107508332883028, 44.800269490753614], [-1.107516857047014, 44.80023844779205], [-1.107525381203715, 44.80020740482923], [-1.10753390535313, 44.8001763618652], [-1.107539465313685, 44.80014891089453], [-1.107542061090144, 44.800125051917725], [-1.107543631409581, 44.800110618384174], [-1.10754417627269, 44.800105610294175], [-1.107544681238593, 44.80010096891755], [-1.107545146307293, 44.80009669425428], [-1.107545444946247, 44.80009394932427], [-1.107545577155484, 44.80009273412745], [-1.107546370076976, 44.800085446015316], [-1.107547823710485, 44.80007208498771], [-1.107549848413817, 44.80005347498474], [-1.107552444186487, 44.80002961600619], [-1.107555039958192, 44.80000575702718], [-1.107557635728944, 44.79998189804776], [-1.107557267326729, 44.79996163106319], [-1.107553934754197, 44.799944956073574], [-1.107548935900278, 44.79991994358852], [-1.107542270770826, 44.799886593607155], [-1.107537271930564, 44.799861581120204], [-1.107533939373647, 44.79984490612848], [-1.10752680547788, 44.79983224012038], [-1.107515870244015, 44.79982358309522], [-1.107504935013746, 44.79981492606877], [-1.107493999787063, 44.79980626904108], [-1.107483064563963, 44.79979761201213], [-1.107472129344447, 44.79978895498186], [-1.107461194128534, 44.79978029795033], [-1.107450258916198, 44.7997716409175], [-1.107435522363464, 44.79976699286433], [-1.107416984468035, 44.79976635378924], [-1.107389177625934, 44.7997653951704], [-1.107352101838401, 44.79976411700032], [-1.107317793919658, 44.79976287054657], [-1.107286253869347, 44.79976165581193], [-1.107263982765952, 44.79976076062013], [-1.107250980608429, 44.79976018497719], [-1.107241879098352, 44.79975978202614], [-1.107236678235519, 44.79975955176805], [-1.107233243703496, 44.79975939971067], [-1.107231575502233, 44.79975932585421], [-1.107229841881318, 44.79975924910134], [-1.107228042840757, 44.79975916945216], [-1.107224976294355, 44.79975903368638], [-1.107220642242139, 44.799758841803964], [-1.107208240925841, 44.799758201946524], [-1.107187772346149, 44.79975711411117], [-1.107175671450835, 44.79975644214538], [-1.107171938239213, 44.79975618605205], [-1.107168205027633, 44.79975592995859], [-1.107164471816092, 44.799755673864986], [-1.107161775607777, 44.79975548890842], [-1.107160116402669, 44.79975537508895], [-1.107158623118086, 44.799755272651424], [-1.107157295754016, 44.79975518159581], [-1.107154392145119, 44.79975498241161], [-1.107149912291462, 44.79975467509867], [-1.107143939153324, 44.79975426534777], [-1.107136472730783, 44.799753753158676], [-1.107124299613946, 44.79976193199021], [-1.107107419795609, 44.79977880184071], [-1.107082100050432, 44.79980410661136], [-1.107048340357196, 44.79983784629592], [-1.107023020562529, 44.799863151052165], [-1.107006140687629, 44.799880020886235], [-1.106984554078105, 44.79990558173219], [-1.106958260719071, 44.79993983358693], [-1.10694442209728, 44.799957860876134], [-1.106943038234656, 44.79995966360496], [-1.106941099713817, 44.799962188875185], [-1.10693860653463, 44.7999654366868], [-1.106936669126457, 44.799967960507], [-1.106935287489424, 44.79996976033589], [-1.106924079308518, 44.79998436098784], [-1.106903044569746, 44.800011762459555], [-1.106879380466209, 44.80004258911003], [-1.106853086990015, 44.80007684093736], [-1.106826793484528, 44.8001110927578], [-1.106800499949751, 44.80014534457144], [-1.106780517304486, 44.80017662933977], [-1.106766845561706, 44.80020494706639], [-1.106753173806955, 44.800233264790855], [-1.106739502040231, 44.80026158251324], [-1.10672810889215, 44.80028518061361], [-1.106718994367691, 44.800304059092824], [-1.106713178255604, 44.80031610572183], [-1.106710660559555, 44.80032132050119], [-1.106708825815998, 44.80032512071425], [-1.106707674025157, 44.80032750636108], [-1.106706654240055, 44.800329618590844], [-1.106705766460717, 44.800331457403615], [-1.106698486668208, 44.80034653566772], [-1.106684814853581, 44.80037485338168], [-1.106677453974696, 44.800400204061184], [-1.106676404040744, 44.800422587707565], [-1.106675354107065, 44.80044497135355], [-1.106674304173649, 44.8004673549992], [-1.106673254240499, 44.800489738644465], [-1.106672204307634, 44.800512122289376], [-1.106655247775556, 44.800542428600494], [-1.106622384613179, 44.80058065757016], [-1.106574139760918, 44.80061561736225], [-1.106510513198508, 44.800647307956005], [-1.106431504911398, 44.80067572932375], [-1.106337114890762, 44.80070088143083], [-1.106283336073705, 44.800714436633136], [-1.106270168519572, 44.80071639499284], [-1.106262549015549, 44.800717528211536], [-1.106260477562231, 44.80071783629051], [-1.106257457982328, 44.80071828538046], [-1.106253490275795, 44.80071887548135], [-1.106229821419669, 44.800722395650766], [-1.106186451407117, 44.800728845875454], [-1.106133478022178, 44.80073672433988], [-1.106070901257405, 44.800746031029476], [-1.106008324473498, 44.80075533768181], [-1.10594574767046, 44.80076464429685], [-1.105892760348735, 44.800775873915185], [-1.105849362508196, 44.800789026551385], [-1.105805964648377, 44.80080217916981], [-1.105762566769286, 44.80081533177039], [-1.105731662207261, 44.80082469800539], [-1.105713250974164, 44.800830277885794], [-1.105701091792718, 44.800833962958656], [-1.105695184665254, 44.80083575322609], [-1.105687616855383, 44.800838046794354], [-1.105678388362712, 44.800840843663], [-1.105668848584204, 44.80084373487161], [-1.105658997519759, 44.80084672042003], [-1.105632373016268, 44.80085478946523], [-1.105588975060038, 44.80086794199455], [-1.10555516659095, 44.80088301757748], [-1.105530947613104, 44.800900016223245], [-1.105506728621414, 44.80091701486343], [-1.105482509615892, 44.80093401349809], [-1.105465014562511, 44.800946292771506], [-1.105454243469596, 44.800953852687044], [-1.105447684148841, 44.8009584564812], [-1.105445336602219, 44.80096010415483], [-1.105439477598746, 44.80096421641559], [-1.105430107136967, 44.800970793263005], [-1.105424556939392, 44.80097468877991], [-1.105422827007526, 44.80097590296691], [-1.105409852516331, 44.80098500936876], [-1.105385633455482, 44.801002007981204], [-1.105367146664064, 44.80101544643432], [-1.1053543921493, 44.8010253247311], [-1.105335260369249, 44.80104014217338], [-1.105309751314409, 44.80105989875769], [-1.105290619512204, 44.8010747161919], [-1.105277864972121, 44.80108459447942], [-1.105270842724138, 44.801090912616864], [-1.105269552771328, 44.80109367060532], [-1.105267617841905, 44.80109780758798], [-1.105265037935628, 44.801103323564774], [-1.10526310300563, 44.80110746054734], [-1.105261813052169, 44.8011102185357], [-1.105263282613448, 44.8011221797804], [-1.105267511692695, 44.80114334428112], [-1.105273855319431, 44.80117509103107], [-1.10528231350308, 44.80121742002906], [-1.105288657151811, 44.801249166776], [-1.105292886256207, 44.801270331273244], [-1.105299874898116, 44.80130069902381], [-1.105309623087334, 44.80134027002636], [-1.105319371293819, 44.801379841026545], [-1.105329119517564, 44.80141941202433], [-1.105338867758568, 44.80145898301978], [-1.10534861601684, 44.801498554012845], [-1.105362337145301, 44.80155800679611], [-1.105380031179091, 44.80163734136479], [-1.105396823983206, 44.80171677222316], [-1.105412715553957, 44.801796299371766], [-1.105427705887614, 44.801875922811014], [-1.10544179498044, 44.80195564254138], [-1.1054549828287, 44.80203545856333], [-1.105467269428658, 44.80211537087724], [-1.105476484410916, 44.80217530510806], [-1.105482627747806, 44.80221526125983], [-1.105488006311048, 44.80224678359179], [-1.105492620095175, 44.80226987210475], [-1.105499540780719, 44.8023045048729], [-1.105508768378898, 44.80235068189477], [-1.105515689090625, 44.80238531465936], [-1.105520302904678, 44.802408403168265], [-1.105524151926644, 44.802423057859954], [-1.105527236153352, 44.80242927873487], [-1.105530320380843, 44.80243549960963], [-1.105533404609098, 44.80244172048429], [-1.105535974799908, 44.80244690454641]]]}}]}