{
"type": "FeatureCollection",
"name": "zone_active_points",
"crs": { "type": "name", "properties": { "name": "urn:ogc:def:crs:OGC:1.3:CRS84" } },
"features": [
{ "type": "Feature", "properties": { "lat": 44.77989, "lon": -1.22489, "frp": 10.56, "fetch_timestamp": "2026-07-25T13:33:00" }, "geometry": { "type": "Point", "coordinates": [ -1.22489, 44.77989 ] } },
{ "type": "Feature", "properties": { "lat": 44.78374, "lon": -1.11324, "frp": 142.8, "fetch_timestamp": "2026-07-25T13:33:00" }, "geometry": { "type": "Point", "coordinates": [ -1.11324, 44.78374 ] } },
{ "type": "Feature", "properties": { "lat": 44.7841, "lon": -1.10259, "frp": 220.76, "fetch_timestamp": "2026-07-25T13:33:00" }, "geometry": { "type": "Point", "coordinates": [ -1.10259, 44.7841 ] } },
{ "type": "Feature", "properties": { "lat": 44.78447, "lon": -1.09188, "frp": 11.54, "fetch_timestamp": "2026-07-25T13:33:00" }, "geometry": { "type": "Point", "coordinates": [ -1.09188, 44.78447 ] } },
{ "type": "Feature", "properties": { "lat": 44.7894, "lon": -1.11358, "frp": 50.33, "fetch_timestamp": "2026-07-25T13:33:00" }, "geometry": { "type": "Point", "coordinates": [ -1.11358, 44.7894 ] } },
{ "type": "Feature", "properties": { "lat": 44.79031, "lon": -1.08689, "frp": 7.34, "fetch_timestamp": "2026-07-25T13:33:00" }, "geometry": { "type": "Point", "coordinates": [ -1.08689, 44.79031 ] } },
{ "type": "Feature", "properties": { "lat": 44.79302, "lon": -1.17255, "frp": 38.46, "fetch_timestamp": "2026-07-25T13:33:00" }, "geometry": { "type": "Point", "coordinates": [ -1.17255, 44.79302 ] } },
{ "type": "Feature", "properties": { "lat": 44.79488, "lon": -1.11928, "frp": 50.33, "fetch_timestamp": "2026-07-25T13:33:00" }, "geometry": { "type": "Point", "coordinates": [ -1.11928, 44.79488 ] } },
{ "type": "Feature", "properties": { "lat": 44.80713, "lon": -1.09323, "frp": 37.06, "fetch_timestamp": "2026-07-25T13:33:00" }, "geometry": { "type": "Point", "coordinates": [ -1.09323, 44.80713 ] } },
{ "type": "Feature", "properties": { "lat": 44.80769, "lon": -1.07718, "frp": 23.24, "fetch_timestamp": "2026-07-25T13:33:00" }, "geometry": { "type": "Point", "coordinates": [ -1.07718, 44.80769 ] } },
{ "type": "Feature", "properties": { "lat": 44.80787, "lon": -1.07185, "frp": 23.24, "fetch_timestamp": "2026-07-25T13:33:00" }, "geometry": { "type": "Point", "coordinates": [ -1.07185, 44.80787 ] } },
{ "type": "Feature", "properties": { "lat": 44.80824, "lon": -1.06111, "frp": 3.0, "fetch_timestamp": "2026-07-25T13:33:00" }, "geometry": { "type": "Point", "coordinates": [ -1.06111, 44.80824 ] } },
{ "type": "Feature", "properties": { "lat": 44.81392, "lon": -1.06143, "frp": 178.18, "fetch_timestamp": "2026-07-25T13:33:00" }, "geometry": { "type": "Point", "coordinates": [ -1.06143, 44.81392 ] } },
{ "type": "Feature", "properties": { "lat": 44.81411, "lon": -1.05606, "frp": 67.49, "fetch_timestamp": "2026-07-25T13:33:00" }, "geometry": { "type": "Point", "coordinates": [ -1.05606, 44.81411 ] } },
{ "type": "Feature", "properties": { "lat": 44.81429, "lon": -1.05068, "frp": 67.49, "fetch_timestamp": "2026-07-25T13:33:00" }, "geometry": { "type": "Point", "coordinates": [ -1.05068, 44.81429 ] } },
{ "type": "Feature", "properties": { "lat": 44.81448, "lon": -1.04531, "frp": 5.96, "fetch_timestamp": "2026-07-25T13:33:00" }, "geometry": { "type": "Point", "coordinates": [ -1.04531, 44.81448 ] } },
{ "type": "Feature", "properties": { "lat": 44.81978, "lon": -1.05638, "frp": 67.49, "fetch_timestamp": "2026-07-25T13:33:00" }, "geometry": { "type": "Point", "coordinates": [ -1.05638, 44.81978 ] } },
{ "type": "Feature", "properties": { "lat": 44.82016, "lon": -1.04562, "frp": 5.96, "fetch_timestamp": "2026-07-25T13:33:00" }, "geometry": { "type": "Point", "coordinates": [ -1.04562, 44.82016 ] } },
{ "type": "Feature", "properties": { "lat": 44.82035, "lon": -1.04024, "frp": 5.96, "fetch_timestamp": "2026-07-25T13:33:00" }, "geometry": { "type": "Point", "coordinates": [ -1.04024, 44.82035 ] } },
{ "type": "Feature", "properties": { "lat": 44.82053, "lon": -1.03486, "frp": 8.82, "fetch_timestamp": "2026-07-25T13:33:00" }, "geometry": { "type": "Point", "coordinates": [ -1.03486, 44.82053 ] } },
{ "type": "Feature", "properties": { "lat": 44.82565, "lon": -1.05132, "frp": 164.56, "fetch_timestamp": "2026-07-25T13:33:00" }, "geometry": { "type": "Point", "coordinates": [ -1.05132, 44.82565 ] } },
{ "type": "Feature", "properties": { "lat": 44.82584, "lon": -1.04594, "frp": 11.0, "fetch_timestamp": "2026-07-25T13:33:00" }, "geometry": { "type": "Point", "coordinates": [ -1.04594, 44.82584 ] } },
{ "type": "Feature", "properties": { "lat": 44.82603, "lon": -1.04056, "frp": 11.0, "fetch_timestamp": "2026-07-25T13:33:00" }, "geometry": { "type": "Point", "coordinates": [ -1.04056, 44.82603 ] } },
{ "type": "Feature", "properties": { "lat": 44.82622, "lon": -1.03517, "frp": 3.97, "fetch_timestamp": "2026-07-25T13:33:00" }, "geometry": { "type": "Point", "coordinates": [ -1.03517, 44.82622 ] } },
{ "type": "Feature", "properties": { "lat": 44.82641, "lon": -1.02978, "frp": 3.97, "fetch_timestamp": "2026-07-25T13:33:00" }, "geometry": { "type": "Point", "coordinates": [ -1.02978, 44.82641 ] } },
{ "type": "Feature", "properties": { "lat": 44.82797, "lon": -1.04369, "frp": 13.77, "fetch_timestamp": "2026-07-25T13:33:00" }, "geometry": { "type": "Point", "coordinates": [ -1.04369, 44.82797 ] } },
{ "type": "Feature", "properties": { "lat": 44.82813, "lon": -1.03832, "frp": 13.77, "fetch_timestamp": "2026-07-25T13:33:00" }, "geometry": { "type": "Point", "coordinates": [ -1.03832, 44.82813 ] } },
{ "type": "Feature", "properties": { "lat": 44.8283, "lon": -1.03292, "frp": 5.01, "fetch_timestamp": "2026-07-25T13:33:00" }, "geometry": { "type": "Point", "coordinates": [ -1.03292, 44.8283 ] } },
{ "type": "Feature", "properties": { "lat": 44.82846, "lon": -1.02752, "frp": 5.01, "fetch_timestamp": "2026-07-25T13:33:00" }, "geometry": { "type": "Point", "coordinates": [ -1.02752, 44.82846 ] } },
{ "type": "Feature", "properties": { "lat": 44.83086, "lon": -1.13517, "frp": 20.44, "fetch_timestamp": "2026-07-25T13:33:00" }, "geometry": { "type": "Point", "coordinates": [ -1.13517, 44.83086 ] } },
{ "type": "Feature", "properties": { "lat": 44.83152, "lon": -1.04622, "frp": 11.0, "fetch_timestamp": "2026-07-25T13:33:00" }, "geometry": { "type": "Point", "coordinates": [ -1.04622, 44.83152 ] } },
{ "type": "Feature", "properties": { "lat": 44.83171, "lon": -1.04086, "frp": 11.0, "fetch_timestamp": "2026-07-25T13:33:00" }, "geometry": { "type": "Point", "coordinates": [ -1.04086, 44.83171 ] } },
{ "type": "Feature", "properties": { "lat": 44.8319, "lon": -1.03549, "frp": 3.97, "fetch_timestamp": "2026-07-25T13:33:00" }, "geometry": { "type": "Point", "coordinates": [ -1.03549, 44.8319 ] } },
{ "type": "Feature", "properties": { "lat": 44.83209, "lon": -1.0301, "frp": 3.97, "fetch_timestamp": "2026-07-25T13:33:00" }, "geometry": { "type": "Point", "coordinates": [ -1.0301, 44.83209 ] } },
{ "type": "Feature", "properties": { "lat": 44.83366, "lon": -1.044, "frp": 13.77, "fetch_timestamp": "2026-07-25T13:33:00" }, "geometry": { "type": "Point", "coordinates": [ -1.044, 44.83366 ] } },
{ "type": "Feature", "properties": { "lat": 44.83382, "lon": -1.03864, "frp": 13.77, "fetch_timestamp": "2026-07-25T13:33:00" }, "geometry": { "type": "Point", "coordinates": [ -1.03864, 44.83382 ] } },
{ "type": "Feature", "properties": { "lat": 44.83398, "lon": -1.03326, "frp": 5.01, "fetch_timestamp": "2026-07-25T13:33:00" }, "geometry": { "type": "Point", "coordinates": [ -1.03326, 44.83398 ] } },
{ "type": "Feature", "properties": { "lat": 44.8372, "lon": -1.04652, "frp": 56.88, "fetch_timestamp": "2026-07-25T13:33:00" }, "geometry": { "type": "Point", "coordinates": [ -1.04652, 44.8372 ] } },
{ "type": "Feature", "properties": { "lat": 44.83758, "lon": -1.03579, "frp": 9.55, "fetch_timestamp": "2026-07-25T13:33:00" }, "geometry": { "type": "Point", "coordinates": [ -1.03579, 44.83758 ] } },
{ "type": "Feature", "properties": { "lat": 44.83956, "lon": -1.13786, "frp": 22.95, "fetch_timestamp": "2026-07-25T13:33:00" }, "geometry": { "type": "Point", "coordinates": [ -1.13786, 44.83956 ] } },
{ "type": "Feature", "properties": { "lat": 44.84799, "lon": -1.1309, "frp": 34.68, "fetch_timestamp": "2026-07-25T13:33:00" }, "geometry": { "type": "Point", "coordinates": [ -1.1309, 44.84799 ] } },
{ "type": "Feature", "properties": { "lat": 44.84816, "lon": -1.12556, "frp": 34.68, "fetch_timestamp": "2026-07-25T13:33:00" }, "geometry": { "type": "Point", "coordinates": [ -1.12556, 44.84816 ] } },
{ "type": "Feature", "properties": { "lat": 44.84834, "lon": -1.12024, "frp": 92.52, "fetch_timestamp": "2026-07-25T13:33:00" }, "geometry": { "type": "Point", "coordinates": [ -1.12024, 44.84834 ] } },
{ "type": "Feature", "properties": { "lat": 44.8485, "lon": -1.11489, "frp": 92.52, "fetch_timestamp": "2026-07-25T13:33:00" }, "geometry": { "type": "Point", "coordinates": [ -1.11489, 44.8485 ] } },
{ "type": "Feature", "properties": { "lat": 44.84895, "lon": -1.03639, "frp": 17.69, "fetch_timestamp": "2026-07-25T13:33:00" }, "geometry": { "type": "Point", "coordinates": [ -1.03639, 44.84895 ] } },
{ "type": "Feature", "properties": { "lat": 44.85006, "lon": -1.16004, "frp": 4.38, "fetch_timestamp": "2026-07-25T13:33:00" }, "geometry": { "type": "Point", "coordinates": [ -1.16004, 44.85006 ] } },
{ "type": "Feature", "properties": { "lat": 44.85107, "lon": -1.13324, "frp": 43.26, "fetch_timestamp": "2026-07-25T13:33:00" }, "geometry": { "type": "Point", "coordinates": [ -1.13324, 44.85107 ] } },
{ "type": "Feature", "properties": { "lat": 44.85127, "lon": -1.1279, "frp": 43.26, "fetch_timestamp": "2026-07-25T13:33:00" }, "geometry": { "type": "Point", "coordinates": [ -1.1279, 44.85127 ] } },
{ "type": "Feature", "properties": { "lat": 44.85146, "lon": -1.12257, "frp": 175.76, "fetch_timestamp": "2026-07-25T13:33:00" }, "geometry": { "type": "Point", "coordinates": [ -1.12257, 44.85146 ] } },
{ "type": "Feature", "properties": { "lat": 44.85186, "lon": -1.11187, "frp": 103.31, "fetch_timestamp": "2026-07-25T13:33:00" }, "geometry": { "type": "Point", "coordinates": [ -1.11187, 44.85186 ] } },
{ "type": "Feature", "properties": { "lat": 44.85226, "lon": -1.10117, "frp": 54.61, "fetch_timestamp": "2026-07-25T13:33:00" }, "geometry": { "type": "Point", "coordinates": [ -1.10117, 44.85226 ] } },
{ "type": "Feature", "properties": { "lat": 44.85246, "lon": -1.09583, "frp": 54.61, "fetch_timestamp": "2026-07-25T13:33:00" }, "geometry": { "type": "Point", "coordinates": [ -1.09583, 44.85246 ] } },
{ "type": "Feature", "properties": { "lat": 44.85261, "lon": -1.1634, "frp": 32.95, "fetch_timestamp": "2026-07-25T13:33:00" }, "geometry": { "type": "Point", "coordinates": [ -1.1634, 44.85261 ] } },
{ "type": "Feature", "properties": { "lat": 44.85266, "lon": -1.09046, "frp": 6.28, "fetch_timestamp": "2026-07-25T13:33:00" }, "geometry": { "type": "Point", "coordinates": [ -1.09046, 44.85266 ] } },
{ "type": "Feature", "properties": { "lat": 44.85286, "lon": -1.0851, "frp": 6.28, "fetch_timestamp": "2026-07-25T13:33:00" }, "geometry": { "type": "Point", "coordinates": [ -1.0851, 44.85286 ] } },
{ "type": "Feature", "properties": { "lat": 44.85305, "lon": -1.07974, "frp": 6.53, "fetch_timestamp": "2026-07-25T13:33:00" }, "geometry": { "type": "Point", "coordinates": [ -1.07974, 44.85305 ] } },
{ "type": "Feature", "properties": { "lat": 44.85365, "lon": -1.13126, "frp": 34.68, "fetch_timestamp": "2026-07-25T13:33:00" }, "geometry": { "type": "Point", "coordinates": [ -1.13126, 44.85365 ] } },
{ "type": "Feature", "properties": { "lat": 44.85416, "lon": -1.11521, "frp": 92.52, "fetch_timestamp": "2026-07-25T13:33:00" }, "geometry": { "type": "Point", "coordinates": [ -1.11521, 44.85416 ] } },
{ "type": "Feature", "properties": { "lat": 44.85468, "lon": -1.09914, "frp": 71.39, "fetch_timestamp": "2026-07-25T13:33:00" }, "geometry": { "type": "Point", "coordinates": [ -1.09914, 44.85468 ] } },
{ "type": "Feature", "properties": { "lat": 44.85485, "lon": -1.09379, "frp": 71.39, "fetch_timestamp": "2026-07-25T13:33:00" }, "geometry": { "type": "Point", "coordinates": [ -1.09379, 44.85485 ] } },
{ "type": "Feature", "properties": { "lat": 44.85502, "lon": -1.0884, "frp": 9.95, "fetch_timestamp": "2026-07-25T13:33:00" }, "geometry": { "type": "Point", "coordinates": [ -1.0884, 44.85502 ] } },
{ "type": "Feature", "properties": { "lat": 44.85519, "lon": -1.08302, "frp": 9.95, "fetch_timestamp": "2026-07-25T13:33:00" }, "geometry": { "type": "Point", "coordinates": [ -1.08302, 44.85519 ] } },
{ "type": "Feature", "properties": { "lat": 44.85965, "lon": -1.12091, "frp": 120.04, "fetch_timestamp": "2026-07-25T13:33:00" }, "geometry": { "type": "Point", "coordinates": [ -1.12091, 44.85965 ] } },
{ "type": "Feature", "properties": { "lat": 44.86069, "lon": -1.08877, "frp": 18.34, "fetch_timestamp": "2026-07-25T13:33:00" }, "geometry": { "type": "Point", "coordinates": [ -1.08877, 44.86069 ] } },
{ "type": "Feature", "properties": { "lat": 44.86086, "lon": -1.08339, "frp": 18.34, "fetch_timestamp": "2026-07-25T13:33:00" }, "geometry": { "type": "Point", "coordinates": [ -1.08339, 44.86086 ] } },
{ "type": "Feature", "properties": { "lat": 44.86373, "lon": -1.1695, "frp": 11.0, "fetch_timestamp": "2026-07-25T13:33:00" }, "geometry": { "type": "Point", "coordinates": [ -1.1695, 44.86373 ] } },
{ "type": "Feature", "properties": { "lat": 44.87133, "lon": -1.11088, "frp": 92.11, "fetch_timestamp": "2026-07-25T13:33:00" }, "geometry": { "type": "Point", "coordinates": [ -1.11088, 44.87133 ] } },
{ "type": "Feature", "properties": { "lat": 44.87503, "lon": -1.17009, "frp": 12.33, "fetch_timestamp": "2026-07-25T13:33:00" }, "geometry": { "type": "Point", "coordinates": [ -1.17009, 44.87503 ] } },
{ "type": "Feature", "properties": { "lat": 44.88832, "lon": -1.11182, "frp": 29.68, "fetch_timestamp": "2026-07-25T13:33:00" }, "geometry": { "type": "Point", "coordinates": [ -1.11182, 44.88832 ] } },
{ "type": "Feature", "properties": { "lat": 44.89363, "lon": -1.12277, "frp": 13.78, "fetch_timestamp": "2026-07-25T13:33:00" }, "geometry": { "type": "Point", "coordinates": [ -1.12277, 44.89363 ] } },
{ "type": "Feature", "properties": { "lat": 44.89742, "lon": -1.00963, "frp": 71.32, "fetch_timestamp": "2026-07-25T13:33:00" }, "geometry": { "type": "Point", "coordinates": [ -1.00963, 44.89742 ] } },
{ "type": "Feature", "properties": { "lat": 44.90166, "lon": -1.05324, "frp": 9.79, "fetch_timestamp": "2026-07-25T13:33:00" }, "geometry": { "type": "Point", "coordinates": [ -1.05324, 44.90166 ] } },
{ "type": "Feature", "properties": { "lat": 44.90257, "lon": -1.0262, "frp": 30.61, "fetch_timestamp": "2026-07-25T13:33:00" }, "geometry": { "type": "Point", "coordinates": [ -1.0262, 44.90257 ] } },
{ "type": "Feature", "properties": { "lat": 44.90274, "lon": -1.0208, "frp": 30.61, "fetch_timestamp": "2026-07-25T13:33:00" }, "geometry": { "type": "Point", "coordinates": [ -1.0208, 44.90274 ] } },
{ "type": "Feature", "properties": { "lat": 44.90329, "lon": -1.00451, "frp": 41.67, "fetch_timestamp": "2026-07-25T13:33:00" }, "geometry": { "type": "Point", "coordinates": [ -1.00451, 44.90329 ] } },
{ "type": "Feature", "properties": { "lat": 44.90881, "lon": -1.01027, "frp": 46.23, "fetch_timestamp": "2026-07-25T13:33:00" }, "geometry": { "type": "Point", "coordinates": [ -1.01027, 44.90881 ] } },
{ "type": "Feature", "properties": { "lat": 44.9108, "lon": -1.11837, "frp": 30.24, "fetch_timestamp": "2026-07-25T13:33:00" }, "geometry": { "type": "Point", "coordinates": [ -1.11837, 44.9108 ] } },
{ "type": "Feature", "properties": { "lat": 44.92836, "lon": -1.10325, "frp": 16.44, "fetch_timestamp": "2026-07-25T13:33:00" }, "geometry": { "type": "Point", "coordinates": [ -1.10325, 44.92836 ] } },
{ "type": "Feature", "properties": { "lat": 44.75868, "lon": -1.05245, "frp": 3.28, "fetch_timestamp": "2026-07-25T13:33:00" }, "geometry": { "type": "Point", "coordinates": [ -1.05245, 44.75868 ] } },
{ "type": "Feature", "properties": { "lat": 44.77207, "lon": -1.17876, "frp": 2.11, "fetch_timestamp": "2026-07-25T13:33:00" }, "geometry": { "type": "Point", "coordinates": [ -1.17876, 44.77207 ] } },
{ "type": "Feature", "properties": { "lat": 44.77227, "lon": -1.15861, "frp": 3.62, "fetch_timestamp": "2026-07-25T13:33:00" }, "geometry": { "type": "Point", "coordinates": [ -1.15861, 44.77227 ] } },
{ "type": "Feature", "properties": { "lat": 44.77283, "lon": -1.18353, "frp": 1.91, "fetch_timestamp": "2026-07-25T13:33:00" }, "geometry": { "type": "Point", "coordinates": [ -1.18353, 44.77283 ] } },
{ "type": "Feature", "properties": { "lat": 44.77318, "lon": -0.97248, "frp": 2.82, "fetch_timestamp": "2026-07-25T13:33:00" }, "geometry": { "type": "Point", "coordinates": [ -0.97248, 44.77318 ] } },
{ "type": "Feature", "properties": { "lat": 44.77456, "lon": -1.17295, "frp": 2.11, "fetch_timestamp": "2026-07-25T13:33:00" }, "geometry": { "type": "Point", "coordinates": [ -1.17295, 44.77456 ] } },
{ "type": "Feature", "properties": { "lat": 44.77533, "lon": -1.17773, "frp": 2.11, "fetch_timestamp": "2026-07-25T13:33:00" }, "geometry": { "type": "Point", "coordinates": [ -1.17773, 44.77533 ] } },
{ "type": "Feature", "properties": { "lat": 44.77567, "lon": -0.96666, "frp": 2.87, "fetch_timestamp": "2026-07-25T13:33:00" }, "geometry": { "type": "Point", "coordinates": [ -0.96666, 44.77567 ] } },
{ "type": "Feature", "properties": { "lat": 44.77609, "lon": -1.18251, "frp": 1.91, "fetch_timestamp": "2026-07-25T13:33:00" }, "geometry": { "type": "Point", "coordinates": [ -1.18251, 44.77609 ] } },
{ "type": "Feature", "properties": { "lat": 44.77706, "lon": -1.16715, "frp": 3.98, "fetch_timestamp": "2026-07-25T13:33:00" }, "geometry": { "type": "Point", "coordinates": [ -1.16715, 44.77706 ] } },
{ "type": "Feature", "properties": { "lat": 44.77721, "lon": -0.97623, "frp": 2.82, "fetch_timestamp": "2026-07-25T13:33:00" }, "geometry": { "type": "Point", "coordinates": [ -0.97623, 44.77721 ] } },
{ "type": "Feature", "properties": { "lat": 44.77761, "lon": -1.19207, "frp": 1.38, "fetch_timestamp": "2026-07-25T13:33:00" }, "geometry": { "type": "Point", "coordinates": [ -1.19207, 44.77761 ] } },
{ "type": "Feature", "properties": { "lat": 44.77782, "lon": -1.17193, "frp": 1.5, "fetch_timestamp": "2026-07-25T13:33:00" }, "geometry": { "type": "Point", "coordinates": [ -1.17193, 44.77782 ] } },
{ "type": "Feature", "properties": { "lat": 44.77837, "lon": -1.19685, "frp": 1.38, "fetch_timestamp": "2026-07-25T13:33:00" }, "geometry": { "type": "Point", "coordinates": [ -1.19685, 44.77837 ] } },
{ "type": "Feature", "properties": { "lat": 44.77842, "lon": -1.1115, "frp": 8.98, "fetch_timestamp": "2026-07-25T13:33:00" }, "geometry": { "type": "Point", "coordinates": [ -1.1115, 44.77842 ] } },
{ "type": "Feature", "properties": { "lat": 44.77858, "lon": -1.17671, "frp": 1.5, "fetch_timestamp": "2026-07-25T13:33:00" }, "geometry": { "type": "Point", "coordinates": [ -1.17671, 44.77858 ] } },
{ "type": "Feature", "properties": { "lat": 44.77919, "lon": -1.11628, "frp": 8.98, "fetch_timestamp": "2026-07-25T13:33:00" }, "geometry": { "type": "Point", "coordinates": [ -1.11628, 44.77919 ] } },
{ "type": "Feature", "properties": { "lat": 44.77935, "lon": -1.18149, "frp": 2.06, "fetch_timestamp": "2026-07-25T13:33:00" }, "geometry": { "type": "Point", "coordinates": [ -1.18149, 44.77935 ] } },
{ "type": "Feature", "properties": { "lat": 44.77995, "lon": -1.12106, "frp": 14.95, "fetch_timestamp": "2026-07-25T13:33:00" }, "geometry": { "type": "Point", "coordinates": [ -1.12106, 44.77995 ] } },
{ "type": "Feature", "properties": { "lat": 44.78091, "lon": -1.10569, "frp": 3.77, "fetch_timestamp": "2026-07-25T13:33:00" }, "geometry": { "type": "Point", "coordinates": [ -1.10569, 44.78091 ] } },
{ "type": "Feature", "properties": { "lat": 44.78168, "lon": -1.11047, "frp": 4.13, "fetch_timestamp": "2026-07-25T13:33:00" }, "geometry": { "type": "Point", "coordinates": [ -1.11047, 44.78168 ] } },
{ "type": "Feature", "properties": { "lat": 44.78244, "lon": -1.11525, "frp": 4.13, "fetch_timestamp": "2026-07-25T13:33:00" }, "geometry": { "type": "Point", "coordinates": [ -1.11525, 44.78244 ] } },
{ "type": "Feature", "properties": { "lat": 44.7826, "lon": -1.18046, "frp": 2.06, "fetch_timestamp": "2026-07-25T13:33:00" }, "geometry": { "type": "Point", "coordinates": [ -1.18046, 44.7826 ] } },
{ "type": "Feature", "properties": { "lat": 44.78321, "lon": -1.12003, "frp": 5.24, "fetch_timestamp": "2026-07-25T13:33:00" }, "geometry": { "type": "Point", "coordinates": [ -1.12003, 44.78321 ] } },
{ "type": "Feature", "properties": { "lat": 44.78493, "lon": -1.10945, "frp": 4.13, "fetch_timestamp": "2026-07-25T13:33:00" }, "geometry": { "type": "Point", "coordinates": [ -1.10945, 44.78493 ] } },
{ "type": "Feature", "properties": { "lat": 44.7857, "lon": -1.11423, "frp": 4.13, "fetch_timestamp": "2026-07-25T13:33:00" }, "geometry": { "type": "Point", "coordinates": [ -1.11423, 44.7857 ] } },
{ "type": "Feature", "properties": { "lat": 44.78586, "lon": -1.17944, "frp": 2.53, "fetch_timestamp": "2026-07-25T13:33:00" }, "geometry": { "type": "Point", "coordinates": [ -1.17944, 44.78586 ] } },
{ "type": "Feature", "properties": { "lat": 44.78646, "lon": -1.11901, "frp": 5.24, "fetch_timestamp": "2026-07-25T13:33:00" }, "geometry": { "type": "Point", "coordinates": [ -1.11901, 44.78646 ] } },
{ "type": "Feature", "properties": { "lat": 44.78819, "lon": -1.10842, "frp": 3.09, "fetch_timestamp": "2026-07-25T13:33:00" }, "geometry": { "type": "Point", "coordinates": [ -1.10842, 44.78819 ] } },
{ "type": "Feature", "properties": { "lat": 44.78896, "lon": -1.1132, "frp": 3.09, "fetch_timestamp": "2026-07-25T13:33:00" }, "geometry": { "type": "Point", "coordinates": [ -1.1132, 44.78896 ] } },
{ "type": "Feature", "properties": { "lat": 44.7893, "lon": -0.98747, "frp": 2.13, "fetch_timestamp": "2026-07-25T13:33:00" }, "geometry": { "type": "Point", "coordinates": [ -0.98747, 44.7893 ] } },
{ "type": "Feature", "properties": { "lat": 44.78972, "lon": -1.11798, "frp": 2.63, "fetch_timestamp": "2026-07-25T13:33:00" }, "geometry": { "type": "Point", "coordinates": [ -1.11798, 44.78972 ] } },
{ "type": "Feature", "properties": { "lat": 44.79255, "lon": -0.98644, "frp": 2.13, "fetch_timestamp": "2026-07-25T13:33:00" }, "geometry": { "type": "Point", "coordinates": [ -0.98644, 44.79255 ] } },
{ "type": "Feature", "properties": { "lat": 44.79298, "lon": -1.11695, "frp": 2.63, "fetch_timestamp": "2026-07-25T13:33:00" }, "geometry": { "type": "Point", "coordinates": [ -1.11695, 44.79298 ] } },
{ "type": "Feature", "properties": { "lat": 44.79332, "lon": -0.99122, "frp": 2.13, "fetch_timestamp": "2026-07-25T13:33:00" }, "geometry": { "type": "Point", "coordinates": [ -0.99122, 44.79332 ] } },
{ "type": "Feature", "properties": { "lat": 44.79581, "lon": -0.9854, "frp": 2.23, "fetch_timestamp": "2026-07-25T13:33:00" }, "geometry": { "type": "Point", "coordinates": [ -0.9854, 44.79581 ] } },
{ "type": "Feature", "properties": { "lat": 44.80574, "lon": -1.21837, "frp": 1.37, "fetch_timestamp": "2026-07-25T13:33:00" }, "geometry": { "type": "Point", "coordinates": [ -1.21837, 44.80574 ] } },
{ "type": "Feature", "properties": { "lat": 44.811, "lon": -0.99324, "frp": 3.95, "fetch_timestamp": "2026-07-25T13:33:00" }, "geometry": { "type": "Point", "coordinates": [ -0.99324, 44.811 ] } },
{ "type": "Feature", "properties": { "lat": 44.81425, "lon": -0.9922, "frp": 3.95, "fetch_timestamp": "2026-07-25T13:33:00" }, "geometry": { "type": "Point", "coordinates": [ -0.9922, 44.81425 ] } },
{ "type": "Feature", "properties": { "lat": 44.81503, "lon": -0.99699, "frp": 3.95, "fetch_timestamp": "2026-07-25T13:33:00" }, "geometry": { "type": "Point", "coordinates": [ -0.99699, 44.81503 ] } },
{ "type": "Feature", "properties": { "lat": 44.83403, "lon": -1.13674, "frp": 1.25, "fetch_timestamp": "2026-07-25T13:33:00" }, "geometry": { "type": "Point", "coordinates": [ -1.13674, 44.83403 ] } },
{ "type": "Feature", "properties": { "lat": 44.84031, "lon": -0.98392, "frp": 3.02, "fetch_timestamp": "2026-07-25T13:33:00" }, "geometry": { "type": "Point", "coordinates": [ -0.98392, 44.84031 ] } },
{ "type": "Feature", "properties": { "lat": 44.84304, "lon": -1.12887, "frp": 3.91, "fetch_timestamp": "2026-07-25T13:33:00" }, "geometry": { "type": "Point", "coordinates": [ -1.12887, 44.84304 ] } },
{ "type": "Feature", "properties": { "lat": 44.84533, "lon": -1.14322, "frp": 4.57, "fetch_timestamp": "2026-07-25T13:33:00" }, "geometry": { "type": "Point", "coordinates": [ -1.14322, 44.84533 ] } },
{ "type": "Feature", "properties": { "lat": 44.84587, "lon": -0.99724, "frp": 3.86, "fetch_timestamp": "2026-07-25T13:33:00" }, "geometry": { "type": "Point", "coordinates": [ -0.99724, 44.84587 ] } },
{ "type": "Feature", "properties": { "lat": 44.84706, "lon": -1.13263, "frp": 3.45, "fetch_timestamp": "2026-07-25T13:33:00" }, "geometry": { "type": "Point", "coordinates": [ -1.13263, 44.84706 ] } },
{ "type": "Feature", "properties": { "lat": 44.84762, "lon": -1.15758, "frp": 2.55, "fetch_timestamp": "2026-07-25T13:33:00" }, "geometry": { "type": "Point", "coordinates": [ -1.15758, 44.84762 ] } },
{ "type": "Feature", "properties": { "lat": 44.84782, "lon": -1.13741, "frp": 3.45, "fetch_timestamp": "2026-07-25T13:33:00" }, "geometry": { "type": "Point", "coordinates": [ -1.13741, 44.84782 ] } },
{ "type": "Feature", "properties": { "lat": 44.84802, "lon": -1.11724, "frp": 4.86, "fetch_timestamp": "2026-07-25T13:33:00" }, "geometry": { "type": "Point", "coordinates": [ -1.11724, 44.84802 ] } },
{ "type": "Feature", "properties": { "lat": 44.84879, "lon": -1.12203, "frp": 3.64, "fetch_timestamp": "2026-07-25T13:33:00" }, "geometry": { "type": "Point", "coordinates": [ -1.12203, 44.84879 ] } },
{ "type": "Feature", "properties": { "lat": 44.84955, "lon": -1.12681, "frp": 3.64, "fetch_timestamp": "2026-07-25T13:33:00" }, "geometry": { "type": "Point", "coordinates": [ -1.12681, 44.84955 ] } },
{ "type": "Feature", "properties": { "lat": 44.85011, "lon": -1.15177, "frp": 1.76, "fetch_timestamp": "2026-07-25T13:33:00" }, "geometry": { "type": "Point", "coordinates": [ -1.15177, 44.85011 ] } },
{ "type": "Feature", "properties": { "lat": 44.85032, "lon": -1.1316, "frp": 3.45, "fetch_timestamp": "2026-07-25T13:33:00" }, "geometry": { "type": "Point", "coordinates": [ -1.1316, 44.85032 ] } },
{ "type": "Feature", "properties": { "lat": 44.85088, "lon": -1.15655, "frp": 1.76, "fetch_timestamp": "2026-07-25T13:33:00" }, "geometry": { "type": "Point", "coordinates": [ -1.15655, 44.85088 ] } },
{ "type": "Feature", "properties": { "lat": 44.85128, "lon": -1.11622, "frp": 2.63, "fetch_timestamp": "2026-07-25T13:33:00" }, "geometry": { "type": "Point", "coordinates": [ -1.11622, 44.85128 ] } },
{ "type": "Feature", "properties": { "lat": 44.85184, "lon": -1.14117, "frp": 4.8, "fetch_timestamp": "2026-07-25T13:33:00" }, "geometry": { "type": "Point", "coordinates": [ -1.14117, 44.85184 ] } },
{ "type": "Feature", "properties": { "lat": 44.85204, "lon": -1.121, "frp": 3.24, "fetch_timestamp": "2026-07-25T13:33:00" }, "geometry": { "type": "Point", "coordinates": [ -1.121, 44.85204 ] } },
{ "type": "Feature", "properties": { "lat": 44.8526, "lon": -1.14595, "frp": 4.8, "fetch_timestamp": "2026-07-25T13:33:00" }, "geometry": { "type": "Point", "coordinates": [ -1.14595, 44.8526 ] } },
{ "type": "Feature", "properties": { "lat": 44.85273, "lon": -0.95479, "frp": 2.02, "fetch_timestamp": "2026-07-25T13:33:00" }, "geometry": { "type": "Point", "coordinates": [ -0.95479, 44.85273 ] } },
{ "type": "Feature", "properties": { "lat": 44.85281, "lon": -1.12579, "frp": 3.24, "fetch_timestamp": "2026-07-25T13:33:00" }, "geometry": { "type": "Point", "coordinates": [ -1.12579, 44.85281 ] } },
{ "type": "Feature", "properties": { "lat": 44.8535, "lon": -0.95958, "frp": 2.04, "fetch_timestamp": "2026-07-25T13:33:00" }, "geometry": { "type": "Point", "coordinates": [ -0.95958, 44.8535 ] } },
{ "type": "Feature", "properties": { "lat": 44.85357, "lon": -1.13057, "frp": 2.21, "fetch_timestamp": "2026-07-25T13:33:00" }, "geometry": { "type": "Point", "coordinates": [ -1.13057, 44.85357 ] } },
{ "type": "Feature", "properties": { "lat": 44.85453, "lon": -1.11519, "frp": 2.63, "fetch_timestamp": "2026-07-25T13:33:00" }, "geometry": { "type": "Point", "coordinates": [ -1.11519, 44.85453 ] } },
{ "type": "Feature", "properties": { "lat": 44.8553, "lon": -1.11997, "frp": 3.24, "fetch_timestamp": "2026-07-25T13:33:00" }, "geometry": { "type": "Point", "coordinates": [ -1.11997, 44.8553 ] } },
{ "type": "Feature", "properties": { "lat": 44.85606, "lon": -1.12476, "frp": 3.24, "fetch_timestamp": "2026-07-25T13:33:00" }, "geometry": { "type": "Point", "coordinates": [ -1.12476, 44.85606 ] } },
{ "type": "Feature", "properties": { "lat": 44.85683, "lon": -1.12954, "frp": 2.21, "fetch_timestamp": "2026-07-25T13:33:00" }, "geometry": { "type": "Point", "coordinates": [ -1.12954, 44.85683 ] } },
{ "type": "Feature", "properties": { "lat": 44.85703, "lon": -1.10937, "frp": 5.05, "fetch_timestamp": "2026-07-25T13:33:00" }, "geometry": { "type": "Point", "coordinates": [ -1.10937, 44.85703 ] } },
{ "type": "Feature", "properties": { "lat": 44.85779, "lon": -1.11416, "frp": 5.05, "fetch_timestamp": "2026-07-25T13:33:00" }, "geometry": { "type": "Point", "coordinates": [ -1.11416, 44.85779 ] } },
{ "type": "Feature", "properties": { "lat": 44.85855, "lon": -1.11894, "frp": 5.31, "fetch_timestamp": "2026-07-25T13:33:00" }, "geometry": { "type": "Point", "coordinates": [ -1.11894, 44.85855 ] } },
{ "type": "Feature", "properties": { "lat": 44.85932, "lon": -1.12373, "frp": 5.31, "fetch_timestamp": "2026-07-25T13:33:00" }, "geometry": { "type": "Point", "coordinates": [ -1.12373, 44.85932 ] } },
{ "type": "Feature", "properties": { "lat": 44.86105, "lon": -1.11313, "frp": 5.05, "fetch_timestamp": "2026-07-25T13:33:00" }, "geometry": { "type": "Point", "coordinates": [ -1.11313, 44.86105 ] } },
{ "type": "Feature", "properties": { "lat": 44.86181, "lon": -1.11792, "frp": 5.31, "fetch_timestamp": "2026-07-25T13:33:00" }, "geometry": { "type": "Point", "coordinates": [ -1.11792, 44.86181 ] } },
{ "type": "Feature", "properties": { "lat": 44.86258, "lon": -1.1227, "frp": 5.31, "fetch_timestamp": "2026-07-25T13:33:00" }, "geometry": { "type": "Point", "coordinates": [ -1.1227, 44.86258 ] } },
{ "type": "Feature", "properties": { "lat": 44.86277, "lon": -1.10253, "frp": 6.25, "fetch_timestamp": "2026-07-25T13:33:00" }, "geometry": { "type": "Point", "coordinates": [ -1.10253, 44.86277 ] } },
{ "type": "Feature", "properties": { "lat": 44.86334, "lon": -1.12749, "frp": 6.15, "fetch_timestamp": "2026-07-25T13:33:00" }, "geometry": { "type": "Point", "coordinates": [ -1.12749, 44.86334 ] } },
{ "type": "Feature", "properties": { "lat": 44.86354, "lon": -1.10731, "frp": 4.95, "fetch_timestamp": "2026-07-25T13:33:00" }, "geometry": { "type": "Point", "coordinates": [ -1.10731, 44.86354 ] } },
{ "type": "Feature", "properties": { "lat": 44.8643, "lon": -1.1121, "frp": 4.95, "fetch_timestamp": "2026-07-25T13:33:00" }, "geometry": { "type": "Point", "coordinates": [ -1.1121, 44.8643 ] } },
{ "type": "Feature", "properties": { "lat": 44.86507, "lon": -1.11689, "frp": 3.57, "fetch_timestamp": "2026-07-25T13:33:00" }, "geometry": { "type": "Point", "coordinates": [ -1.11689, 44.86507 ] } },
{ "type": "Feature", "properties": { "lat": 44.86583, "lon": -1.12167, "frp": 3.57, "fetch_timestamp": "2026-07-25T13:33:00" }, "geometry": { "type": "Point", "coordinates": [ -1.12167, 44.86583 ] } },
{ "type": "Feature", "properties": { "lat": 44.86603, "lon": -1.1015, "frp": 6.25, "fetch_timestamp": "2026-07-25T13:33:00" }, "geometry": { "type": "Point", "coordinates": [ -1.1015, 44.86603 ] } },
{ "type": "Feature", "properties": { "lat": 44.8666, "lon": -1.12646, "frp": 3.75, "fetch_timestamp": "2026-07-25T13:33:00" }, "geometry": { "type": "Point", "coordinates": [ -1.12646, 44.8666 ] } },
{ "type": "Feature", "properties": { "lat": 44.86679, "lon": -1.10629, "frp": 4.95, "fetch_timestamp": "2026-07-25T13:33:00" }, "geometry": { "type": "Point", "coordinates": [ -1.10629, 44.86679 ] } },
{ "type": "Feature", "properties": { "lat": 44.86756, "lon": -1.11107, "frp": 4.95, "fetch_timestamp": "2026-07-25T13:33:00" }, "geometry": { "type": "Point", "coordinates": [ -1.11107, 44.86756 ] } },
{ "type": "Feature", "properties": { "lat": 44.86832, "lon": -1.11586, "frp": 3.57, "fetch_timestamp": "2026-07-25T13:33:00" }, "geometry": { "type": "Point", "coordinates": [ -1.11586, 44.86832 ] } },
{ "type": "Feature", "properties": { "lat": 44.86909, "lon": -1.12064, "frp": 3.57, "fetch_timestamp": "2026-07-25T13:33:00" }, "geometry": { "type": "Point", "coordinates": [ -1.12064, 44.86909 ] } },
{ "type": "Feature", "properties": { "lat": 44.86929, "lon": -1.10047, "frp": 4.1, "fetch_timestamp": "2026-07-25T13:33:00" }, "geometry": { "type": "Point", "coordinates": [ -1.10047, 44.86929 ] } },
{ "type": "Feature", "properties": { "lat": 44.87005, "lon": -1.10526, "frp": 7.11, "fetch_timestamp": "2026-07-25T13:33:00" }, "geometry": { "type": "Point", "coordinates": [ -1.10526, 44.87005 ] } },
{ "type": "Feature", "properties": { "lat": 44.87082, "lon": -1.11004, "frp": 7.11, "fetch_timestamp": "2026-07-25T13:33:00" }, "geometry": { "type": "Point", "coordinates": [ -1.11004, 44.87082 ] } },
{ "type": "Feature", "properties": { "lat": 44.87158, "lon": -1.11483, "frp": 4.31, "fetch_timestamp": "2026-07-25T13:33:00" }, "geometry": { "type": "Point", "coordinates": [ -1.11483, 44.87158 ] } },
{ "type": "Feature", "properties": { "lat": 44.87234, "lon": -1.11962, "frp": 4.31, "fetch_timestamp": "2026-07-25T13:33:00" }, "geometry": { "type": "Point", "coordinates": [ -1.11962, 44.87234 ] } },
{ "type": "Feature", "properties": { "lat": 44.87254, "lon": -1.09944, "frp": 4.1, "fetch_timestamp": "2026-07-25T13:33:00" }, "geometry": { "type": "Point", "coordinates": [ -1.09944, 44.87254 ] } },
{ "type": "Feature", "properties": { "lat": 44.87331, "lon": -1.10423, "frp": 7.11, "fetch_timestamp": "2026-07-25T13:33:00" }, "geometry": { "type": "Point", "coordinates": [ -1.10423, 44.87331 ] } },
{ "type": "Feature", "properties": { "lat": 44.87407, "lon": -1.10901, "frp": 7.11, "fetch_timestamp": "2026-07-25T13:33:00" }, "geometry": { "type": "Point", "coordinates": [ -1.10901, 44.87407 ] } },
{ "type": "Feature", "properties": { "lat": 44.87809, "lon": -1.11277, "frp": 2.77, "fetch_timestamp": "2026-07-25T13:33:00" }, "geometry": { "type": "Point", "coordinates": [ -1.11277, 44.87809 ] } },
{ "type": "Feature", "properties": { "lat": 44.87906, "lon": -1.09738, "frp": 4.51, "fetch_timestamp": "2026-07-25T13:33:00" }, "geometry": { "type": "Point", "coordinates": [ -1.09738, 44.87906 ] } },
{ "type": "Feature", "properties": { "lat": 44.87922, "lon": -1.1627, "frp": 4.28, "fetch_timestamp": "2026-07-25T13:33:00" }, "geometry": { "type": "Point", "coordinates": [ -1.1627, 44.87922 ] } },
{ "type": "Feature", "properties": { "lat": 44.87999, "lon": -1.16749, "frp": 4.28, "fetch_timestamp": "2026-07-25T13:33:00" }, "geometry": { "type": "Point", "coordinates": [ -1.16749, 44.87999 ] } },
{ "type": "Feature", "properties": { "lat": 44.88172, "lon": -1.15688, "frp": 4.01, "fetch_timestamp": "2026-07-25T13:33:00" }, "geometry": { "type": "Point", "coordinates": [ -1.15688, 44.88172 ] } },
{ "type": "Feature", "properties": { "lat": 44.88211, "lon": -1.11653, "frp": 2.77, "fetch_timestamp": "2026-07-25T13:33:00" }, "geometry": { "type": "Point", "coordinates": [ -1.11653, 44.88211 ] } },
{ "type": "Feature", "properties": { "lat": 44.88248, "lon": -1.16167, "frp": 4.28, "fetch_timestamp": "2026-07-25T13:33:00" }, "geometry": { "type": "Point", "coordinates": [ -1.16167, 44.88248 ] } },
{ "type": "Feature", "properties": { "lat": 44.88384, "lon": -1.10592, "frp": 4.73, "fetch_timestamp": "2026-07-25T13:33:00" }, "geometry": { "type": "Point", "coordinates": [ -1.10592, 44.88384 ] } },
{ "type": "Feature", "properties": { "lat": 44.88418, "lon": -0.98002, "frp": 4.18, "fetch_timestamp": "2026-07-25T13:33:00" }, "geometry": { "type": "Point", "coordinates": [ -0.98002, 44.88418 ] } },
{ "type": "Feature", "properties": { "lat": 44.88421, "lon": -1.15107, "frp": 1.84, "fetch_timestamp": "2026-07-25T13:33:00" }, "geometry": { "type": "Point", "coordinates": [ -1.15107, 44.88421 ] } },
{ "type": "Feature", "properties": { "lat": 44.88461, "lon": -1.11071, "frp": 4.26, "fetch_timestamp": "2026-07-25T13:33:00" }, "geometry": { "type": "Point", "coordinates": [ -1.11071, 44.88461 ] } },
{ "type": "Feature", "properties": { "lat": 44.88495, "lon": -0.98481, "frp": 4.18, "fetch_timestamp": "2026-07-25T13:33:00" }, "geometry": { "type": "Point", "coordinates": [ -0.98481, 44.88495 ] } },
{ "type": "Feature", "properties": { "lat": 44.88537, "lon": -1.1155, "frp": 4.26, "fetch_timestamp": "2026-07-25T13:33:00" }, "geometry": { "type": "Point", "coordinates": [ -1.1155, 44.88537 ] } },
{ "type": "Feature", "properties": { "lat": 44.88633, "lon": -1.10011, "frp": 4.73, "fetch_timestamp": "2026-07-25T13:33:00" }, "geometry": { "type": "Point", "coordinates": [ -1.10011, 44.88633 ] } },
{ "type": "Feature", "properties": { "lat": 44.8871, "lon": -1.10489, "frp": 4.73, "fetch_timestamp": "2026-07-25T13:33:00" }, "geometry": { "type": "Point", "coordinates": [ -1.10489, 44.8871 ] } },
{ "type": "Feature", "properties": { "lat": 44.88786, "lon": -1.10968, "frp": 4.26, "fetch_timestamp": "2026-07-25T13:33:00" }, "geometry": { "type": "Point", "coordinates": [ -1.10968, 44.88786 ] } },
{ "type": "Feature", "properties": { "lat": 44.88863, "lon": -1.11447, "frp": 4.26, "fetch_timestamp": "2026-07-25T13:33:00" }, "geometry": { "type": "Point", "coordinates": [ -1.11447, 44.88863 ] } },
{ "type": "Feature", "properties": { "lat": 44.88882, "lon": -1.09429, "frp": 5.59, "fetch_timestamp": "2026-07-25T13:33:00" }, "geometry": { "type": "Point", "coordinates": [ -1.09429, 44.88882 ] } },
{ "type": "Feature", "properties": { "lat": 44.88898, "lon": -0.98856, "frp": 4.45, "fetch_timestamp": "2026-07-25T13:33:00" }, "geometry": { "type": "Point", "coordinates": [ -0.98856, 44.88898 ] } },
{ "type": "Feature", "properties": { "lat": 44.88959, "lon": -1.09908, "frp": 5.12, "fetch_timestamp": "2026-07-25T13:33:00" }, "geometry": { "type": "Point", "coordinates": [ -1.09908, 44.88959 ] } },
{ "type": "Feature", "properties": { "lat": 44.88974, "lon": -0.99335, "frp": 4.45, "fetch_timestamp": "2026-07-25T13:33:00" }, "geometry": { "type": "Point", "coordinates": [ -0.99335, 44.88974 ] } },
{ "type": "Feature", "properties": { "lat": 44.89112, "lon": -1.10865, "frp": 4.47, "fetch_timestamp": "2026-07-25T13:33:00" }, "geometry": { "type": "Point", "coordinates": [ -1.10865, 44.89112 ] } },
{ "type": "Feature", "properties": { "lat": 44.89189, "lon": -1.11344, "frp": 4.47, "fetch_timestamp": "2026-07-25T13:33:00" }, "geometry": { "type": "Point", "coordinates": [ -1.11344, 44.89189 ] } },
{ "type": "Feature", "properties": { "lat": 44.89208, "lon": -1.09326, "frp": 5.59, "fetch_timestamp": "2026-07-25T13:33:00" }, "geometry": { "type": "Point", "coordinates": [ -1.09326, 44.89208 ] } },
{ "type": "Feature", "properties": { "lat": 44.89361, "lon": -1.10283, "frp": 5.12, "fetch_timestamp": "2026-07-25T13:33:00" }, "geometry": { "type": "Point", "coordinates": [ -1.10283, 44.89361 ] } },
{ "type": "Feature", "properties": { "lat": 44.89437, "lon": -1.10762, "frp": 4.47, "fetch_timestamp": "2026-07-25T13:33:00" }, "geometry": { "type": "Point", "coordinates": [ -1.10762, 44.89437 ] } },
{ "type": "Feature", "properties": { "lat": 44.89534, "lon": -1.09223, "frp": 7.27, "fetch_timestamp": "2026-07-25T13:33:00" }, "geometry": { "type": "Point", "coordinates": [ -1.09223, 44.89534 ] } },
{ "type": "Feature", "properties": { "lat": 44.89687, "lon": -1.1018, "frp": 4.6, "fetch_timestamp": "2026-07-25T13:33:00" }, "geometry": { "type": "Point", "coordinates": [ -1.1018, 44.89687 ] } },
{ "type": "Feature", "properties": { "lat": 44.89763, "lon": -1.10659, "frp": 6.21, "fetch_timestamp": "2026-07-25T13:33:00" }, "geometry": { "type": "Point", "coordinates": [ -1.10659, 44.89763 ] } },
{ "type": "Feature", "properties": { "lat": 44.89936, "lon": -1.09598, "frp": 4.6, "fetch_timestamp": "2026-07-25T13:33:00" }, "geometry": { "type": "Point", "coordinates": [ -1.09598, 44.89936 ] } },
{ "type": "Feature", "properties": { "lat": 44.90012, "lon": -1.10077, "frp": 4.6, "fetch_timestamp": "2026-07-25T13:33:00" }, "geometry": { "type": "Point", "coordinates": [ -1.10077, 44.90012 ] } },
{ "type": "Feature", "properties": { "lat": 44.90108, "lon": -1.08538, "frp": 4.61, "fetch_timestamp": "2026-07-25T13:33:00" }, "geometry": { "type": "Point", "coordinates": [ -1.08538, 44.90108 ] } },
{ "type": "Feature", "properties": { "lat": 44.90185, "lon": -1.09016, "frp": 4.61, "fetch_timestamp": "2026-07-25T13:33:00" }, "geometry": { "type": "Point", "coordinates": [ -1.09016, 44.90185 ] } },
{ "type": "Feature", "properties": { "lat": 44.90338, "lon": -1.09974, "frp": 6.45, "fetch_timestamp": "2026-07-25T13:33:00" }, "geometry": { "type": "Point", "coordinates": [ -1.09974, 44.90338 ] } },
{ "type": "Feature", "properties": { "lat": 44.90644, "lon": -1.1189, "frp": 5.32, "fetch_timestamp": "2026-07-25T13:33:00" }, "geometry": { "type": "Point", "coordinates": [ -1.1189, 44.90644 ] } },
{ "type": "Feature", "properties": { "lat": 44.90664, "lon": -1.09871, "frp": 6.45, "fetch_timestamp": "2026-07-25T13:33:00" }, "geometry": { "type": "Point", "coordinates": [ -1.09871, 44.90664 ] } },
{ "type": "Feature", "properties": { "lat": 44.9072, "lon": -1.12369, "frp": 2.24, "fetch_timestamp": "2026-07-25T13:33:00" }, "geometry": { "type": "Point", "coordinates": [ -1.12369, 44.9072 ] } },
{ "type": "Feature", "properties": { "lat": 44.90989, "lon": -1.09768, "frp": 6.16, "fetch_timestamp": "2026-07-25T13:33:00" }, "geometry": { "type": "Point", "coordinates": [ -1.09768, 44.90989 ] } },
{ "type": "Feature", "properties": { "lat": 44.91372, "lon": -1.12163, "frp": 3.99, "fetch_timestamp": "2026-07-25T13:33:00" }, "geometry": { "type": "Point", "coordinates": [ -1.12163, 44.91372 ] } },
{ "type": "Feature", "properties": { "lat": 44.91755, "lon": -1.06002, "frp": 4.36, "fetch_timestamp": "2026-07-25T13:33:00" }, "geometry": { "type": "Point", "coordinates": [ -1.06002, 44.91755 ] } },
{ "type": "Feature", "properties": { "lat": 44.92158, "lon": -1.06378, "frp": 4.36, "fetch_timestamp": "2026-07-25T13:33:00" }, "geometry": { "type": "Point", "coordinates": [ -1.06378, 44.92158 ] } },
{ "type": "Feature", "properties": { "lat": 44.92234, "lon": -1.06857, "frp": 8.21, "fetch_timestamp": "2026-07-25T13:33:00" }, "geometry": { "type": "Point", "coordinates": [ -1.06857, 44.92234 ] } },
{ "type": "Feature", "properties": { "lat": 44.92537, "lon": -1.06563, "frp": 3.51, "fetch_timestamp": "2026-07-25T13:33:00" }, "geometry": { "type": "Point", "coordinates": [ -1.06563, 44.92537 ] } },
{ "type": "Feature", "properties": { "lat": 44.92613, "lon": -1.07042, "frp": 3.29, "fetch_timestamp": "2026-07-25T13:33:00" }, "geometry": { "type": "Point", "coordinates": [ -1.07042, 44.92613 ] } },
{ "type": "Feature", "properties": { "lat": 44.9269, "lon": -1.07521, "frp": 3.29, "fetch_timestamp": "2026-07-25T13:33:00" }, "geometry": { "type": "Point", "coordinates": [ -1.07521, 44.9269 ] } },
{ "type": "Feature", "properties": { "lat": 44.92694, "lon": -1.09732, "frp": 4.07, "fetch_timestamp": "2026-07-25T13:33:00" }, "geometry": { "type": "Point", "coordinates": [ -1.09732, 44.92694 ] } },
{ "type": "Feature", "properties": { "lat": 44.92767, "lon": -1.08, "frp": 4.74, "fetch_timestamp": "2026-07-25T13:33:00" }, "geometry": { "type": "Point", "coordinates": [ -1.08, 44.92767 ] } },
{ "type": "Feature", "properties": { "lat": 44.9277, "lon": -1.10211, "frp": 4.07, "fetch_timestamp": "2026-07-25T13:33:00" }, "geometry": { "type": "Point", "coordinates": [ -1.10211, 44.9277 ] } },
{ "type": "Feature", "properties": { "lat": 44.92844, "lon": -1.08479, "frp": 4.74, "fetch_timestamp": "2026-07-25T13:33:00" }, "geometry": { "type": "Point", "coordinates": [ -1.08479, 44.92844 ] } },
{ "type": "Feature", "properties": { "lat": 44.9292, "lon": -1.08959, "frp": 11.43, "fetch_timestamp": "2026-07-25T13:33:00" }, "geometry": { "type": "Point", "coordinates": [ -1.08959, 44.9292 ] } },
{ "type": "Feature", "properties": { "lat": 44.92997, "lon": -1.09438, "frp": 11.43, "fetch_timestamp": "2026-07-25T13:33:00" }, "geometry": { "type": "Point", "coordinates": [ -1.09438, 44.92997 ] } },
{ "type": "Feature", "properties": { "lat": 44.93016, "lon": -1.07418, "frp": 3.29, "fetch_timestamp": "2026-07-25T13:33:00" }, "geometry": { "type": "Point", "coordinates": [ -1.07418, 44.93016 ] } },
{ "type": "Feature", "properties": { "lat": 44.93073, "lon": -1.09917, "frp": 5.15, "fetch_timestamp": "2026-07-25T13:33:00" }, "geometry": { "type": "Point", "coordinates": [ -1.09917, 44.93073 ] } },
{ "type": "Feature", "properties": { "lat": 44.93092, "lon": -1.07897, "frp": 4.74, "fetch_timestamp": "2026-07-25T13:33:00" }, "geometry": { "type": "Point", "coordinates": [ -1.07897, 44.93092 ] } },
{ "type": "Feature", "properties": { "lat": 44.93322, "lon": -1.09335, "frp": 11.43, "fetch_timestamp": "2026-07-25T13:33:00" }, "geometry": { "type": "Point", "coordinates": [ -1.09335, 44.93322 ] } },
{ "type": "Feature", "properties": { "lat": 44.93399, "lon": -1.09814, "frp": 5.15, "fetch_timestamp": "2026-07-25T13:33:00" }, "geometry": { "type": "Point", "coordinates": [ -1.09814, 44.93399 ] } },
{ "type": "Feature", "properties": { "lat": 44.93418, "lon": -1.07794, "frp": 1.82, "fetch_timestamp": "2026-07-25T13:33:00" }, "geometry": { "type": "Point", "coordinates": [ -1.07794, 44.93418 ] } },
{ "type": "Feature", "properties": { "lat": 44.93495, "lon": -1.08273, "frp": 1.82, "fetch_timestamp": "2026-07-25T13:33:00" }, "geometry": { "type": "Point", "coordinates": [ -1.08273, 44.93495 ] } },
{ "type": "Feature", "properties": { "lat": 44.93571, "lon": -1.08752, "frp": 9.73, "fetch_timestamp": "2026-07-25T13:33:00" }, "geometry": { "type": "Point", "coordinates": [ -1.08752, 44.93571 ] } },
{ "type": "Feature", "properties": { "lat": 44.93648, "lon": -1.09232, "frp": 9.73, "fetch_timestamp": "2026-07-25T13:33:00" }, "geometry": { "type": "Point", "coordinates": [ -1.09232, 44.93648 ] } },
{ "type": "Feature", "properties": { "lat": 44.9382, "lon": -1.0817, "frp": 1.82, "fetch_timestamp": "2026-07-25T13:33:00" }, "geometry": { "type": "Point", "coordinates": [ -1.0817, 44.9382 ] } },
{ "type": "Feature", "properties": { "lat": 44.93897, "lon": -1.08649, "frp": 9.73, "fetch_timestamp": "2026-07-25T13:33:00" }, "geometry": { "type": "Point", "coordinates": [ -1.08649, 44.93897 ] } },
{ "type": "Feature", "properties": { "lat": 44.94146, "lon": -1.08067, "frp": 2.78, "fetch_timestamp": "2026-07-25T13:33:00" }, "geometry": { "type": "Point", "coordinates": [ -1.08067, 44.94146 ] } },
{ "type": "Feature", "properties": { "lat": 44.94223, "lon": -1.08546, "frp": 4.75, "fetch_timestamp": "2026-07-25T13:33:00" }, "geometry": { "type": "Point", "coordinates": [ -1.08546, 44.94223 ] } },
{ "type": "Feature", "properties": { "lat": 44.7757, "lon": -1.20657, "frp": 4.94, "fetch_timestamp": "2026-07-25T13:33:00" }, "geometry": { "type": "Point", "coordinates": [ -1.20657, 44.7757 ] } },
{ "type": "Feature", "properties": { "lat": 44.77876, "lon": -1.21231, "frp": 7.09, "fetch_timestamp": "2026-07-25T13:33:00" }, "geometry": { "type": "Point", "coordinates": [ -1.21231, 44.77876 ] } },
{ "type": "Feature", "properties": { "lat": 44.93284, "lon": -1.09166, "frp": 9.0, "fetch_timestamp": "2026-07-25T13:33:00" }, "geometry": { "type": "Point", "coordinates": [ -1.09166, 44.93284 ] } },
{ "type": "Feature", "properties": { "lat": 44.93469, "lon": -1.08575, "frp": 10.67, "fetch_timestamp": "2026-07-25T13:33:00" }, "geometry": { "type": "Point", "coordinates": [ -1.08575, 44.93469 ] } },
{ "type": "Feature", "properties": { "lat": 44.93647, "lon": -1.08835, "frp": 8.62, "fetch_timestamp": "2026-07-25T13:33:00" }, "geometry": { "type": "Point", "coordinates": [ -1.08835, 44.93647 ] } },
{ "type": "Feature", "properties": { "lat": 44.93655, "lon": -1.04634, "frp": 14.01, "fetch_timestamp": "2026-07-25T13:33:00" }, "geometry": { "type": "Point", "coordinates": [ -1.04634, 44.93655 ] } },
{ "type": "Feature", "properties": { "lat": 44.94016, "lon": -1.04705, "frp": 6.16, "fetch_timestamp": "2026-07-25T13:33:00" }, "geometry": { "type": "Point", "coordinates": [ -1.04705, 44.94016 ] } },
{ "type": "Feature", "properties": { "lat": 44.94025, "lon": -1.08926, "frp": 4.96, "fetch_timestamp": "2026-07-25T13:33:00" }, "geometry": { "type": "Point", "coordinates": [ -1.08926, 44.94025 ] } },
{ "type": "Feature", "properties": { "lat": 44.94387, "lon": -1.05643, "frp": 12.39, "fetch_timestamp": "2026-07-25T13:33:00" }, "geometry": { "type": "Point", "coordinates": [ -1.05643, 44.94387 ] } },
{ "type": "Feature", "properties": { "lat": 44.94571, "lon": -1.05059, "frp": 6.16, "fetch_timestamp": "2026-07-25T13:33:00" }, "geometry": { "type": "Point", "coordinates": [ -1.05059, 44.94571 ] } },
{ "type": "Feature", "properties": { "lat": 44.94579, "lon": -1.05916, "frp": 8.53, "fetch_timestamp": "2026-07-25T13:33:00" }, "geometry": { "type": "Point", "coordinates": [ -1.05916, 44.94579 ] } },
{ "type": "Feature", "properties": { "lat": 44.94754, "lon": -1.04472, "frp": 6.16, "fetch_timestamp": "2026-07-25T13:33:00" }, "geometry": { "type": "Point", "coordinates": [ -1.04472, 44.94754 ] } },
{ "type": "Feature", "properties": { "lat": 44.94951, "lon": -1.04749, "frp": 6.58, "fetch_timestamp": "2026-07-25T13:33:00" }, "geometry": { "type": "Point", "coordinates": [ -1.04749, 44.94951 ] } },
{ "type": "Feature", "properties": { "lat": 44.76537, "lon": -1.0317, "frp": 12.37, "fetch_timestamp": "2026-07-25T13:33:00" }, "geometry": { "type": "Point", "coordinates": [ -1.0317, 44.76537 ] } },
{ "type": "Feature", "properties": { "lat": 44.77013, "lon": -0.96944, "frp": 34.67, "fetch_timestamp": "2026-07-25T13:33:00" }, "geometry": { "type": "Point", "coordinates": [ -0.96944, 44.77013 ] } },
{ "type": "Feature", "properties": { "lat": 44.77302, "lon": -1.10778, "frp": 13.36, "fetch_timestamp": "2026-07-25T13:33:00" }, "geometry": { "type": "Point", "coordinates": [ -1.10778, 44.77302 ] } },
{ "type": "Feature", "properties": { "lat": 44.77654, "lon": -0.94494, "frp": 15.38, "fetch_timestamp": "2026-07-25T13:33:00" }, "geometry": { "type": "Point", "coordinates": [ -0.94494, 44.77654 ] } },
{ "type": "Feature", "properties": { "lat": 44.78008, "lon": -0.95813, "frp": 28.47, "fetch_timestamp": "2026-07-25T13:33:00" }, "geometry": { "type": "Point", "coordinates": [ -0.95813, 44.78008 ] } },
{ "type": "Feature", "properties": { "lat": 44.78167, "lon": -0.96027, "frp": 22.77, "fetch_timestamp": "2026-07-25T13:33:00" }, "geometry": { "type": "Point", "coordinates": [ -0.96027, 44.78167 ] } },
{ "type": "Feature", "properties": { "lat": 44.80277, "lon": -0.98224, "frp": 12.38, "fetch_timestamp": "2026-07-25T13:33:00" }, "geometry": { "type": "Point", "coordinates": [ -0.98224, 44.80277 ] } },
{ "type": "Feature", "properties": { "lat": 44.80353, "lon": -1.09548, "frp": 6.54, "fetch_timestamp": "2026-07-25T13:33:00" }, "geometry": { "type": "Point", "coordinates": [ -1.09548, 44.80353 ] } },
{ "type": "Feature", "properties": { "lat": 44.82753, "lon": -0.95397, "frp": 20.74, "fetch_timestamp": "2026-07-25T13:33:00" }, "geometry": { "type": "Point", "coordinates": [ -0.95397, 44.82753 ] } },
{ "type": "Feature", "properties": { "lat": 44.84241, "lon": -0.93697, "frp": 12.83, "fetch_timestamp": "2026-07-25T13:33:00" }, "geometry": { "type": "Point", "coordinates": [ -0.93697, 44.84241 ] } },
{ "type": "Feature", "properties": { "lat": 44.8458, "lon": -1.13272, "frp": 7.62, "fetch_timestamp": "2026-07-25T13:33:00" }, "geometry": { "type": "Point", "coordinates": [ -1.13272, 44.8458 ] } },
{ "type": "Feature", "properties": { "lat": 44.84978, "lon": -1.13953, "frp": 30.08, "fetch_timestamp": "2026-07-25T13:33:00" }, "geometry": { "type": "Point", "coordinates": [ -1.13953, 44.84978 ] } },
{ "type": "Feature", "properties": { "lat": 44.8498, "lon": -1.02049, "frp": 11.3, "fetch_timestamp": "2026-07-25T13:33:00" }, "geometry": { "type": "Point", "coordinates": [ -1.02049, 44.8498 ] } },
{ "type": "Feature", "properties": { "lat": 44.86183, "lon": -0.92049, "frp": 4.1, "fetch_timestamp": "2026-07-25T13:33:00" }, "geometry": { "type": "Point", "coordinates": [ -0.92049, 44.86183 ] } },
{ "type": "Feature", "properties": { "lat": 44.8644, "lon": -1.10042, "frp": 7.78, "fetch_timestamp": "2026-07-25T13:33:00" }, "geometry": { "type": "Point", "coordinates": [ -1.10042, 44.8644 ] } },
{ "type": "Feature", "properties": { "lat": 44.86519, "lon": -1.17302, "frp": 6.99, "fetch_timestamp": "2026-07-25T13:33:00" }, "geometry": { "type": "Point", "coordinates": [ -1.17302, 44.86519 ] } },
{ "type": "Feature", "properties": { "lat": 44.86752, "lon": -0.9659, "frp": 3.72, "fetch_timestamp": "2026-07-25T13:33:00" }, "geometry": { "type": "Point", "coordinates": [ -0.9659, 44.86752 ] } },
{ "type": "Feature", "properties": { "lat": 44.86841, "lon": -1.1698, "frp": 5.26, "fetch_timestamp": "2026-07-25T13:33:00" }, "geometry": { "type": "Point", "coordinates": [ -1.1698, 44.86841 ] } },
{ "type": "Feature", "properties": { "lat": 44.86964, "lon": -1.17362, "frp": 7.77, "fetch_timestamp": "2026-07-25T13:33:00" }, "geometry": { "type": "Point", "coordinates": [ -1.17362, 44.86964 ] } },
{ "type": "Feature", "properties": { "lat": 44.87603, "lon": -0.97342, "frp": 11.29, "fetch_timestamp": "2026-07-25T13:33:00" }, "geometry": { "type": "Point", "coordinates": [ -0.97342, 44.87603 ] } },
{ "type": "Feature", "properties": { "lat": 44.87774, "lon": -0.9761, "frp": 10.45, "fetch_timestamp": "2026-07-25T13:33:00" }, "geometry": { "type": "Point", "coordinates": [ -0.9761, 44.87774 ] } },
{ "type": "Feature", "properties": { "lat": 44.87819, "lon": -0.96981, "frp": 14.8, "fetch_timestamp": "2026-07-25T13:33:00" }, "geometry": { "type": "Point", "coordinates": [ -0.96981, 44.87819 ] } },
{ "type": "Feature", "properties": { "lat": 44.88052, "lon": -0.97405, "frp": 11.29, "fetch_timestamp": "2026-07-25T13:33:00" }, "geometry": { "type": "Point", "coordinates": [ -0.97405, 44.88052 ] } },
{ "type": "Feature", "properties": { "lat": 44.88759, "lon": -1.00035, "frp": 4.96, "fetch_timestamp": "2026-07-25T13:33:00" }, "geometry": { "type": "Point", "coordinates": [ -1.00035, 44.88759 ] } },
{ "type": "Feature", "properties": { "lat": 44.89074, "lon": -1.11039, "frp": 7.11, "fetch_timestamp": "2026-07-25T13:33:00" }, "geometry": { "type": "Point", "coordinates": [ -1.11039, 44.89074 ] } },
{ "type": "Feature", "properties": { "lat": 44.89831, "lon": -1.1302, "frp": 3.57, "fetch_timestamp": "2026-07-25T13:33:00" }, "geometry": { "type": "Point", "coordinates": [ -1.1302, 44.89831 ] } },
{ "type": "Feature", "properties": { "lat": 44.90697, "lon": -0.94833, "frp": 12.22, "fetch_timestamp": "2026-07-25T13:33:00" }, "geometry": { "type": "Point", "coordinates": [ -0.94833, 44.90697 ] } },
{ "type": "Feature", "properties": { "lat": 44.93121, "lon": -0.98993, "frp": 10.78, "fetch_timestamp": "2026-07-25T13:33:00" }, "geometry": { "type": "Point", "coordinates": [ -0.98993, 44.93121 ] } },
{ "type": "Feature", "properties": { "lat": 44.94051, "lon": -1.0482, "frp": 22.16, "fetch_timestamp": "2026-07-25T13:33:00" }, "geometry": { "type": "Point", "coordinates": [ -1.0482, 44.94051 ] } },
{ "type": "Feature", "properties": { "lat": 44.94405, "lon": -1.06131, "frp": 15.49, "fetch_timestamp": "2026-07-25T13:33:00" }, "geometry": { "type": "Point", "coordinates": [ -1.06131, 44.94405 ] } },
{ "type": "Feature", "properties": { "lat": 44.80265, "lon": -1.21844, "frp": 10.32, "fetch_timestamp": "2026-07-25T13:33:00" }, "geometry": { "type": "Point", "coordinates": [ -1.21844, 44.80265 ] } },
{ "type": "Feature", "properties": { "lat": 44.80996, "lon": -1.0872, "frp": 78.29, "fetch_timestamp": "2026-07-25T13:33:00" }, "geometry": { "type": "Point", "coordinates": [ -1.0872, 44.80996 ] } },
{ "type": "Feature", "properties": { "lat": 44.81321, "lon": -1.19396, "frp": 12.25, "fetch_timestamp": "2026-07-25T13:33:00" }, "geometry": { "type": "Point", "coordinates": [ -1.19396, 44.81321 ] } },
{ "type": "Feature", "properties": { "lat": 44.81413, "lon": -1.18353, "frp": 7.79, "fetch_timestamp": "2026-07-25T13:33:00" }, "geometry": { "type": "Point", "coordinates": [ -1.18353, 44.81413 ] } },
{ "type": "Feature", "properties": { "lat": 44.81503, "lon": -1.07741, "frp": 171.07, "fetch_timestamp": "2026-07-25T13:33:00" }, "geometry": { "type": "Point", "coordinates": [ -1.07741, 44.81503 ] } },
{ "type": "Feature", "properties": { "lat": 44.81919, "lon": -1.17376, "frp": 8.71, "fetch_timestamp": "2026-07-25T13:33:00" }, "geometry": { "type": "Point", "coordinates": [ -1.17376, 44.81919 ] } },
{ "type": "Feature", "properties": { "lat": 44.82473, "lon": -1.1588, "frp": 7.16, "fetch_timestamp": "2026-07-25T13:33:00" }, "geometry": { "type": "Point", "coordinates": [ -1.1588, 44.82473 ] } },
{ "type": "Feature", "properties": { "lat": 44.85842, "lon": -1.11149, "frp": 129.44, "fetch_timestamp": "2026-07-25T13:33:00" }, "geometry": { "type": "Point", "coordinates": [ -1.11149, 44.85842 ] } },
{ "type": "Feature", "properties": { "lat": 44.85889, "lon": -1.10624, "frp": 129.44, "fetch_timestamp": "2026-07-25T13:33:00" }, "geometry": { "type": "Point", "coordinates": [ -1.10624, 44.85889 ] } },
{ "type": "Feature", "properties": { "lat": 44.85936, "lon": -1.10099, "frp": 92.05, "fetch_timestamp": "2026-07-25T13:33:00" }, "geometry": { "type": "Point", "coordinates": [ -1.10099, 44.85936 ] } },
{ "type": "Feature", "properties": { "lat": 44.87267, "lon": -1.1405, "frp": 27.92, "fetch_timestamp": "2026-07-25T13:33:00" }, "geometry": { "type": "Point", "coordinates": [ -1.1405, 44.87267 ] } },
{ "type": "Feature", "properties": { "lat": 44.8773, "lon": -1.13596, "frp": 23.78, "fetch_timestamp": "2026-07-25T13:33:00" }, "geometry": { "type": "Point", "coordinates": [ -1.13596, 44.8773 ] } },
{ "type": "Feature", "properties": { "lat": 44.8811, "lon": -1.09402, "frp": 24.63, "fetch_timestamp": "2026-07-25T13:33:00" }, "geometry": { "type": "Point", "coordinates": [ -1.09402, 44.8811 ] } },
{ "type": "Feature", "properties": { "lat": 44.88252, "lon": -1.07823, "frp": 18.17, "fetch_timestamp": "2026-07-25T13:33:00" }, "geometry": { "type": "Point", "coordinates": [ -1.07823, 44.88252 ] } },
{ "type": "Feature", "properties": { "lat": 44.883, "lon": -1.07297, "frp": 12.93, "fetch_timestamp": "2026-07-25T13:33:00" }, "geometry": { "type": "Point", "coordinates": [ -1.07297, 44.883 ] } },
{ "type": "Feature", "properties": { "lat": 44.88655, "lon": -1.1269, "frp": 32.3, "fetch_timestamp": "2026-07-25T13:33:00" }, "geometry": { "type": "Point", "coordinates": [ -1.1269, 44.88655 ] } },
{ "type": "Feature", "properties": { "lat": 44.88668, "lon": -1.07896, "frp": 11.15, "fetch_timestamp": "2026-07-25T13:33:00" }, "geometry": { "type": "Point", "coordinates": [ -1.07896, 44.88668 ] } },
{ "type": "Feature", "properties": { "lat": 44.88764, "lon": -1.0684, "frp": 9.17, "fetch_timestamp": "2026-07-25T13:33:00" }, "geometry": { "type": "Point", "coordinates": [ -1.0684, 44.88764 ] } },
{ "type": "Feature", "properties": { "lat": 44.89085, "lon": -1.07965, "frp": 11.15, "fetch_timestamp": "2026-07-25T13:33:00" }, "geometry": { "type": "Point", "coordinates": [ -1.07965, 44.89085 ] } },
{ "type": "Feature", "properties": { "lat": 44.89132, "lon": -1.0744, "frp": 9.17, "fetch_timestamp": "2026-07-25T13:33:00" }, "geometry": { "type": "Point", "coordinates": [ -1.0744, 44.89132 ] } },
{ "type": "Feature", "properties": { "lat": 44.8918, "lon": -1.06912, "frp": 9.17, "fetch_timestamp": "2026-07-25T13:33:00" }, "geometry": { "type": "Point", "coordinates": [ -1.06912, 44.8918 ] } },
{ "type": "Feature", "properties": { "lat": 44.89989, "lon": -1.07907, "frp": 26.5, "fetch_timestamp": "2026-07-25T13:33:00" }, "geometry": { "type": "Point", "coordinates": [ -1.07907, 44.89989 ] } },
{ "type": "Feature", "properties": { "lat": 44.92303, "lon": -1.10438, "frp": 212.72, "fetch_timestamp": "2026-07-25T13:33:00" }, "geometry": { "type": "Point", "coordinates": [ -1.10438, 44.92303 ] } },
{ "type": "Feature", "properties": { "lat": 44.92395, "lon": -1.09384, "frp": 82.65, "fetch_timestamp": "2026-07-25T13:33:00" }, "geometry": { "type": "Point", "coordinates": [ -1.09384, 44.92395 ] } },
{ "type": "Feature", "properties": { "lat": 44.92857, "lon": -1.08928, "frp": 99.01, "fetch_timestamp": "2026-07-25T13:33:00" }, "geometry": { "type": "Point", "coordinates": [ -1.08928, 44.92857 ] } },
{ "type": "Feature", "properties": { "lat": 44.77858, "lon": -1.20878, "frp": 4.2, "fetch_timestamp": "2026-07-25T13:33:00" }, "geometry": { "type": "Point", "coordinates": [ -1.20878, 44.77858 ] } },
{ "type": "Feature", "properties": { "lat": 44.77928, "lon": -1.21567, "frp": 3.9, "fetch_timestamp": "2026-07-25T13:33:00" }, "geometry": { "type": "Point", "coordinates": [ -1.21567, 44.77928 ] } },
{ "type": "Feature", "properties": { "lat": 44.77997, "lon": -1.22259, "frp": 3.9, "fetch_timestamp": "2026-07-25T13:33:00" }, "geometry": { "type": "Point", "coordinates": [ -1.22259, 44.77997 ] } },
{ "type": "Feature", "properties": { "lat": 44.78248, "lon": -1.20797, "frp": 5.92, "fetch_timestamp": "2026-07-25T13:33:00" }, "geometry": { "type": "Point", "coordinates": [ -1.20797, 44.78248 ] } },
{ "type": "Feature", "properties": { "lat": 44.78317, "lon": -1.21487, "frp": 3.0, "fetch_timestamp": "2026-07-25T13:33:00" }, "geometry": { "type": "Point", "coordinates": [ -1.21487, 44.78317 ] } },
{ "type": "Feature", "properties": { "lat": 44.78387, "lon": -1.22179, "frp": 3.0, "fetch_timestamp": "2026-07-25T13:33:00" }, "geometry": { "type": "Point", "coordinates": [ -1.22179, 44.78387 ] } },
{ "type": "Feature", "properties": { "lat": 44.78456, "lon": -1.22871, "frp": 2.18, "fetch_timestamp": "2026-07-25T13:33:00" }, "geometry": { "type": "Point", "coordinates": [ -1.22871, 44.78456 ] } },
{ "type": "Feature", "properties": { "lat": 44.80796, "lon": -1.2239, "frp": 2.7, "fetch_timestamp": "2026-07-25T13:33:00" }, "geometry": { "type": "Point", "coordinates": [ -1.2239, 44.80796 ] } },
{ "type": "Feature", "properties": { "lat": 44.86314, "lon": -0.91439, "frp": 2.93, "fetch_timestamp": "2026-07-25T13:33:00" }, "geometry": { "type": "Point", "coordinates": [ -0.91439, 44.86314 ] } },
{ "type": "Feature", "properties": { "lat": 44.86699, "lon": -0.91357, "frp": 2.84, "fetch_timestamp": "2026-07-25T13:33:00" }, "geometry": { "type": "Point", "coordinates": [ -0.91357, 44.86699 ] } },
{ "type": "Feature", "properties": { "lat": 44.87083, "lon": -0.91276, "frp": 2.84, "fetch_timestamp": "2026-07-25T13:33:00" }, "geometry": { "type": "Point", "coordinates": [ -0.91276, 44.87083 ] } },
{ "type": "Feature", "properties": { "lat": 44.87468, "lon": -0.91195, "frp": 4.06, "fetch_timestamp": "2026-07-25T13:33:00" }, "geometry": { "type": "Point", "coordinates": [ -0.91195, 44.87468 ] } },
{ "type": "Feature", "properties": { "lat": 44.87853, "lon": -0.91115, "frp": 4.06, "fetch_timestamp": "2026-07-25T13:33:00" }, "geometry": { "type": "Point", "coordinates": [ -0.91115, 44.87853 ] } },
{ "type": "Feature", "properties": { "lat": 44.87923, "lon": -0.91787, "frp": 4.06, "fetch_timestamp": "2026-07-25T13:33:00" }, "geometry": { "type": "Point", "coordinates": [ -0.91787, 44.87923 ] } },
{ "type": "Feature", "properties": { "lat": 44.88238, "lon": -0.91034, "frp": 3.27, "fetch_timestamp": "2026-07-25T13:33:00" }, "geometry": { "type": "Point", "coordinates": [ -0.91034, 44.88238 ] } },
{ "type": "Feature", "properties": { "lat": 44.88622, "lon": -0.90953, "frp": 3.27, "fetch_timestamp": "2026-07-25T13:33:00" }, "geometry": { "type": "Point", "coordinates": [ -0.90953, 44.88622 ] } },
{ "type": "Feature", "properties": { "lat": 44.89462, "lon": -0.91462, "frp": 4.08, "fetch_timestamp": "2026-07-25T13:33:00" }, "geometry": { "type": "Point", "coordinates": [ -0.91462, 44.89462 ] } },
{ "type": "Feature", "properties": { "lat": 44.89533, "lon": -0.92135, "frp": 7.09, "fetch_timestamp": "2026-07-25T13:33:00" }, "geometry": { "type": "Point", "coordinates": [ -0.92135, 44.89533 ] } },
{ "type": "Feature", "properties": { "lat": 44.89917, "lon": -0.92054, "frp": 2.5, "fetch_timestamp": "2026-07-25T13:33:00" }, "geometry": { "type": "Point", "coordinates": [ -0.92054, 44.89917 ] } },
{ "type": "Feature", "properties": { "lat": 44.76736, "lon": -1.04113, "frp": 3.74, "fetch_timestamp": "2026-07-25T13:33:00" }, "geometry": { "type": "Point", "coordinates": [ -1.04113, 44.76736 ] } },
{ "type": "Feature", "properties": { "lat": 44.76835, "lon": -1.03828, "frp": 6.9, "fetch_timestamp": "2026-07-25T13:33:00" }, "geometry": { "type": "Point", "coordinates": [ -1.03828, 44.76835 ] } },
{ "type": "Feature", "properties": { "lat": 44.76949, "lon": -1.06906, "frp": 4.4, "fetch_timestamp": "2026-07-25T13:33:00" }, "geometry": { "type": "Point", "coordinates": [ -1.06906, 44.76949 ] } },
{ "type": "Feature", "properties": { "lat": 44.77016, "lon": -1.04905, "frp": 3.74, "fetch_timestamp": "2026-07-25T13:33:00" }, "geometry": { "type": "Point", "coordinates": [ -1.04905, 44.77016 ] } },
{ "type": "Feature", "properties": { "lat": 44.77293, "lon": -1.05692, "frp": 4.4, "fetch_timestamp": "2026-07-25T13:33:00" }, "geometry": { "type": "Point", "coordinates": [ -1.05692, 44.77293 ] } },
{ "type": "Feature", "properties": { "lat": 44.77398, "lon": -1.05401, "frp": 7.75, "fetch_timestamp": "2026-07-25T13:33:00" }, "geometry": { "type": "Point", "coordinates": [ -1.05401, 44.77398 ] } },
{ "type": "Feature", "properties": { "lat": 44.77821, "lon": -0.98412, "frp": 3.7, "fetch_timestamp": "2026-07-25T13:33:00" }, "geometry": { "type": "Point", "coordinates": [ -0.98412, 44.77821 ] } },
{ "type": "Feature", "properties": { "lat": 44.77907, "lon": -0.98157, "frp": 5.33, "fetch_timestamp": "2026-07-25T13:33:00" }, "geometry": { "type": "Point", "coordinates": [ -0.98157, 44.77907 ] } },
{ "type": "Feature", "properties": { "lat": 44.78059, "lon": -1.10056, "frp": 7.85, "fetch_timestamp": "2026-07-25T13:33:00" }, "geometry": { "type": "Point", "coordinates": [ -1.10056, 44.78059 ] } },
{ "type": "Feature", "properties": { "lat": 44.78442, "lon": -0.97979, "frp": 7.06, "fetch_timestamp": "2026-07-25T13:33:00" }, "geometry": { "type": "Point", "coordinates": [ -0.97979, 44.78442 ] } },
{ "type": "Feature", "properties": { "lat": 44.78719, "lon": -0.98768, "frp": 4.2, "fetch_timestamp": "2026-07-25T13:33:00" }, "geometry": { "type": "Point", "coordinates": [ -0.98768, 44.78719 ] } },
{ "type": "Feature", "properties": { "lat": 44.78811, "lon": -0.98517, "frp": 5.33, "fetch_timestamp": "2026-07-25T13:33:00" }, "geometry": { "type": "Point", "coordinates": [ -0.98517, 44.78811 ] } },
{ "type": "Feature", "properties": { "lat": 44.79138, "lon": -1.08105, "frp": 6.11, "fetch_timestamp": "2026-07-25T13:33:00" }, "geometry": { "type": "Point", "coordinates": [ -1.08105, 44.79138 ] } },
{ "type": "Feature", "properties": { "lat": 44.79339, "lon": -0.98332, "frp": 4.2, "fetch_timestamp": "2026-07-25T13:33:00" }, "geometry": { "type": "Point", "coordinates": [ -0.98332, 44.79339 ] } },
{ "type": "Feature", "properties": { "lat": 44.79361, "lon": -1.07188, "frp": 5.28, "fetch_timestamp": "2026-07-25T13:33:00" }, "geometry": { "type": "Point", "coordinates": [ -1.07188, 44.79361 ] } },
{ "type": "Feature", "properties": { "lat": 44.79431, "lon": -0.98082, "frp": 10.73, "fetch_timestamp": "2026-07-25T13:33:00" }, "geometry": { "type": "Point", "coordinates": [ -0.98082, 44.79431 ] } },
{ "type": "Feature", "properties": { "lat": 44.79617, "lon": -0.99125, "frp": 4.2, "fetch_timestamp": "2026-07-25T13:33:00" }, "geometry": { "type": "Point", "coordinates": [ -0.99125, 44.79617 ] } },
{ "type": "Feature", "properties": { "lat": 44.79638, "lon": -1.07976, "frp": 6.28, "fetch_timestamp": "2026-07-25T13:33:00" }, "geometry": { "type": "Point", "coordinates": [ -1.07976, 44.79638 ] } },
{ "type": "Feature", "properties": { "lat": 44.79712, "lon": -0.98872, "frp": 6.23, "fetch_timestamp": "2026-07-25T13:33:00" }, "geometry": { "type": "Point", "coordinates": [ -0.98872, 44.79712 ] } },
{ "type": "Feature", "properties": { "lat": 44.79757, "lon": -1.07676, "frp": 4.21, "fetch_timestamp": "2026-07-25T13:33:00" }, "geometry": { "type": "Point", "coordinates": [ -1.07676, 44.79757 ] } },
{ "type": "Feature", "properties": { "lat": 44.79912, "lon": -1.08759, "frp": 6.28, "fetch_timestamp": "2026-07-25T13:33:00" }, "geometry": { "type": "Point", "coordinates": [ -1.08759, 44.79912 ] } },
{ "type": "Feature", "properties": { "lat": 44.79958, "lon": -0.97893, "frp": 4.74, "fetch_timestamp": "2026-07-25T13:33:00" }, "geometry": { "type": "Point", "coordinates": [ -0.97893, 44.79958 ] } },
{ "type": "Feature", "properties": { "lat": 44.80036, "lon": -1.08457, "frp": 6.12, "fetch_timestamp": "2026-07-25T13:33:00" }, "geometry": { "type": "Point", "coordinates": [ -1.08457, 44.80036 ] } },
{ "type": "Feature", "properties": { "lat": 44.80187, "lon": -1.09543, "frp": 8.68, "fetch_timestamp": "2026-07-25T13:33:00" }, "geometry": { "type": "Point", "coordinates": [ -1.09543, 44.80187 ] } },
{ "type": "Feature", "properties": { "lat": 44.80237, "lon": -0.9869, "frp": 4.74, "fetch_timestamp": "2026-07-25T13:33:00" }, "geometry": { "type": "Point", "coordinates": [ -0.9869, 44.80237 ] } },
{ "type": "Feature", "properties": { "lat": 44.80314, "lon": -1.09236, "frp": 6.12, "fetch_timestamp": "2026-07-25T13:33:00" }, "geometry": { "type": "Point", "coordinates": [ -1.09236, 44.80314 ] } },
{ "type": "Feature", "properties": { "lat": 44.80334, "lon": -0.98442, "frp": 6.23, "fetch_timestamp": "2026-07-25T13:33:00" }, "geometry": { "type": "Point", "coordinates": [ -0.98442, 44.80334 ] } },
{ "type": "Feature", "properties": { "lat": 44.8053, "lon": -1.08325, "frp": 6.19, "fetch_timestamp": "2026-07-25T13:33:00" }, "geometry": { "type": "Point", "coordinates": [ -1.08325, 44.8053 ] } },
{ "type": "Feature", "properties": { "lat": 44.80615, "lon": -0.99233, "frp": 6.23, "fetch_timestamp": "2026-07-25T13:33:00" }, "geometry": { "type": "Point", "coordinates": [ -0.99233, 44.80615 ] } },
{ "type": "Feature", "properties": { "lat": 44.80855, "lon": -0.9825, "frp": 4.74, "fetch_timestamp": "2026-07-25T13:33:00" }, "geometry": { "type": "Point", "coordinates": [ -0.9825, 44.80855 ] } },
{ "type": "Feature", "properties": { "lat": 44.80952, "lon": -0.98002, "frp": 2.85, "fetch_timestamp": "2026-07-25T13:33:00" }, "geometry": { "type": "Point", "coordinates": [ -0.98002, 44.80952 ] } },
{ "type": "Feature", "properties": { "lat": 44.81133, "lon": -0.99046, "frp": 9.09, "fetch_timestamp": "2026-07-25T13:33:00" }, "geometry": { "type": "Point", "coordinates": [ -0.99046, 44.81133 ] } },
{ "type": "Feature", "properties": { "lat": 44.81234, "lon": -0.98796, "frp": 2.85, "fetch_timestamp": "2026-07-25T13:33:00" }, "geometry": { "type": "Point", "coordinates": [ -0.98796, 44.81234 ] } },
{ "type": "Feature", "properties": { "lat": 44.84727, "lon": -1.12984, "frp": 3.52, "fetch_timestamp": "2026-07-25T13:33:00" }, "geometry": { "type": "Point", "coordinates": [ -1.12984, 44.84727 ] } },
{ "type": "Feature", "properties": { "lat": 44.85004, "lon": -1.13764, "frp": 3.52, "fetch_timestamp": "2026-07-25T13:33:00" }, "geometry": { "type": "Point", "coordinates": [ -1.13764, 44.85004 ] } },
{ "type": "Feature", "properties": { "lat": 44.85069, "lon": -1.11777, "frp": 6.27, "fetch_timestamp": "2026-07-25T13:33:00" }, "geometry": { "type": "Point", "coordinates": [ -1.11777, 44.85069 ] } },
{ "type": "Feature", "properties": { "lat": 44.85188, "lon": -1.12866, "frp": 5.99, "fetch_timestamp": "2026-07-25T13:33:00" }, "geometry": { "type": "Point", "coordinates": [ -1.12866, 44.85188 ] } },
{ "type": "Feature", "properties": { "lat": 44.85344, "lon": -1.12555, "frp": 3.52, "fetch_timestamp": "2026-07-25T13:33:00" }, "geometry": { "type": "Point", "coordinates": [ -1.12555, 44.85344 ] } },
{ "type": "Feature", "properties": { "lat": 44.85531, "lon": -1.11651, "frp": 5.99, "fetch_timestamp": "2026-07-25T13:33:00" }, "geometry": { "type": "Point", "coordinates": [ -1.11651, 44.85531 ] } },
{ "type": "Feature", "properties": { "lat": 44.85685, "lon": -1.11345, "frp": 4.26, "fetch_timestamp": "2026-07-25T13:33:00" }, "geometry": { "type": "Point", "coordinates": [ -1.11345, 44.85685 ] } },
{ "type": "Feature", "properties": { "lat": 44.85962, "lon": -1.12127, "frp": 3.99, "fetch_timestamp": "2026-07-25T13:33:00" }, "geometry": { "type": "Point", "coordinates": [ -1.12127, 44.85962 ] } },
{ "type": "Feature", "properties": { "lat": 44.86027, "lon": -1.10139, "frp": 4.26, "fetch_timestamp": "2026-07-25T13:33:00" }, "geometry": { "type": "Point", "coordinates": [ -1.10139, 44.86027 ] } },
{ "type": "Feature", "properties": { "lat": 44.86302, "lon": -1.10917, "frp": 4.26, "fetch_timestamp": "2026-07-25T13:33:00" }, "geometry": { "type": "Point", "coordinates": [ -1.10917, 44.86302 ] } },
{ "type": "Feature", "properties": { "lat": 44.86577, "lon": -1.11695, "frp": 3.99, "fetch_timestamp": "2026-07-25T13:33:00" }, "geometry": { "type": "Point", "coordinates": [ -1.11695, 44.86577 ] } },
{ "type": "Feature", "properties": { "lat": 44.86643, "lon": -1.09706, "frp": 10.08, "fetch_timestamp": "2026-07-25T13:33:00" }, "geometry": { "type": "Point", "coordinates": [ -1.09706, 44.86643 ] } },
{ "type": "Feature", "properties": { "lat": 44.86919, "lon": -1.10487, "frp": 10.08, "fetch_timestamp": "2026-07-25T13:33:00" }, "geometry": { "type": "Point", "coordinates": [ -1.10487, 44.86919 ] } },
{ "type": "Feature", "properties": { "lat": 44.8697, "lon": -0.95101, "frp": 6.48, "fetch_timestamp": "2026-07-25T13:33:00" }, "geometry": { "type": "Point", "coordinates": [ -0.95101, 44.8697 ] } },
{ "type": "Feature", "properties": { "lat": 44.87194, "lon": -1.11265, "frp": 8.85, "fetch_timestamp": "2026-07-25T13:33:00" }, "geometry": { "type": "Point", "coordinates": [ -1.11265, 44.87194 ] } },
{ "type": "Feature", "properties": { "lat": 44.87422, "lon": -0.94425, "frp": 10.15, "fetch_timestamp": "2026-07-25T13:33:00" }, "geometry": { "type": "Point", "coordinates": [ -0.94425, 44.87422 ] } },
{ "type": "Feature", "properties": { "lat": 44.8759, "lon": -0.94668, "frp": 6.48, "fetch_timestamp": "2026-07-25T13:33:00" }, "geometry": { "type": "Point", "coordinates": [ -0.94668, 44.8759 ] } },
{ "type": "Feature", "properties": { "lat": 44.877, "lon": -0.95217, "frp": 5.91, "fetch_timestamp": "2026-07-25T13:33:00" }, "geometry": { "type": "Point", "coordinates": [ -0.95217, 44.877 ] } },
{ "type": "Feature", "properties": { "lat": 44.87873, "lon": -0.95459, "frp": 6.48, "fetch_timestamp": "2026-07-25T13:33:00" }, "geometry": { "type": "Point", "coordinates": [ -0.95459, 44.87873 ] } },
{ "type": "Feature", "properties": { "lat": 44.87978, "lon": -0.96007, "frp": 5.91, "fetch_timestamp": "2026-07-25T13:33:00" }, "geometry": { "type": "Point", "coordinates": [ -0.96007, 44.87978 ] } },
{ "type": "Feature", "properties": { "lat": 44.88154, "lon": -0.96244, "frp": 9.43, "fetch_timestamp": "2026-07-25T13:33:00" }, "geometry": { "type": "Point", "coordinates": [ -0.96244, 44.88154 ] } },
{ "type": "Feature", "properties": { "lat": 44.88317, "lon": -0.94775, "frp": 5.91, "fetch_timestamp": "2026-07-25T13:33:00" }, "geometry": { "type": "Point", "coordinates": [ -0.94775, 44.88317 ] } },
{ "type": "Feature", "properties": { "lat": 44.88424, "lon": -1.10399, "frp": 3.44, "fetch_timestamp": "2026-07-25T13:33:00" }, "geometry": { "type": "Point", "coordinates": [ -1.10399, 44.88424 ] } },
{ "type": "Feature", "properties": { "lat": 44.88491, "lon": -0.95021, "frp": 6.83, "fetch_timestamp": "2026-07-25T13:33:00" }, "geometry": { "type": "Point", "coordinates": [ -0.95021, 44.88491 ] } },
{ "type": "Feature", "properties": { "lat": 44.88595, "lon": -0.95566, "frp": 5.91, "fetch_timestamp": "2026-07-25T13:33:00" }, "geometry": { "type": "Point", "coordinates": [ -0.95566, 44.88595 ] } },
{ "type": "Feature", "properties": { "lat": 44.88698, "lon": -1.11175, "frp": 3.44, "fetch_timestamp": "2026-07-25T13:33:00" }, "geometry": { "type": "Point", "coordinates": [ -1.11175, 44.88698 ] } },
{ "type": "Feature", "properties": { "lat": 44.88772, "lon": -0.95809, "frp": 15.23, "fetch_timestamp": "2026-07-25T13:33:00" }, "geometry": { "type": "Point", "coordinates": [ -0.95809, 44.88772 ] } },
{ "type": "Feature", "properties": { "lat": 44.88829, "lon": -0.93798, "frp": 6.83, "fetch_timestamp": "2026-07-25T13:33:00" }, "geometry": { "type": "Point", "coordinates": [ -0.93798, 44.88829 ] } },
{ "type": "Feature", "properties": { "lat": 44.88873, "lon": -0.96356, "frp": 6.6, "fetch_timestamp": "2026-07-25T13:33:00" }, "geometry": { "type": "Point", "coordinates": [ -0.96356, 44.88873 ] } },
{ "type": "Feature", "properties": { "lat": 44.89039, "lon": -1.09965, "frp": 3.44, "fetch_timestamp": "2026-07-25T13:33:00" }, "geometry": { "type": "Point", "coordinates": [ -1.09965, 44.89039 ] } },
{ "type": "Feature", "properties": { "lat": 44.8915, "lon": -0.97147, "frp": 6.6, "fetch_timestamp": "2026-07-25T13:33:00" }, "geometry": { "type": "Point", "coordinates": [ -0.97147, 44.8915 ] } },
{ "type": "Feature", "properties": { "lat": 44.89312, "lon": -1.1074, "frp": 3.44, "fetch_timestamp": "2026-07-25T13:33:00" }, "geometry": { "type": "Point", "coordinates": [ -1.1074, 44.89312 ] } },
{ "type": "Feature", "properties": { "lat": 44.89335, "lon": -0.97385, "frp": 9.13, "fetch_timestamp": "2026-07-25T13:33:00" }, "geometry": { "type": "Point", "coordinates": [ -0.97385, 44.89335 ] } },
{ "type": "Feature", "properties": { "lat": 44.89653, "lon": -1.09526, "frp": 3.79, "fetch_timestamp": "2026-07-25T13:33:00" }, "geometry": { "type": "Point", "coordinates": [ -1.09526, 44.89653 ] } },
{ "type": "Feature", "properties": { "lat": 44.89855, "lon": -1.12284, "frp": 7.66, "fetch_timestamp": "2026-07-25T13:33:00" }, "geometry": { "type": "Point", "coordinates": [ -1.12284, 44.89855 ] } },
{ "type": "Feature", "properties": { "lat": 44.89926, "lon": -1.10302, "frp": 3.79, "fetch_timestamp": "2026-07-25T13:33:00" }, "geometry": { "type": "Point", "coordinates": [ -1.10302, 44.89926 ] } },
{ "type": "Feature", "properties": { "lat": 44.90107, "lon": -0.95478, "frp": 11.41, "fetch_timestamp": "2026-07-25T13:33:00" }, "geometry": { "type": "Point", "coordinates": [ -0.95478, 44.90107 ] } },
{ "type": "Feature", "properties": { "lat": 44.9029, "lon": -0.95726, "frp": 8.27, "fetch_timestamp": "2026-07-25T13:33:00" }, "geometry": { "type": "Point", "coordinates": [ -0.95726, 44.9029 ] } },
{ "type": "Feature", "properties": { "lat": 44.90807, "lon": -1.01869, "frp": 9.82, "fetch_timestamp": "2026-07-25T13:33:00" }, "geometry": { "type": "Point", "coordinates": [ -1.01869, 44.90807 ] } },
{ "type": "Feature", "properties": { "lat": 44.91081, "lon": -1.02652, "frp": 10.36, "fetch_timestamp": "2026-07-25T13:33:00" }, "geometry": { "type": "Point", "coordinates": [ -1.02652, 44.91081 ] } },
{ "type": "Feature", "properties": { "lat": 44.91132, "lon": -0.98089, "frp": 16.41, "fetch_timestamp": "2026-07-25T13:33:00" }, "geometry": { "type": "Point", "coordinates": [ -0.98089, 44.91132 ] } },
{ "type": "Feature", "properties": { "lat": 44.91148, "lon": -1.00648, "frp": 8.68, "fetch_timestamp": "2026-07-25T13:33:00" }, "geometry": { "type": "Point", "coordinates": [ -1.00648, 44.91148 ] } },
{ "type": "Feature", "properties": { "lat": 44.91189, "lon": -0.96078, "frp": 14.35, "fetch_timestamp": "2026-07-25T13:33:00" }, "geometry": { "type": "Point", "coordinates": [ -0.96078, 44.91189 ] } },
{ "type": "Feature", "properties": { "lat": 44.91214, "lon": -0.98635, "frp": 12.95, "fetch_timestamp": "2026-07-25T13:33:00" }, "geometry": { "type": "Point", "coordinates": [ -0.98635, 44.91214 ] } },
{ "type": "Feature", "properties": { "lat": 44.91277, "lon": -0.96617, "frp": 14.23, "fetch_timestamp": "2026-07-25T13:33:00" }, "geometry": { "type": "Point", "coordinates": [ -0.96617, 44.91277 ] } },
{ "type": "Feature", "properties": { "lat": 44.91352, "lon": -1.00876, "frp": 17.49, "fetch_timestamp": "2026-07-25T13:33:00" }, "geometry": { "type": "Point", "coordinates": [ -1.00876, 44.91352 ] } },
{ "type": "Feature", "properties": { "lat": 44.91423, "lon": -1.01432, "frp": 8.68, "fetch_timestamp": "2026-07-25T13:33:00" }, "geometry": { "type": "Point", "coordinates": [ -1.01432, 44.91423 ] } },
{ "type": "Feature", "properties": { "lat": 44.91697, "lon": -1.02213, "frp": 4.74, "fetch_timestamp": "2026-07-25T13:33:00" }, "geometry": { "type": "Point", "coordinates": [ -1.02213, 44.91697 ] } },
{ "type": "Feature", "properties": { "lat": 44.9183, "lon": -0.98198, "frp": 8.66, "fetch_timestamp": "2026-07-25T13:33:00" }, "geometry": { "type": "Point", "coordinates": [ -0.98198, 44.9183 ] } },
{ "type": "Feature", "properties": { "lat": 44.91907, "lon": -1.02435, "frp": 17.6, "fetch_timestamp": "2026-07-25T13:33:00" }, "geometry": { "type": "Point", "coordinates": [ -1.02435, 44.91907 ] } },
{ "type": "Feature", "properties": { "lat": 44.91935, "lon": -1.11162, "frp": 4.33, "fetch_timestamp": "2026-07-25T13:33:00" }, "geometry": { "type": "Point", "coordinates": [ -1.11162, 44.91935 ] } },
{ "type": "Feature", "properties": { "lat": 44.91972, "lon": -1.11765, "frp": 4.35, "fetch_timestamp": "2026-07-25T13:33:00" }, "geometry": { "type": "Point", "coordinates": [ -1.11765, 44.91972 ] } },
{ "type": "Feature", "properties": { "lat": 44.91972, "lon": -1.02999, "frp": 4.74, "fetch_timestamp": "2026-07-25T13:33:00" }, "geometry": { "type": "Point", "coordinates": [ -1.02999, 44.91972 ] } },
{ "type": "Feature", "properties": { "lat": 44.92213, "lon": -1.1194, "frp": 4.33, "fetch_timestamp": "2026-07-25T13:33:00" }, "geometry": { "type": "Point", "coordinates": [ -1.1194, 44.92213 ] } },
{ "type": "Feature", "properties": { "lat": 44.9238, "lon": -0.99769, "frp": 8.84, "fetch_timestamp": "2026-07-25T13:33:00" }, "geometry": { "type": "Point", "coordinates": [ -0.99769, 44.9238 ] } },
{ "type": "Feature", "properties": { "lat": 44.92426, "lon": -0.95208, "frp": 13.9, "fetch_timestamp": "2026-07-25T13:33:00" }, "geometry": { "type": "Point", "coordinates": [ -0.95208, 44.92426 ] } },
{ "type": "Feature", "properties": { "lat": 44.92453, "lon": -1.0657, "frp": 7.02, "fetch_timestamp": "2026-07-25T13:33:00" }, "geometry": { "type": "Point", "coordinates": [ -1.0657, 44.92453 ] } },
{ "type": "Feature", "properties": { "lat": 44.92585, "lon": -1.00005, "frp": 12.89, "fetch_timestamp": "2026-07-25T13:33:00" }, "geometry": { "type": "Point", "coordinates": [ -1.00005, 44.92585 ] } },
{ "type": "Feature", "properties": { "lat": 44.92588, "lon": -1.11334, "frp": 4.35, "fetch_timestamp": "2026-07-25T13:33:00" }, "geometry": { "type": "Point", "coordinates": [ -1.11334, 44.92588 ] } },
{ "type": "Feature", "properties": { "lat": 44.92616, "lon": -1.08755, "frp": 3.9, "fetch_timestamp": "2026-07-25T13:33:00" }, "geometry": { "type": "Point", "coordinates": [ -1.08755, 44.92616 ] } },
{ "type": "Feature", "properties": { "lat": 44.92647, "lon": -0.98006, "frp": 10.86, "fetch_timestamp": "2026-07-25T13:33:00" }, "geometry": { "type": "Point", "coordinates": [ -0.98006, 44.92647 ] } },
{ "type": "Feature", "properties": { "lat": 44.92655, "lon": -1.00556, "frp": 8.84, "fetch_timestamp": "2026-07-25T13:33:00" }, "geometry": { "type": "Point", "coordinates": [ -1.00556, 44.92655 ] } },
{ "type": "Feature", "properties": { "lat": 44.92658, "lon": -1.09344, "frp": 6.71, "fetch_timestamp": "2026-07-25T13:33:00" }, "geometry": { "type": "Point", "coordinates": [ -1.09344, 44.92658 ] } },
{ "type": "Feature", "properties": { "lat": 44.9268, "lon": -1.06772, "frp": 4.49, "fetch_timestamp": "2026-07-25T13:33:00" }, "geometry": { "type": "Point", "coordinates": [ -1.06772, 44.9268 ] } },
{ "type": "Feature", "properties": { "lat": 44.92723, "lon": -0.98549, "frp": 8.66, "fetch_timestamp": "2026-07-25T13:33:00" }, "geometry": { "type": "Point", "coordinates": [ -0.98549, 44.92723 ] } },
{ "type": "Feature", "properties": { "lat": 44.92727, "lon": -1.0735, "frp": 6.58, "fetch_timestamp": "2026-07-25T13:33:00" }, "geometry": { "type": "Point", "coordinates": [ -1.0735, 44.92727 ] } },
{ "type": "Feature", "properties": { "lat": 44.92796, "lon": -1.05355, "frp": 4.42, "fetch_timestamp": "2026-07-25T13:33:00" }, "geometry": { "type": "Point", "coordinates": [ -1.05355, 44.92796 ] } },
{ "type": "Feature", "properties": { "lat": 44.92829, "lon": -1.11514, "frp": 4.75, "fetch_timestamp": "2026-07-25T13:33:00" }, "geometry": { "type": "Point", "coordinates": [ -1.11514, 44.92829 ] } },
{ "type": "Feature", "properties": { "lat": 44.92865, "lon": -1.0079, "frp": 10.16, "fetch_timestamp": "2026-07-25T13:33:00" }, "geometry": { "type": "Point", "coordinates": [ -1.0079, 44.92865 ] } },
{ "type": "Feature", "properties": { "lat": 44.92892, "lon": -1.09531, "frp": 3.9, "fetch_timestamp": "2026-07-25T13:33:00" }, "geometry": { "type": "Point", "coordinates": [ -1.09531, 44.92892 ] } },
{ "type": "Feature", "properties": { "lat": 44.92925, "lon": -0.98789, "frp": 11.26, "fetch_timestamp": "2026-07-25T13:33:00" }, "geometry": { "type": "Point", "coordinates": [ -0.98789, 44.92925 ] } },
{ "type": "Feature", "properties": { "lat": 44.92931, "lon": -1.10124, "frp": 6.71, "fetch_timestamp": "2026-07-25T13:33:00" }, "geometry": { "type": "Point", "coordinates": [ -1.10124, 44.92931 ] } },
{ "type": "Feature", "properties": { "lat": 44.92956, "lon": -1.07549, "frp": 4.49, "fetch_timestamp": "2026-07-25T13:33:00" }, "geometry": { "type": "Point", "coordinates": [ -1.07549, 44.92956 ] } },
{ "type": "Feature", "properties": { "lat": 44.92986, "lon": -0.96785, "frp": 10.86, "fetch_timestamp": "2026-07-25T13:33:00" }, "geometry": { "type": "Point", "coordinates": [ -0.96785, 44.92986 ] } },
{ "type": "Feature", "properties": { "lat": 44.92997, "lon": -0.99335, "frp": 8.84, "fetch_timestamp": "2026-07-25T13:33:00" }, "geometry": { "type": "Point", "coordinates": [ -0.99335, 44.92997 ] } },
{ "type": "Feature", "properties": { "lat": 44.93, "lon": -1.08131, "frp": 6.58, "fetch_timestamp": "2026-07-25T13:33:00" }, "geometry": { "type": "Point", "coordinates": [ -1.08131, 44.93 ] } },
{ "type": "Feature", "properties": { "lat": 44.93019, "lon": -1.05562, "frp": 11.48, "fetch_timestamp": "2026-07-25T13:33:00" }, "geometry": { "type": "Point", "coordinates": [ -1.05562, 44.93019 ] } },
{ "type": "Feature", "properties": { "lat": 44.93069, "lon": -1.06135, "frp": 4.42, "fetch_timestamp": "2026-07-25T13:33:00" }, "geometry": { "type": "Point", "coordinates": [ -1.06135, 44.93069 ] } },
{ "type": "Feature", "properties": { "lat": 44.93203, "lon": -0.99573, "frp": 11.26, "fetch_timestamp": "2026-07-25T13:33:00" }, "geometry": { "type": "Point", "coordinates": [ -0.99573, 44.93203 ] } },
{ "type": "Feature", "properties": { "lat": 44.93232, "lon": -1.08326, "frp": 8.32, "fetch_timestamp": "2026-07-25T13:33:00" }, "geometry": { "type": "Point", "coordinates": [ -1.08326, 44.93232 ] } },
{ "type": "Feature", "properties": { "lat": 44.93271, "lon": -1.0012, "frp": 8.84, "fetch_timestamp": "2026-07-25T13:33:00" }, "geometry": { "type": "Point", "coordinates": [ -1.0012, 44.93271 ] } },
{ "type": "Feature", "properties": { "lat": 44.93272, "lon": -1.0891, "frp": 6.71, "fetch_timestamp": "2026-07-25T13:33:00" }, "geometry": { "type": "Point", "coordinates": [ -1.0891, 44.93272 ] } },
{ "type": "Feature", "properties": { "lat": 44.93296, "lon": -1.0634, "frp": 4.49, "fetch_timestamp": "2026-07-25T13:33:00" }, "geometry": { "type": "Point", "coordinates": [ -1.0634, 44.93296 ] } },
{ "type": "Feature", "properties": { "lat": 44.93342, "lon": -1.06918, "frp": 5.97, "fetch_timestamp": "2026-07-25T13:33:00" }, "geometry": { "type": "Point", "coordinates": [ -1.06918, 44.93342 ] } },
{ "type": "Feature", "properties": { "lat": 44.93358, "lon": -1.04348, "frp": 12.2, "fetch_timestamp": "2026-07-25T13:33:00" }, "geometry": { "type": "Point", "coordinates": [ -1.04348, 44.93358 ] } },
{ "type": "Feature", "properties": { "lat": 44.93409, "lon": -1.04914, "frp": 4.42, "fetch_timestamp": "2026-07-25T13:33:00" }, "geometry": { "type": "Point", "coordinates": [ -1.04914, 44.93409 ] } },
{ "type": "Feature", "properties": { "lat": 44.93509, "lon": -1.09102, "frp": 8.32, "fetch_timestamp": "2026-07-25T13:33:00" }, "geometry": { "type": "Point", "coordinates": [ -1.09102, 44.93509 ] } },
{ "type": "Feature", "properties": { "lat": 44.93542, "lon": -0.98353, "frp": 11.26, "fetch_timestamp": "2026-07-25T13:33:00" }, "geometry": { "type": "Point", "coordinates": [ -0.98353, 44.93542 ] } },
{ "type": "Feature", "properties": { "lat": 44.93545, "lon": -1.09691, "frp": 6.71, "fetch_timestamp": "2026-07-25T13:33:00" }, "geometry": { "type": "Point", "coordinates": [ -1.09691, 44.93545 ] } },
{ "type": "Feature", "properties": { "lat": 44.93573, "lon": -1.07121, "frp": 4.49, "fetch_timestamp": "2026-07-25T13:33:00" }, "geometry": { "type": "Point", "coordinates": [ -1.07121, 44.93573 ] } },
{ "type": "Feature", "properties": { "lat": 44.93616, "lon": -1.07701, "frp": 5.97, "fetch_timestamp": "2026-07-25T13:33:00" }, "geometry": { "type": "Point", "coordinates": [ -1.07701, 44.93616 ] } },
{ "type": "Feature", "properties": { "lat": 44.93634, "lon": -1.05127, "frp": 12.2, "fetch_timestamp": "2026-07-25T13:33:00" }, "geometry": { "type": "Point", "coordinates": [ -1.05127, 44.93634 ] } },
{ "type": "Feature", "properties": { "lat": 44.93684, "lon": -1.057, "frp": 4.42, "fetch_timestamp": "2026-07-25T13:33:00" }, "geometry": { "type": "Point", "coordinates": [ -1.057, 44.93684 ] } },
{ "type": "Feature", "properties": { "lat": 44.93699, "lon": -1.0314, "frp": 3.42, "fetch_timestamp": "2026-07-25T13:33:00" }, "geometry": { "type": "Point", "coordinates": [ -1.0314, 44.93699 ] } },
{ "type": "Feature", "properties": { "lat": 44.93752, "lon": -1.03698, "frp": 11.19, "fetch_timestamp": "2026-07-25T13:33:00" }, "geometry": { "type": "Point", "coordinates": [ -1.03698, 44.93752 ] } },
{ "type": "Feature", "properties": { "lat": 44.93821, "lon": -0.99139, "frp": 11.26, "fetch_timestamp": "2026-07-25T13:33:00" }, "geometry": { "type": "Point", "coordinates": [ -0.99139, 44.93821 ] } },
{ "type": "Feature", "properties": { "lat": 44.93849, "lon": -1.07898, "frp": 8.32, "fetch_timestamp": "2026-07-25T13:33:00" }, "geometry": { "type": "Point", "coordinates": [ -1.07898, 44.93849 ] } },
{ "type": "Feature", "properties": { "lat": 44.93887, "lon": -1.08478, "frp": 4.64, "fetch_timestamp": "2026-07-25T13:33:00" }, "geometry": { "type": "Point", "coordinates": [ -1.08478, 44.93887 ] } },
{ "type": "Feature", "properties": { "lat": 44.93911, "lon": -1.05907, "frp": 12.97, "fetch_timestamp": "2026-07-25T13:33:00" }, "geometry": { "type": "Point", "coordinates": [ -1.05907, 44.93911 ] } },
{ "type": "Feature", "properties": { "lat": 44.93956, "lon": -1.06479, "frp": 5.97, "fetch_timestamp": "2026-07-25T13:33:00" }, "geometry": { "type": "Point", "coordinates": [ -1.06479, 44.93956 ] } },
{ "type": "Feature", "properties": { "lat": 44.93974, "lon": -1.03914, "frp": 12.2, "fetch_timestamp": "2026-07-25T13:33:00" }, "geometry": { "type": "Point", "coordinates": [ -1.03914, 44.93974 ] } },
{ "type": "Feature", "properties": { "lat": 44.94024, "lon": -1.04475, "frp": 18.37, "fetch_timestamp": "2026-07-25T13:33:00" }, "geometry": { "type": "Point", "coordinates": [ -1.04475, 44.94024 ] } },
{ "type": "Feature", "properties": { "lat": 44.94098, "lon": -0.9992, "frp": 12.03, "fetch_timestamp": "2026-07-25T13:33:00" }, "geometry": { "type": "Point", "coordinates": [ -0.9992, 44.94098 ] } },
{ "type": "Feature", "properties": { "lat": 44.94123, "lon": -1.08669, "frp": 8.32, "fetch_timestamp": "2026-07-25T13:33:00" }, "geometry": { "type": "Point", "coordinates": [ -1.08669, 44.94123 ] } },
{ "type": "Feature", "properties": { "lat": 44.94159, "lon": -1.09254, "frp": 4.64, "fetch_timestamp": "2026-07-25T13:33:00" }, "geometry": { "type": "Point", "coordinates": [ -1.09254, 44.94159 ] } },
{ "type": "Feature", "properties": { "lat": 44.94187, "lon": -1.06684, "frp": 12.97, "fetch_timestamp": "2026-07-25T13:33:00" }, "geometry": { "type": "Point", "coordinates": [ -1.06684, 44.94187 ] } },
{ "type": "Feature", "properties": { "lat": 44.94229, "lon": -1.07262, "frp": 5.97, "fetch_timestamp": "2026-07-25T13:33:00" }, "geometry": { "type": "Point", "coordinates": [ -1.07262, 44.94229 ] } },
{ "type": "Feature", "properties": { "lat": 44.94248, "lon": -1.04688, "frp": 12.2, "fetch_timestamp": "2026-07-25T13:33:00" }, "geometry": { "type": "Point", "coordinates": [ -1.04688, 44.94248 ] } },
{ "type": "Feature", "properties": { "lat": 44.94296, "lon": -1.05255, "frp": 18.37, "fetch_timestamp": "2026-07-25T13:33:00" }, "geometry": { "type": "Point", "coordinates": [ -1.05255, 44.94296 ] } },
{ "type": "Feature", "properties": { "lat": 44.94436, "lon": -0.98701, "frp": 10.04, "fetch_timestamp": "2026-07-25T13:33:00" }, "geometry": { "type": "Point", "coordinates": [ -0.98701, 44.94436 ] } },
{ "type": "Feature", "properties": { "lat": 44.94463, "lon": -1.07461, "frp": 9.02, "fetch_timestamp": "2026-07-25T13:33:00" }, "geometry": { "type": "Point", "coordinates": [ -1.07461, 44.94463 ] } },
{ "type": "Feature", "properties": { "lat": 44.94523, "lon": -1.05465, "frp": 12.97, "fetch_timestamp": "2026-07-25T13:33:00" }, "geometry": { "type": "Point", "coordinates": [ -1.05465, 44.94523 ] } },
{ "type": "Feature", "properties": { "lat": 44.94567, "lon": -1.06035, "frp": 25.71, "fetch_timestamp": "2026-07-25T13:33:00" }, "geometry": { "type": "Point", "coordinates": [ -1.06035, 44.94567 ] } },
{ "type": "Feature", "properties": { "lat": 44.94587, "lon": -1.03475, "frp": 3.05, "fetch_timestamp": "2026-07-25T13:33:00" }, "geometry": { "type": "Point", "coordinates": [ -1.03475, 44.94587 ] } },
{ "type": "Feature", "properties": { "lat": 44.94637, "lon": -1.04033, "frp": 18.37, "fetch_timestamp": "2026-07-25T13:33:00" }, "geometry": { "type": "Point", "coordinates": [ -1.04033, 44.94637 ] } },
{ "type": "Feature", "properties": { "lat": 44.948, "lon": -1.06243, "frp": 12.97, "fetch_timestamp": "2026-07-25T13:33:00" }, "geometry": { "type": "Point", "coordinates": [ -1.06243, 44.948 ] } },
{ "type": "Feature", "properties": { "lat": 44.94863, "lon": -1.04253, "frp": 3.05, "fetch_timestamp": "2026-07-25T13:33:00" }, "geometry": { "type": "Point", "coordinates": [ -1.04253, 44.94863 ] } },
{ "type": "Feature", "properties": { "lat": 44.94909, "lon": -1.04815, "frp": 18.37, "fetch_timestamp": "2026-07-25T13:33:00" }, "geometry": { "type": "Point", "coordinates": [ -1.04815, 44.94909 ] } },
{ "type": "Feature", "properties": { "lat": 44.94989, "lon": -1.00262, "frp": 14.91, "fetch_timestamp": "2026-07-25T13:33:00" }, "geometry": { "type": "Point", "coordinates": [ -1.00262, 44.94989 ] } },
{ "type": "Feature", "properties": { "lat": 44.76453, "lon": -1.01173, "frp": 2.44, "fetch_timestamp": "2026-07-25T13:33:00" }, "geometry": { "type": "Point", "coordinates": [ -1.01173, 44.76453 ] } },
{ "type": "Feature", "properties": { "lat": 44.77412, "lon": -0.96532, "frp": 48.08, "fetch_timestamp": "2026-07-25T13:33:00" }, "geometry": { "type": "Point", "coordinates": [ -0.96532, 44.77412 ] } },
{ "type": "Feature", "properties": { "lat": 44.77567, "lon": -1.21063, "frp": 4.49, "fetch_timestamp": "2026-07-25T13:33:00" }, "geometry": { "type": "Point", "coordinates": [ -1.21063, 44.77567 ] } },
{ "type": "Feature", "properties": { "lat": 44.77635, "lon": -1.20543, "frp": 3.65, "fetch_timestamp": "2026-07-25T13:33:00" }, "geometry": { "type": "Point", "coordinates": [ -1.20543, 44.77635 ] } },
{ "type": "Feature", "properties": { "lat": 44.77908, "lon": -1.21152, "frp": 4.49, "fetch_timestamp": "2026-07-25T13:33:00" }, "geometry": { "type": "Point", "coordinates": [ -1.21152, 44.77908 ] } },
{ "type": "Feature", "properties": { "lat": 44.77976, "lon": -1.20632, "frp": 3.65, "fetch_timestamp": "2026-07-25T13:33:00" }, "geometry": { "type": "Point", "coordinates": [ -1.20632, 44.77976 ] } },
{ "type": "Feature", "properties": { "lat": 44.78374, "lon": -1.12111, "frp": 9.42, "fetch_timestamp": "2026-07-25T13:33:00" }, "geometry": { "type": "Point", "coordinates": [ -1.12111, 44.78374 ] } },
{ "type": "Feature", "properties": { "lat": 44.78442, "lon": -1.11588, "frp": 9.42, "fetch_timestamp": "2026-07-25T13:33:00" }, "geometry": { "type": "Point", "coordinates": [ -1.11588, 44.78442 ] } },
{ "type": "Feature", "properties": { "lat": 44.79029, "lon": -0.98739, "frp": 4.98, "fetch_timestamp": "2026-07-25T13:33:00" }, "geometry": { "type": "Point", "coordinates": [ -0.98739, 44.79029 ] } },
{ "type": "Feature", "properties": { "lat": 44.80814, "lon": -0.98648, "frp": 6.39, "fetch_timestamp": "2026-07-25T13:33:00" }, "geometry": { "type": "Point", "coordinates": [ -0.98648, 44.80814 ] } },
{ "type": "Feature", "properties": { "lat": 44.82121, "lon": -0.99524, "frp": 5.7, "fetch_timestamp": "2026-07-25T13:33:00" }, "geometry": { "type": "Point", "coordinates": [ -0.99524, 44.82121 ] } },
{ "type": "Feature", "properties": { "lat": 44.84111, "lon": -0.97849, "frp": 4.87, "fetch_timestamp": "2026-07-25T13:33:00" }, "geometry": { "type": "Point", "coordinates": [ -0.97849, 44.84111 ] } },
{ "type": "Feature", "properties": { "lat": 44.85421, "lon": -1.01447, "frp": 5.51, "fetch_timestamp": "2026-07-25T13:33:00" }, "geometry": { "type": "Point", "coordinates": [ -1.01447, 44.85421 ] } },
{ "type": "Feature", "properties": { "lat": 44.85833, "lon": -1.01007, "frp": 6.05, "fetch_timestamp": "2026-07-25T13:33:00" }, "geometry": { "type": "Point", "coordinates": [ -1.01007, 44.85833 ] } },
{ "type": "Feature", "properties": { "lat": 44.86865, "lon": -1.09413, "frp": 3.73, "fetch_timestamp": "2026-07-25T13:33:00" }, "geometry": { "type": "Point", "coordinates": [ -1.09413, 44.86865 ] } },
{ "type": "Feature", "properties": { "lat": 44.87002, "lon": -1.11074, "frp": 3.66, "fetch_timestamp": "2026-07-25T13:33:00" }, "geometry": { "type": "Point", "coordinates": [ -1.11074, 44.87002 ] } },
{ "type": "Feature", "properties": { "lat": 44.87165, "lon": -1.11368, "frp": 6.65, "fetch_timestamp": "2026-07-25T13:33:00" }, "geometry": { "type": "Point", "coordinates": [ -1.11368, 44.87165 ] } },
{ "type": "Feature", "properties": { "lat": 44.93467, "lon": -1.09179, "frp": 12.96, "fetch_timestamp": "2026-07-25T13:33:00" }, "geometry": { "type": "Point", "coordinates": [ -1.09179, 44.93467 ] } }
]
}
