{"type": "FeatureCollection", "name": "zone_active", "crs": {"type": "name", "properties": {"name": "urn:ogc:def:crs:OGC:1.3:CRS84"}}, "features": [{"type": "Feature", "properties": {"nb_detections_cluster": 33, "frp_max": 202.48, "frp_moyen": 80.58, "derniere_detection": "2026-07-22T14:12:00", "fetch_timestamp": "2026-07-22T14:12:00"}, "geometry": {"type": "Polygon", "coordinates": [[[-1.04139, 44.9005], [-1.03975, 44.90479], [-1.03353, 44.90057], [-1.03227, 44.90112], [-1.0319, 44.90482], [-1.02732, 44.90197], [-1.02404, 44.90485], [-1.02237, 44.90282], [-1.01779, 44.90071], [-1.02407, 44.89822], [-1.02566, 44.90063], [-1.03115, 44.89782], [-1.0257, 44.89401], [-1.01784, 44.89407], [-1.01615, 44.89162], [-1.01782, 44.88744], [-1.02405, 44.89159], [-1.0257, 44.88738], [-1.03187, 44.88493], [-1.03359, 44.88731], [-1.03188, 44.89156], [-1.03354, 44.89394], [-1.03977, 44.88491], [-1.04762, 44.88488], [-1.04933, 44.88718], [-1.0493, 44.8938], [-1.04762, 44.89812], [-1.03973, 44.89816], [-1.04139, 44.9005]]]}}]}