{
"type": "FeatureCollection",
"name": "zone_active_points",
"crs": { "type": "name", "properties": { "name": "urn:ogc:def:crs:OGC:1.3:CRS84" } },
"features": [
{ "type": "Feature", "properties": { "lat": 44.89697, "lon": -1.03611, "frp": 83.34, "fetch_timestamp": "2026-07-22T14:12:00" }, "geometry": { "type": "Point", "coordinates": [ -1.03611, 44.89697 ] } },
{ "type": "Feature", "properties": { "lat": 44.89782, "lon": -1.03115, "frp": 126.53, "fetch_timestamp": "2026-07-22T14:12:00" }, "geometry": { "type": "Point", "coordinates": [ -1.03115, 44.89782 ] } },
{ "type": "Feature", "properties": { "lat": 44.90112, "lon": -1.03227, "frp": 48.27, "fetch_timestamp": "2026-07-22T14:12:00" }, "geometry": { "type": "Point", "coordinates": [ -1.03227, 44.90112 ] } },
{ "type": "Feature", "properties": { "lat": 44.90197, "lon": -1.02732, "frp": 48.27, "fetch_timestamp": "2026-07-22T14:12:00" }, "geometry": { "type": "Point", "coordinates": [ -1.02732, 44.90197 ] } },
{ "type": "Feature", "properties": { "lat": 44.90282, "lon": -1.02237, "frp": 19.33, "fetch_timestamp": "2026-07-22T14:12:00" }, "geometry": { "type": "Point", "coordinates": [ -1.02237, 44.90282 ] } },
{ "type": "Feature", "properties": { "lat": 44.88488, "lon": -1.04762, "frp": 29.08, "fetch_timestamp": "2026-07-22T14:12:00" }, "geometry": { "type": "Point", "coordinates": [ -1.04762, 44.88488 ] } },
{ "type": "Feature", "properties": { "lat": 44.88491, "lon": -1.03977, "frp": 45.53, "fetch_timestamp": "2026-07-22T14:12:00" }, "geometry": { "type": "Point", "coordinates": [ -1.03977, 44.88491 ] } },
{ "type": "Feature", "properties": { "lat": 44.88493, "lon": -1.03187, "frp": 45.53, "fetch_timestamp": "2026-07-22T14:12:00" }, "geometry": { "type": "Point", "coordinates": [ -1.03187, 44.88493 ] } },
{ "type": "Feature", "properties": { "lat": 44.88718, "lon": -1.04933, "frp": 108.63, "fetch_timestamp": "2026-07-22T14:12:00" }, "geometry": { "type": "Point", "coordinates": [ -1.04933, 44.88718 ] } },
{ "type": "Feature", "properties": { "lat": 44.88731, "lon": -1.03359, "frp": 143.96, "fetch_timestamp": "2026-07-22T14:12:00" }, "geometry": { "type": "Point", "coordinates": [ -1.03359, 44.88731 ] } },
{ "type": "Feature", "properties": { "lat": 44.88738, "lon": -1.0257, "frp": 143.96, "fetch_timestamp": "2026-07-22T14:12:00" }, "geometry": { "type": "Point", "coordinates": [ -1.0257, 44.88738 ] } },
{ "type": "Feature", "properties": { "lat": 44.88744, "lon": -1.01782, "frp": 17.04, "fetch_timestamp": "2026-07-22T14:12:00" }, "geometry": { "type": "Point", "coordinates": [ -1.01782, 44.88744 ] } },
{ "type": "Feature", "properties": { "lat": 44.89156, "lon": -1.03188, "frp": 195.84, "fetch_timestamp": "2026-07-22T14:12:00" }, "geometry": { "type": "Point", "coordinates": [ -1.03188, 44.89156 ] } },
{ "type": "Feature", "properties": { "lat": 44.89159, "lon": -1.02405, "frp": 36.45, "fetch_timestamp": "2026-07-22T14:12:00" }, "geometry": { "type": "Point", "coordinates": [ -1.02405, 44.89159 ] } },
{ "type": "Feature", "properties": { "lat": 44.89162, "lon": -1.01615, "frp": 36.45, "fetch_timestamp": "2026-07-22T14:12:00" }, "geometry": { "type": "Point", "coordinates": [ -1.01615, 44.89162 ] } },
{ "type": "Feature", "properties": { "lat": 44.8938, "lon": -1.0493, "frp": 112.46, "fetch_timestamp": "2026-07-22T14:12:00" }, "geometry": { "type": "Point", "coordinates": [ -1.0493, 44.8938 ] } },
{ "type": "Feature", "properties": { "lat": 44.89394, "lon": -1.03354, "frp": 86.12, "fetch_timestamp": "2026-07-22T14:12:00" }, "geometry": { "type": "Point", "coordinates": [ -1.03354, 44.89394 ] } },
{ "type": "Feature", "properties": { "lat": 44.89401, "lon": -1.0257, "frp": 86.12, "fetch_timestamp": "2026-07-22T14:12:00" }, "geometry": { "type": "Point", "coordinates": [ -1.0257, 44.89401 ] } },
{ "type": "Feature", "properties": { "lat": 44.89407, "lon": -1.01784, "frp": 21.93, "fetch_timestamp": "2026-07-22T14:12:00" }, "geometry": { "type": "Point", "coordinates": [ -1.01784, 44.89407 ] } },
{ "type": "Feature", "properties": { "lat": 44.89812, "lon": -1.04762, "frp": 202.48, "fetch_timestamp": "2026-07-22T14:12:00" }, "geometry": { "type": "Point", "coordinates": [ -1.04762, 44.89812 ] } },
{ "type": "Feature", "properties": { "lat": 44.89816, "lon": -1.03973, "frp": 195.84, "fetch_timestamp": "2026-07-22T14:12:00" }, "geometry": { "type": "Point", "coordinates": [ -1.03973, 44.89816 ] } },
{ "type": "Feature", "properties": { "lat": 44.89819, "lon": -1.03189, "frp": 195.84, "fetch_timestamp": "2026-07-22T14:12:00" }, "geometry": { "type": "Point", "coordinates": [ -1.03189, 44.89819 ] } },
{ "type": "Feature", "properties": { "lat": 44.89822, "lon": -1.02407, "frp": 36.45, "fetch_timestamp": "2026-07-22T14:12:00" }, "geometry": { "type": "Point", "coordinates": [ -1.02407, 44.89822 ] } },
{ "type": "Feature", "properties": { "lat": 44.9005, "lon": -1.04139, "frp": 112.46, "fetch_timestamp": "2026-07-22T14:12:00" }, "geometry": { "type": "Point", "coordinates": [ -1.04139, 44.9005 ] } },
{ "type": "Feature", "properties": { "lat": 44.90057, "lon": -1.03353, "frp": 86.12, "fetch_timestamp": "2026-07-22T14:12:00" }, "geometry": { "type": "Point", "coordinates": [ -1.03353, 44.90057 ] } },
{ "type": "Feature", "properties": { "lat": 44.90063, "lon": -1.02566, "frp": 86.12, "fetch_timestamp": "2026-07-22T14:12:00" }, "geometry": { "type": "Point", "coordinates": [ -1.02566, 44.90063 ] } },
{ "type": "Feature", "properties": { "lat": 44.90071, "lon": -1.01779, "frp": 21.93, "fetch_timestamp": "2026-07-22T14:12:00" }, "geometry": { "type": "Point", "coordinates": [ -1.01779, 44.90071 ] } },
{ "type": "Feature", "properties": { "lat": 44.90479, "lon": -1.03975, "frp": 13.46, "fetch_timestamp": "2026-07-22T14:12:00" }, "geometry": { "type": "Point", "coordinates": [ -1.03975, 44.90479 ] } },
{ "type": "Feature", "properties": { "lat": 44.90482, "lon": -1.0319, "frp": 13.46, "fetch_timestamp": "2026-07-22T14:12:00" }, "geometry": { "type": "Point", "coordinates": [ -1.0319, 44.90482 ] } },
{ "type": "Feature", "properties": { "lat": 44.90485, "lon": -1.02404, "frp": 17.65, "fetch_timestamp": "2026-07-22T14:12:00" }, "geometry": { "type": "Point", "coordinates": [ -1.02404, 44.90485 ] } }
]
}
