{
"type": "FeatureCollection",
"name": "zone_active_points",
"crs": { "type": "name", "properties": { "name": "urn:ogc:def:crs:OGC:1.3:CRS84" } },
"features": [
{ "type": "Feature", "properties": { "lat": 44.76521, "lon": -1.21151, "frp": 12.88, "fetch_timestamp": "2026-08-01T12:44:00" }, "geometry": { "type": "Point", "coordinates": [ -1.21151, 44.76521 ] } },
{ "type": "Feature", "properties": { "lat": 44.76849, "lon": -1.21679, "frp": 7.31, "fetch_timestamp": "2026-08-01T12:44:00" }, "geometry": { "type": "Point", "coordinates": [ -1.21679, 44.76849 ] } },
{ "type": "Feature", "properties": { "lat": 44.84473, "lon": -1.15971, "frp": 3.64, "fetch_timestamp": "2026-08-01T12:44:00" }, "geometry": { "type": "Point", "coordinates": [ -1.15971, 44.84473 ] } }
]
}
