{"type": "FeatureCollection", "name": "zone_active", "crs": {"type": "name", "properties": {"name": "urn:ogc:def:crs:OGC:1.3:CRS84"}}, "features": [{"type": "Feature", "properties": {"nb_detections_cluster": 4, "frp_max": 12.88, "frp_moyen": 9.4, "derniere_detection": "2026-07-31T13:23:00", "fetch_timestamp": "2026-08-01T12:44:00"}, "geometry": {"type": "Polygon", "coordinates": [[[-1.215921692066043, 44.76540408841423], [-1.216122117850861, 44.76537504709756], [-1.216553906106328, 44.76534341115043], [-1.216987967694745, 44.765342076869054], [-1.217420123065069, 44.765371057101085], [-1.21784621101192, 44.76543007279844], [-1.218262128723867, 44.76551855570286], [-1.218663871270826, 44.76563565381492], [-1.219047570151264, 44.76578023959375], [-1.219409530528802, 44.76595092080928], [-1.219746266800398, 44.76614605394191], [-1.2200545361541, 44.766363760001546], [-1.220331369793622, 44.76660194261381], [-1.22057410152924, 44.766858308199495], [-1.220780393459667, 44.767130388053374], [-1.220948258497375, 44.76741556211011], [-1.221076079520076, 44.76771108416882], [-1.22116262496332, 44.768014108333496], [-1.22120706070335, 44.76832171641498], [-1.221208958114907, 44.76863094603107], [-1.221168298225446, 44.768938819133695], [-1.221085471924724, 44.7692423706892], [-1.22096127622673, 44.769538677235005], [-1.220796906618933, 44.76982488503784], [-1.22059394557157, 44.77009823758202], [-1.220354347316767, 44.77035610212317], [-1.220080419043351, 44.77059599505097], [-1.219774798687877, 44.77081560581665], [-1.219440429535321, 44.77101281919449], [-1.219080531873895, 44.77118573566231], [-1.218698571976882, 44.771332689704444], [-1.218298228710466, 44.771452265860724], [-1.217883358089502, 44.77154331236621], [-1.217457956123134, 44.77160495225034], [-1.217026120308817, 44.77163659178811], [-1.21659201014643, 44.77163792622172], [-1.216159807053688, 44.771608942697696], [-1.215733674069917, 44.77154992039061], [-1.215317715737289, 44.77146142781274], [-1.214915938546919, 44.77134431733527], [-1.21453221233167, 44.77119971697421], [-1.214170232978377, 44.77102901952007], [-1.213833486819315, 44.7708338691165], [-1.213525217046401, 44.77061614541727], [-1.213248392472036, 44.77037794547466], [-1.21300567893757, 44.77012156353387], [-1.212799413644833, 44.76984946892863], [-1.212631582657681, 44.76956428229117], [-1.212503801789858, 44.769268750305855], [-1.212417301062685, 44.768965719250154], [-1.212372912881505, 44.76865810757804], [-1.212371064043917, 44.76834887780973], [-1.212378062911322, 44.7682959459336], [-1.212177624786327, 44.768324980509504], [-1.211745811183328, 44.76835659944093], [-1.211311726209824, 44.76835791319452], [-1.210879551040867, 44.76832890911601], [-1.210453448446765, 44.76826986657796], [-1.210037522676911, 44.768181354287485], [-1.209635779908702, 44.768064224805684], [-1.209252089643374, 44.76791960633159], [-1.208890147421421, 44.76774889183017], [-1.208553439217402, 44.76755372560926], [-1.208245207857602, 44.76733598747496], [-1.207968421784386, 44.767097774618556], [-1.207725746468242, 44.76684138140963], [-1.20751951874288, 44.766569277290415], [-1.207351724310327, 44.76628408298475], [-1.207223978632278, 44.76598854525077], [-1.207137511391172, 44.76568551042137], [-1.207093154669902, 44.76537789698677], [-1.207091334963149, 44.76506866748413], [-1.207132069096325, 44.76476079996477], [-1.207214964090411, 44.76445725931374], [-1.207339220972958, 44.76416096869819], [-1.207503642497547, 44.763874781419425], [-1.207706644696386, 44.76360145343927], [-1.207946272153949, 44.7633436168456], [-1.208220216853806, 44.763103754511945], [-1.208525840416569, 44.762884176194966], [-1.208860199514391, 44.76268699629997], [-1.209220074217038, 44.76251411352755], [-1.209601998996564, 44.76236719259787], [-1.210002296092152, 44.76224764822743], [-1.210417110914226, 44.76215663151274], [-1.210842449147419, 44.76209501885162], [-1.211274215195792, 44.762063403508506], [-1.211708251600935, 44.762062089904774], [-1.212140379054251, 44.76209109068898], [-1.212566436619118, 44.76215012661516], [-1.212982321776591, 44.76223862923025], [-1.213384029909982, 44.762355746344994], [-1.213767692849056, 44.76250035023564], [-1.214129616103449, 44.762671048497616], [-1.214466314427513, 44.76286619744719], [-1.214774545374645, 44.76308391794197], [-1.215051340518342, 44.76332211346855], [-1.215294034039538, 44.76357849032334], [-1.215500288404915, 44.763850579692566], [-1.215668116888686, 44.76413576141924], [-1.215795902720586, 44.76443128922858], [-1.215882414675085, 44.764734317169165], [-1.215926818950981, 44.765041927015474], [-1.215928687226094, 44.76535115636823], [-1.215921692066043, 44.76540408841423]]]}}, {"type": "Feature", "properties": {"nb_detections_cluster": 1, "frp_max": 3.64, "frp_moyen": 3.64, "derniere_detection": "2026-08-01T12:44:00", "fetch_timestamp": "2026-08-01T12:44:00"}, "geometry": {"type": "Polygon", "coordinates": [[[-1.155286748472337, 44.844895837068506], [-1.155285211375007, 44.84458659849928], [-1.155326287085524, 44.8442787418376], [-1.155409579333522, 44.843975231863624], [-1.155534285319286, 44.8436789914488], [-1.155699203470136, 44.843392873410586], [-1.155902745034734, 44.84311963304381], [-1.15614294940281, 44.84286190159233], [-1.156417503002047, 44.84262216091692], [-1.15672376158952, 44.84240271960255], [-1.157058775722651, 44.842205690735035], [-1.157419319164133, 44.84203297156059], [-1.157801919947292, 44.84188622522388], [-1.158202893802884, 44.841766864760146], [-1.158618379625809, 44.84167603949502], [-1.159044376640749, 44.84161462398277], [-1.15947678290952, 44.841583209589515], [-1.159911434810164, 44.84158209880168], [-1.160344147108517, 44.841611302314924], [-1.160770753237351, 44.84167053893119], [-1.161187145396241, 44.84175923826505], [-1.161589314086952, 44.841876546233], [-1.161973386704596, 44.842021333273514], [-1.162335664813735, 44.842192205218396], [-1.162672659751202, 44.84238751671143], [-1.162981126213347, 44.84260538704494], [-1.163258093504626, 44.84284371826252], [-1.163500894146824, 44.843100215353765], [-1.163707189573397, 44.84337240834687], [-1.163874992661256, 44.84365767608674], [-1.16400268688267, 44.843953271470006], [-1.164089041892214, 44.844256347894245], [-1.164133225397967, 44.84456398666668], [-1.164134811201762, 44.84487322510918], [-1.164093783330095, 44.8451810850883], [-1.164010536214916, 44.84548460169641], [-1.163885870921509, 44.84578085180718], [-1.163720987458767, 44.84606698223042], [-1.16351747324499, 44.84634023719546], [-1.163277287839366, 44.8465979848974], [-1.163002744085498, 44.84683774285098], [-1.162696485847958, 44.847057201807196], [-1.162361462555877, 44.84725424800231], [-1.162000900798534, 44.84742698352423], [-1.161618273246472, 44.84757374460003], [-1.161217265197649, 44.84769311762806], [-1.160801739071192, 44.84778395279988], [-1.160375697191261, 44.84784537518046], [-1.159943243220176, 44.8478767931398], [-1.159508542613067, 44.84787790405439], [-1.159075782475864, 44.847848697223704], [-1.158649131214212, 44.84778945397328], [-1.158232698362965, 44.847700744943516], [-1.157830494984142, 44.84758342459052], [-1.157446395015679, 44.847438622951756], [-1.157084097944089, 44.8472677347564], [-1.156747093161253, 44.84707240598521], [-1.156438626349175, 44.846854518009835], [-1.156161668216848, 44.84661616946464], [-1.155918885890509, 44.846359656025946], [-1.15571261723284, 44.84608744829375], [-1.155544848338212, 44.84580216798957], [-1.155417194420331, 44.845506562699605], [-1.155330884275778, 44.84520347940703], [-1.155286748472337, 44.844895837068506]]]}}]}