{"type": "FeatureCollection", "name": "zone_active", "crs": {"type": "name", "properties": {"name": "urn:ogc:def:crs:OGC:1.3:CRS84"}}, "features": [{"type": "Feature", "properties": {"nb_detections_cluster": 34, "frp_max": 108.72, "frp_moyen": 31.72, "derniere_detection": "2026-07-23T12:32:00", "fetch_timestamp": "2026-07-23T12:32:00"}, "geometry": {"type": "Polygon", "coordinates": [[[-1.137847126385117, 44.80988833773157], [-1.138012035421386, 44.80960224917612], [-1.138215540600442, 44.809329044303816], [-1.138455681663166, 44.809071354016645], [-1.138730145647518, 44.80883165977894], [-1.139036289174094, 44.80861226972841], [-1.139371163908736, 44.80841529645721], [-1.139731544956768, 44.80824263667612], [-1.14011396191543, 44.80809595295792], [-1.140514732285604, 44.80797665773486], [-1.1409299969215, 44.80788589970435], [-1.141355757177429, 44.80782455277327], [-1.141787913394674, 44.80779320764734], [-1.142222304358646, 44.80779216614604], [-1.142654747347301, 44.80782143829787], [-1.143081078386128, 44.807880742243874], [-1.143497192323068, 44.80796950695031], [-1.143899082338439, 44.80808687770412], [-1.144282878510329, 44.80823172433924], [-1.144644885064889, 44.80840265211364], [-1.144981615953555, 44.80859801513339], [-1.145289828415134, 44.80881593219462], [-1.145566554199923, 44.80905430489089], [-1.145809128155403, 44.809310837812326], [-1.146015213898166, 44.809583060641984], [-1.146182826324698, 44.80986835193735], [-1.146310350743807, 44.81016396436814], [-1.146396558445882, 44.8104670511676], [-1.146440618558301, 44.81077469354299], [-1.14644210607201, 44.8110839287813], [-1.146401005960929, 44.81139177877987], [-1.146317713353603, 44.81169527872709], [-1.146193029754328, 44.81199150565694], [-1.146028155349172, 44.81227760660242], [-1.145824677470022, 44.812550826076674], [-1.145584555326879, 44.81280853261653], [-1.145310101154713, 44.813048244133086], [-1.145003957955852, 44.8132676518246], [-1.14466907405186, 44.81346464242103], [-1.144308674689784, 44.813637318545744], [-1.143926230976187, 44.81378401699792], [-1.143525426438359, 44.81390332477908], [-1.143110121535137, 44.81399409270923], [-1.142684316459659, 44.81405544650102], [-1.142252112593035, 44.81408679518508], [-1.141817672980989, 44.81408783680523], [-1.141385182215085, 44.81405856132836], [-1.140958806105888, 44.81399925074121], [-1.140542651537485, 44.8139104763328], [-1.140140726891002, 44.81379309318893], [-1.139756903419205, 44.813648231951866], [-1.139394877945065, 44.81347728792481], [-1.139058137244213, 44.81328190762622], [-1.13874992445492, 44.81306397292399], [-1.138473207839481, 44.81282558290246], [-1.138230652198044, 44.812569033637395], [-1.138024593210218, 44.81229679607378], [-1.137857014951339, 44.81201149222031], [-1.137729530799554, 44.811715869889895], [-1.13764336791703, 44.81141277622973], [-1.137599355453989, 44.8111051302962], [-1.137597916588355, 44.81079589493904], [-1.137639064476683, 44.8104880482655], [-1.137722402154378, 44.810184554959406], [-1.137847126385117, 44.80988833773157]]]}}, {"type": "Feature", "properties": {"nb_detections_cluster": 20, "frp_max": 72.97, "frp_moyen": 45.41, "derniere_detection": "2026-07-23T12:32:00", "fetch_timestamp": "2026-07-23T12:32:00"}, "geometry": {"type": "Polygon", "coordinates": [[[-1.103277210915789, 44.817467034692946], [-1.103442318145202, 44.81718099683437], [-1.103646018791878, 44.81690785471866], [-1.103886350714637, 44.81665023864336], [-1.104160999113845, 44.816410629357975], [-1.104467318834646, 44.816191334182086], [-1.104802359846646, 44.81599446479407], [-1.105162895654467, 44.81582191690433], [-1.105545454365563, 44.815675352008185], [-1.105946352116283, 44.81555618139362], [-1.106361728534661, 44.81546555255818], [-1.106787583898981, 44.81540433816472], [-1.107219817634991, 44.81537312764277], [-1.107654267781865, 44.81537222151566], [-1.108086751047788, 44.815401628508425], [-1.108513103070425, 44.81546106546374], [-1.108929218495576, 44.81554996006708], [-1.109331090489048, 44.81566745635465], [-1.10971484930219, 44.81581242295156], [-1.110076799520541, 44.81598346396058], [-1.11041345563759, 44.81617893239741], [-1.110721575611676, 44.81639694604299], [-1.110998192083187, 44.816635405560696], [-1.111240640951712, 44.816892014704514], [-1.11144658703786, 44.81716430242331], [-1.111614046582472, 44.81744964664959], [-1.111741406366122, 44.81774529954311], [-1.111827439264225, 44.81804841394729], [-1.11187131608721, 44.81835607080332], [-1.111872613590886, 44.81866530725853], [-1.111831318578886, 44.818973145198306], [-1.111747828056683, 44.81927661992695], [-1.111622945434661, 44.819572808721105], [-1.111543041736222, 44.81971127225534], [-1.111716903578939, 44.81979342191333], [-1.112053588223241, 44.8199888856209], [-1.112361735448172, 44.820206894987564], [-1.112638377631713, 44.82044535071799], [-1.112880850425841, 44.82070195660254], [-1.11308681842074, 44.820974241621556], [-1.113254297646228, 44.821259583733486], [-1.113381674693297, 44.8215552351185], [-1.113467722271042, 44.82185834863455], [-1.113511611048447, 44.82216600523139], [-1.113512917666101, 44.822475242058836], [-1.113471628839773, 44.82278308099871], [-1.113388141515265, 44.823086557345725], [-1.113263259072063, 44.82338274836087], [-1.113098183611296, 44.82366880142295], [-1.112894504401337, 44.82394196150602], [-1.112654182591435, 44.82419959771877], [-1.112379532339887, 44.824439228649524], [-1.11207319853789, 44.824658546272566], [-1.111738131343204, 44.82485543818527], [-1.111377557768692, 44.82502800796138], [-1.110994950599325, 44.82517459342436], [-1.110593994937207, 44.82529378266402], [-1.1101785526972, 44.825384427642085], [-1.109752625395633, 44.82544565525553], [-1.10932031559121, 44.8254768757503], [-1.10888578735029, 44.82547778840496], [-1.108453226118266, 44.82544838442864], [-1.108026798384503, 44.825388947045816], [-1.1076106115303, 44.825300048766785], [-1.107208674247631, 44.825182545870476], [-1.106824857910747, 44.825037570152595], [-1.106462859273578, 44.82486651801898], [-1.106126164852875, 44.82467103702931], [-1.105818017340689, 44.82445301002122], [-1.105541384370078, 44.824214536968064], [-1.105298929935018, 44.82395791474514], [-1.105092988739796, 44.82368561499999], [-1.104925543724698, 44.823400260340065], [-1.104798206984044, 44.82310459906742], [-1.104712204259786, 44.8228014787041], [-1.10466836315925, 44.82249381856349], [-1.104667105209646, 44.82218458163191], [-1.104708441824925, 44.82187674603156], [-1.104791974222778, 44.82157327633945], [-1.104916897291576, 44.82127709503875], [-1.104996819541631, 44.821138636205205], [-1.10482296336108, 44.82105647597966], [-1.104486297470934, 44.82086099026069], [-1.104178177211653, 44.82064295897381], [-1.103901569953808, 44.82040448213359], [-1.103659139443734, 44.82014785665177], [-1.103453220155315, 44.81987555420732], [-1.103285794817893, 44.819590197433655], [-1.103158475336326, 44.819294534653174], [-1.103072487286416, 44.81899141340243], [-1.10302865813424, 44.818683753003356], [-1.103027409292029, 44.818374516444756], [-1.103068752086116, 44.818066681845195], [-1.103152287674789, 44.81776321377208], [-1.103277210915789, 44.817467034692946]]]}}, {"type": "Feature", "properties": {"nb_detections_cluster": 1, "frp_max": 17.75, "frp_moyen": 17.75, "derniere_detection": "2026-07-23T12:32:00", "fetch_timestamp": "2026-07-23T12:32:00"}, "geometry": {"type": "Polygon", "coordinates": [[[-1.118746863223975, 44.818247616304006], [-1.118911894011079, 44.8179615553536], [-1.119115522300906, 44.817688384767635], [-1.119355786648875, 44.81743073511784], [-1.119630372905877, 44.81719108747713], [-1.119936636515242, 44.816971749534424], [-1.120271627986687, 44.816774833380045], [-1.120632121301671, 44.816602235174756], [-1.121014644976631, 44.81645561689833], [-1.121415515485114, 44.81633639035286], [-1.121830872717329, 44.81624570357444], [-1.122256717136196, 44.816184429783846], [-1.122688948272786, 44.81615315898255], [-1.12312340419127, 44.81615219227432], [-1.123555901544268, 44.81618153896754], [-1.123982275833849, 44.81624091648547], [-1.124398421491491, 44.81632975308589], [-1.124800331392014, 44.816447193363594], [-1.125184135421909, 44.81659210648293], [-1.125546137731487, 44.816763097061724], [-1.125882852312835, 44.81695851860125], [-1.126191036561518, 44.81717648933408], [-1.126467722499204, 44.81741491033692], [-1.126710245356746, 44.81767148573459], [-1.126916269242448, 44.81794374480109], [-1.127083809648116, 44.818229065744866], [-1.12721125257577, 44.818524700949986], [-1.12729737010024, 44.81882780343028], [-1.127341332217047, 44.81913545424188], [-1.127342714860608, 44.819444690590416], [-1.127301504014597, 44.81975253436242], [-1.12721809587385, 44.82005602080609], [-1.12709329305525, 44.82035222708537], [-1.126928296893024, 44.82063830043204], [-1.126724695891736, 44.82091148562492], [-1.126484450447286, 44.82116915153092], [-1.12620987398233, 44.82140881645242], [-1.125903610677236, 44.82162817203642], [-1.125568610010593, 44.82182510551462], [-1.125208098354309, 44.821997720060544], [-1.124825547896793, 44.82214435306644], [-1.124424643193737, 44.822263592164184], [-1.124009245669009, 44.822354288835285], [-1.123583356408109, 44.82241556947881], [-1.123151077603218, 44.82244684382995], [-1.122716573022033, 44.82244781064846], [-1.122284027882014, 44.82241846062179], [-1.121857608517522, 44.82235907645474], [-1.121441422229279, 44.822270230145065], [-1.121039477703879, 44.82215277747111], [-1.120655646385446, 44.82200784974484], [-1.120293625172349, 44.821836842909846], [-1.119956900798955, 44.821641404089526], [-1.119648716246001, 44.82142341571542], [-1.119372039503513, 44.82118497738875], [-1.11912953498727, 44.82092838565043], [-1.118923537884124, 44.82065611185446], [-1.118756031673031, 44.82037077835842], [-1.118628629037889, 44.82007513326063], [-1.118542556355453, 44.81977202392739], [-1.118498641906946, 44.819464369565964], [-1.118497307926084, 44.819155133107124], [-1.118538566559116, 44.81884729266856], [-1.118622019774775, 44.818543812874026], [-1.118746863223975, 44.818247616304006]]]}}, {"type": "Feature", "properties": {"nb_detections_cluster": 3, "frp_max": 13.86, "frp_moyen": 9.75, "derniere_detection": "2026-07-23T12:32:00", "fetch_timestamp": "2026-07-23T12:32:00"}, "geometry": {"type": "Polygon", "coordinates": [[[-1.125934598469866, 44.83271093705833], [-1.126209231339962, 44.832471271923154], [-1.126515552554452, 44.83225191470968], [-1.126850612068167, 44.83205497769378], [-1.127211183207238, 44.83188235723712], [-1.127593793738648, 44.83173571553376], [-1.127994759299583, 44.83161646461137], [-1.12841021886503, 44.83152575274073], [-1.128836171912632, 44.83146445338431], [-1.129268516927614, 44.83143315678969], [-1.129703090877784, 44.83143216430904], [-1.130135709279434, 44.83146148549887], [-1.130562206469261, 44.83152083802804], [-1.130978475695549, 44.83160965039493], [-1.131380508643462, 44.831727067427664], [-1.131764434014833, 44.83187195851449], [-1.132126554791699, 44.83204292848533], [-1.132463383825499, 44.83223833103995], [-1.132771677409747, 44.83245628459376], [-1.133048466513269, 44.83269469038891], [-1.133291085373419, 44.83295125269669], [-1.133497197173908, 44.83322350091715], [-1.133664816559761, 44.83350881336327], [-1.133792328772191, 44.83380444250095], [-1.13387850521853, 44.83410754140254], [-1.133922515326541, 44.83441519115862], [-1.133923934568112, 44.834724428985055], [-1.133882748574074, 44.835032276754184], [-1.133799353299533, 44.83533576967576], [-1.133674551237063, 44.83563198485137], [-1.133509543713227, 44.83591806942715], [-1.133305919341656, 44.83619126807378], [-1.133065638743006, 44.83644894952867], [-1.132791015678233, 44.83668863194446], [-1.132484694776293, 44.836908006799625], [-1.132149626070348, 44.837104961140305], [-1.131789036587517, 44.83727759793909], [-1.131406399265756, 44.837424254373886], [-1.13100539949742, 44.83754351785092], [-1.130589899622094, 44.8376342396169], [-1.130163901711216, 44.837695545829135], [-1.129731509003637, 44.83772684597654], [-1.129296886364346, 44.83772783857044], [-1.128864220148148, 44.83769851404996], [-1.12843767785583, 44.83763915487425], [-1.128021367972375, 44.83755033280033], [-1.127619300375047, 44.83743290337312], [-1.127235347693573, 44.8372879976807], [-1.126873207995427, 44.837117011454396], [-1.126791044362655, 44.83706934376254], [-1.126764533300274, 44.83713224530183], [-1.126599486184851, 44.83741831974263], [-1.126395822775176, 44.83769150584342], [-1.126155504067943, 44.837949172462395], [-1.125880844191214, 44.83818883789505], [-1.125574488128577, 44.8384081937834], [-1.125239386251931, 44.83860512735628], [-1.124878765907978, 44.83877774178628], [-1.124496100332009, 44.83892437446672], [-1.124095075188605, 44.83904361303265], [-1.123679553061841, 44.83913430897071], [-1.12325353623755, 44.83919558868696], [-1.122821128136811, 44.83922686192556], [-1.122386493772918, 44.83922782745699], [-1.12195381961363, 44.83919847598107], [-1.121527273236241, 44.8391390902166], [-1.121110963165065, 44.83905024217669], [-1.120708899279141, 44.83893278765634], [-1.120324954172389, 44.83878785798534], [-1.119962825839257, 44.838616849126005], [-1.119626002045891, 44.83842140822123], [-1.119317726730575, 44.83820341772264], [-1.119040968757424, 44.83796497725191], [-1.118798393324428, 44.83770838337063], [-1.118592336301241, 44.83743610745345], [-1.118424781743646, 44.83715077187835], [-1.118297342800849, 44.83685512476368], [-1.118211246198915, 44.836552013495194], [-1.118167320449037, 44.836244357298774], [-1.11816598789336, 44.835935119122865], [-1.118207260663987, 44.8356272771017], [-1.118290740593088, 44.83532379587425], [-1.118415623073928, 44.83502759803482], [-1.118580704834626, 44.834741535990716], [-1.118784395548808, 44.8344683644973], [-1.119024733170477, 44.834210714135025], [-1.119299402844704, 44.83397106598364], [-1.119605759211386, 44.83375172773703], [-1.119940851886942, 44.83355481148839], [-1.120301453878262, 44.83338221339938], [-1.120684092655335, 44.83323559544872], [-1.121085083583447, 44.83311636943528], [-1.121500565393398, 44.833025683390055], [-1.121926537348708, 44.83296441052677], [-1.122358897752587, 44.83293314083795], [-1.122793483424706, 44.832932175416666], [-1.123226109768503, 44.83296152355889], [-1.123652611044204, 44.833020902673944], [-1.124068880460729, 44.833109741004236], [-1.124470909701378, 44.833227183127875], [-1.124854827503624, 44.8333720981915], [-1.12521693692232, 44.83354309079416], [-1.125299094063076, 44.83359075959628], [-1.125325605095015, 44.833527858480124], [-1.125490647268264, 44.833241786298814], [-1.125694298949938, 44.83296860225777], [-1.125934598469866, 44.83271093705833]]]}}, {"type": "Feature", "properties": {"nb_detections_cluster": 3, "frp_max": 41.02, "frp_moyen": 38.5, "derniere_detection": "2026-07-23T12:32:00", "fetch_timestamp": "2026-07-23T12:32:00"}, "geometry": {"type": "Polygon", "coordinates": [[[-1.089196007280993, 44.83722649822681], [-1.089361244265588, 44.836940479462626], [-1.089565085006744, 44.83666736142331], [-1.089805566014025, 44.83640977417441], [-1.090080371052074, 44.83617019818781], [-1.090386853457659, 44.835950940462325], [-1.090722061633892, 44.835754112315726], [-1.091082767475851, 44.83558160906121], [-1.091465497453887, 44.835435091764246], [-1.091866566055433, 44.8353159712545], [-1.09228211126366, 44.83522539454701], [-1.092708131731862, 44.835164233802686], [-1.0931405252963, 44.83513307793447], [-1.093575128457444, 44.83513222693943], [-1.094007756450363, 44.83516168901176], [-1.094434243519357, 44.835221180463755], [-1.09485048301002, 44.835310128456136], [-1.095252466893611, 44.83542767651106], [-1.095636324344095, 44.83557269275512], [-1.095998358997143, 44.83574378081304], [-1.09633508453306, 44.83593929324744], [-1.09664325824149, 44.83615734741556], [-1.096919912245088, 44.83639584359057], [-1.097162382081647, 44.836652485173346], [-1.097368332369428, 44.836924800800396], [-1.097535779308323, 44.83721016813538], [-1.097663109799787, 44.83750583911543], [-1.097749097000782, 44.83780896640974], [-1.097792912161278, 44.838116630835266], [-1.09779413263039, 44.83842586946633], [-1.097752745953143, 44.83873370416732], [-1.097669150017362, 44.8390371702736], [-1.097544149248255, 44.839333345144794], [-1.097378946886316, 44.839619376315], [-1.097175133421955, 44.839892508969044], [-1.096934671297377, 44.840150112479755], [-1.096659876022288, 44.84038970575031], [-1.096353393884732, 44.840608981117676], [-1.096018176471299, 44.84080582658613], [-1.095657452241892, 44.84097834617675], [-1.095274695432777, 44.841124878196354], [-1.094873592587627, 44.84124401124946], [-1.094458007039232, 44.84133459783898], [-1.094031941684546, 44.841395765424274], [-1.093599500412275, 44.8414269248295], [-1.093164848555331, 44.84142777592162], [-1.092732172749999, 44.841398310502775], [-1.092305640589381, 44.84133881238924], [-1.091889360460732, 44.8412498546763], [-1.091487341954484, 44.84113229421534], [-1.091103457227205, 44.840987263356546], [-1.090741403691454, 44.84081615903681], [-1.090404668392579, 44.84062062931847], [-1.090096494416119, 44.840402557508476], [-1.08981984964972, 44.84016404401162], [-1.08957739820061, 44.83990738609272], [-1.089371474743909, 44.83963505574303], [-1.089204062048617, 44.83934967586472], [-1.089076771897323, 44.83905399500261], [-1.088990829582809, 44.83875086086734], [-1.088947062130149, 44.83844319290482], [-1.088945890356835, 44.83813395417664], [-1.088987324846495, 44.837826122822165], [-1.089070965873899, 44.83752266337742], [-1.089196007280993, 44.83722649822681]]]}}, {"type": "Feature", "properties": {"nb_detections_cluster": 1, "frp_max": 10.8, "frp_moyen": 10.8, "derniere_detection": "2026-07-23T12:32:00", "fetch_timestamp": "2026-07-23T12:32:00"}, "geometry": {"type": "Polygon", "coordinates": [[[-1.106420507890123, 44.841561093700186], [-1.106624282457163, 44.8412879439207], [-1.106864705019537, 44.84103031932228], [-1.107139459904422, 44.84079070073656], [-1.107445900931268, 44.84057139557264], [-1.107781076901383, 44.840374515605106], [-1.108141760019732, 44.84020195664626], [-1.10852447697527, 44.840055380297926], [-1.108925542380654, 44.839936197958444], [-1.109341094249702, 44.839845557238235], [-1.109767131171489, 44.83978433091456], [-1.110199550823802, 44.83975310853183], [-1.110634189455926, 44.83975219072761], [-1.111066861961438, 44.83978158633937], [-1.11149340215613, 44.83984101231933], [-1.111909702874185, 44.83992989645866], [-1.112311755497473, 44.84004738289439], [-1.112695688538252, 44.84019234034643], [-1.113057804904535, 44.84036337300565], [-1.113394617490005, 44.840558833968146], [-1.113702882746293, 44.84077684108684], [-1.113979631914703, 44.841015295088056], [-1.114222199616811, 44.8412718997788], [-1.114428249528618, 44.84154418415093], [-1.114595796890773, 44.841829526169136], [-1.114723227637732, 44.84212517801452], [-1.114809313961018, 44.84242829254058], [-1.11485322615601, 44.84273595068734], [-1.114854540637276, 44.84304518958976], [-1.114813244044339, 44.84335303110966], [-1.114729733397291, 44.843656510516865], [-1.114604812299743, 44.84395270504299], [-1.114439683224644, 44.84423876203296], [-1.114235935956318, 44.84451192642302], [-1.113995532299149, 44.844769567280395], [-1.113720787199447, 44.84500920314866], [-1.113414346461719, 44.84522852595455], [-1.113079161273549, 44.84542542324548], [-1.112718459784216, 44.845597998543454], [-1.112335716010753, 44.84574458961873], [-1.111934616371097, 44.845863784506996], [-1.111519024167036, 44.845954435115665], [-1.11109294235955, 44.846015668287365], [-1.11066047499578, 44.846046894214595], [-1.110225787659967, 44.84604781212353], [-1.109793067330188, 44.846018413172715], [-1.109366482028514, 44.845958980538214], [-1.108950140654197, 44.84587008668462], [-1.10854805338776, 44.8457525878482], [-1.108164093048268, 44.845607615785596], [-1.107801957776779, 44.8454365668674], [-1.107465135406128, 44.84524108862235], [-1.107156869860721, 44.8450230638617], [-1.106880129910367, 44.84478459253708], [-1.106637580579243, 44.84452797150722], [-1.106431557485361, 44.84425567240817], [-1.106264044357477, 44.84397031784115], [-1.106136653945531, 44.84367465610734], [-1.106050612507945, 44.84337153473324], [-1.106006748024411, 44.84306387304198], [-1.106005482246833, 44.84275463403484], [-1.106046826664036, 44.84244679585398], [-1.106130382418066, 44.84214332310131], [-1.106255344171877, 44.84184713828946], [-1.106420507890123, 44.841561093700186]]]}}, {"type": "Feature", "properties": {"nb_detections_cluster": 6, "frp_max": 17.58, "frp_moyen": 13.58, "derniere_detection": "2026-07-23T12:32:00", "fetch_timestamp": "2026-07-23T12:32:00"}, "geometry": {"type": "Polygon", "coordinates": [[[-1.094290310278627, 44.8483806525415], [-1.094494168568134, 44.84810752443116], [-1.094734675948503, 44.84784992554137], [-1.095009515930196, 44.84761033645613], [-1.095316041513315, 44.847391064300396], [-1.095651300685058, 44.8471942205309], [-1.096012064849356, 44.84702170061132], [-1.09639485991491, 44.846875165767564], [-1.096795999742412, 44.84675602699829], [-1.097211621629223, 44.84666543149434], [-1.097637723490372, 44.846604251597626], [-1.098070202378487, 44.84657307640548], [-1.098504893972588, 44.84657220610108], [-1.098937612656371, 44.84660164906452], [-1.09936419180103, 44.8466611217921], [-1.099780523865719, 44.846750051624845], [-1.100182599930444, 44.84686758225976], [-1.100566548281681, 44.847012581991216], [-1.10092867167991, 44.84718365460291], [-1.101265482950958, 44.84737915280623], [-1.101573738558943, 44.84759719409545], [-1.101850469837868, 44.84783567886782], [-1.102093011581355, 44.848092310634], [-1.102299027715133, 44.84836461812507], [-1.10246653380488, 44.84864997908301], [-1.102593916182254, 44.84894564550649], [-1.102679947504345, 44.84924877010854], [-1.102723798595978, 44.84955643373208], [-1.102725046459974, 44.849865673459256], [-1.102683678377241, 44.85017351114385], [-1.102600092056235, 44.85047698209257], [-1.102475091829269, 44.850773163618406], [-1.102309880931329, 44.8510592031914], [-1.102106049934768, 44.85133234591549], [-1.101865561450401, 44.851589961066516], [-1.101590731241602, 44.85182956743559], [-1.101284205932705, 44.85204885723349], [-1.100948937525973, 44.85224571832555], [-1.100588154972369, 44.85241825458237], [-1.100205333069883, 44.85256480415025], [-1.099804158989152, 44.85268395546465], [-1.099388496749147, 44.85277456085264], [-1.09896234998559, 44.85283574759247], [-1.098529823371427, 44.852866926323834], [-1.098095083061722, 44.85286779672753], [-1.097662316544894, 44.852838350419674], [-1.097235692287946, 44.85277887103248], [-1.096819319565364, 44.852689931480846], [-1.0964172088596, 44.85257238844124], [-1.096033233215417, 44.85242737409603], [-1.095671090921187, 44.8522562852231], [-1.095620488068205, 44.852226911789764], [-1.095605073763978, 44.852263422519435], [-1.095523094169336, 44.85240532029897], [-1.095689156337213, 44.8524837743505], [-1.096025981153105, 44.852679288787506], [-1.096334245508694, 44.85289734500095], [-1.09661098065365, 44.85313584324432], [-1.096853521344243, 44.85339248689858], [-1.09705953151621, 44.85366480458024], [-1.097227026792491, 44.8539501739332], [-1.097354393608724, 44.85424584687523], [-1.097440404771699, 44.85454897605652], [-1.09748423130023, 44.85485664227595], [-1.097485450433542, 44.85516588259051], [-1.097444049729104, 44.855473718848415], [-1.097360427209424, 44.855777186369984], [-1.097235387555339, 44.856073362501206], [-1.097070134381481, 44.856359394764084], [-1.096866258667317, 44.85663252833289], [-1.09662572345432, 44.856890132571635], [-1.096350844955917, 44.8571297263765], [-1.096044270261565, 44.85734900207924], [-1.095708951849226, 44.85754584768097], [-1.095348119151563, 44.85771836720146], [-1.094965247449615, 44.85786489894815], [-1.094564024393768, 44.857984031528204], [-1.094148314474807, 44.85807461744912], [-1.093722121787792, 44.85813578417667], [-1.093289551448094, 44.85816694254329], [-1.092854770032029, 44.85816779242592], [-1.092421965424022, 44.85813832563834], [-1.091995306458029, 44.85807882601004], [-1.091578902742891, 44.8579898666509], [-1.091176765059593, 44.85787230442814], [-1.090792766712736, 44.857727271708946], [-1.090430606209327, 44.857556165448116], [-1.09009377162503, 44.857360633726664], [-1.089785507001634, 44.85714255987088], [-1.089508781099762, 44.85690404430526], [-1.089266258807934, 44.85664738431452], [-1.089060275483361, 44.85637505190991], [-1.088892814471373, 44.85608967001337], [-1.088765488019572, 44.85579398718917], [-1.088679521769987, 44.855490851166834], [-1.08863574297781, 44.85518318141049], [-1.088634572569331, 44.85487394099892], [-1.088676021114615, 44.854566108087795], [-1.088759688752657, 44.854262647228055], [-1.088884769068746, 44.85396648081776], [-1.088966767712579, 44.8538245878697], [-1.088800710970949, 44.85374612372813], [-1.088463904909681, 44.85355058730137], [-1.088155667525242, 44.85333250918749], [-1.087878967315899, 44.853093989851985], [-1.087636468922731, 44.85283732661588], [-1.087430507472799, 44.85256499152167], [-1.087263066100796, 44.85227960751719], [-1.087135756865228, 44.85198392318703], [-1.087049805242385, 44.851680786275175], [-1.087006038346668, 44.8513731162543], [-1.087004876989892, 44.851063876205785], [-1.087046331655038, 44.85075604428172], [-1.087130002422267, 44.85045258502357], [-1.087255082846827, 44.85015642081393], [-1.087420367750521, 44.84987040373606], [-1.087624264850716, 44.849597288112136], [-1.087864810114052, 44.8493397039844], [-1.088139686686262, 44.84910013179467], [-1.08844624721517, 44.84888087850525], [-1.088781539351549, 44.848684055391104], [-1.08914233418199, 44.848511557717025], [-1.089525157319989, 44.84836504649469], [-1.089926322356007, 44.848245932495296], [-1.090341966344747, 44.848155362671186], [-1.090768086988482, 44.84809420911698], [-1.091200581159038, 44.84806306067635], [-1.091635284388314, 44.848062217274915], [-1.092068010947993, 44.84809168703371], [-1.092494594133435, 44.84815118619101], [-1.092910926364864, 44.848240141833365], [-1.093312998720645, 44.848357697409256], [-1.093696939522914, 44.84850272097287], [-1.094059051604771, 44.84867381607843], [-1.0941096504404, 44.848703190189795], [-1.094125064739648, 44.8486666797098], [-1.094290310278627, 44.8483806525415]]]}}, {"type": "Feature", "properties": {"nb_detections_cluster": 1, "frp_max": 250.89, "frp_moyen": 250.89, "derniere_detection": "2026-07-23T12:32:00", "fetch_timestamp": "2026-07-23T12:32:00"}, "geometry": {"type": "Polygon", "coordinates": [[[-1.072176669725881, 44.83260585972622], [-1.072341979753453, 44.83231986674261], [-1.072545886453905, 44.83204678038434], [-1.072786425701891, 44.831789230411786], [-1.073061280701487, 44.831549696937785], [-1.073367804308625, 44.83133048655171], [-1.073703044529924, 44.83113371011546], [-1.074063772952127, 44.83096126244425], [-1.074446515828361, 44.83081480406826], [-1.07484758752203, 44.8306957452498], [-1.075263125986659, 44.83060523240988], [-1.075689129940565, 44.8305441370944], [-1.076121497379056, 44.830513047586265], [-1.076556065054158, 44.83051226324364], [-1.076988648542578, 44.83054179161885], [-1.077415082517047, 44.8306013483858], [-1.077831260834268, 44.83069036007632], [-1.078233176054371, 44.83080796959915], [-1.078616958012291, 44.830953044489036], [-1.078978911070422, 44.831124187805955], [-1.079315549694547, 44.831319751580395], [-1.079623632011002, 44.83153785267518], [-1.079900191022291, 44.83177639091156], [-1.080142563180761, 44.83203306928531], [-1.080348414045128, 44.83230541607856], [-1.080515760772602, 44.83259080865477], [-1.080642991229589, 44.832886498707936], [-1.080728879536369, 44.83318963872343], [-1.080772597895304, 44.833497309395625], [-1.080773724587814, 44.83380654773858], [-1.080732248062158, 44.83411437561932], [-1.080648567071618, 44.83441782843881], [-1.080523486860751, 44.834713983684516], [-1.080358211435377, 44.834999989079456], [-1.080154331989846, 44.83527309005661], [-1.079913811602109, 44.835530656293805], [-1.079638966343302, 44.83577020705318], [-1.079332442983162, 44.835989435081025], [-1.078997193505573, 44.83618622883755], [-1.078636446679512, 44.836358692841905], [-1.0782536769591, 44.83650516593623], [-1.077852571012538, 44.83662423729259], [-1.077436992202619, 44.8367147600082], [-1.077010943361478, 44.83677586215759], [-1.076578528218795, 44.836806955195236], [-1.07614391185579, 44.83680773962737], [-1.075711280566805, 44.836778207898185], [-1.075284801516057, 44.83671864446268], [-1.074868582579101, 44.836629623045354], [-1.074466632756798, 44.836512001111146], [-1.074082823543959, 44.836366911602376], [-1.073720851625578, 44.836195752020814], [-1.073384203260664, 44.83600017096103], [-1.073076120697213, 44.83578205222445], [-1.072799570942212, 44.83554349666779], [-1.072557217187601, 44.83528680196091], [-1.072351393167413, 44.83501444044933], [-1.072184080692833, 44.8347290353352], [-1.072056890581133, 44.834433335406366], [-1.071971047161588, 44.83413018855696], [-1.071927376506846, 44.833822514355255], [-1.071926298502238, 44.833513275922805], [-1.07196782282846, 44.833205451396026], [-1.072051548895278, 44.83290200524506], [-1.072176669725881, 44.83260585972622]]]}}, {"type": "Feature", "properties": {"nb_detections_cluster": 7, "frp_max": 250.89, "frp_moyen": 80.73, "derniere_detection": "2026-07-23T12:32:00", "fetch_timestamp": "2026-07-23T12:32:00"}, "geometry": {"type": "Polygon", "coordinates": [[[-1.06694637343529, 44.83791566119933], [-1.067111725710334, 44.83762967550992], [-1.067315677104005, 44.837356598287286], [-1.067556263060546, 44.83709905920385], [-1.067831166334237, 44.83685953826754], [-1.068137739316167, 44.83664034194702], [-1.068473029537543, 44.83644358096865], [-1.068833808103694, 44.83627114999886], [-1.069216600784971, 44.836124709406945], [-1.069617721465279, 44.836005669284006], [-1.070033307626534, 44.835915175870994], [-1.070459357527868, 44.83585410052675], [-1.070891768722251, 44.83582303134189], [-1.071326377540464, 44.83582226747884], [-1.071758999163114, 44.83585181629281], [-1.072185467895794, 44.835911393260844], [-1.072601677260552, 44.836000424720254], [-1.073003619518573, 44.83611805338945], [-1.073387424244432, 44.83626314661879], [-1.073749395581251, 44.836434307291675], [-1.074086047818746, 44.83662988727146], [-1.074394138952082, 44.83684800326488], [-1.074670701898763, 44.83708655494975], [-1.074913073073117, 44.83734324519228], [-1.075118918043204, 44.83761560216032], [-1.075286254022845, 44.8379010031193], [-1.075413468981798, 44.83819669968249], [-1.075499337189434, 44.83849984427252], [-1.075543031041522, 44.838807517539685], [-1.075544129055349, 44.83911675647303], [-1.075502619955232, 44.83942458293384], [-1.075418902808051, 44.83972803233673], [-1.075293783206482, 44.84002418220202], [-1.075128465535641, 44.84031018030455], [-1.074924541396695, 44.84058327214749], [-1.074683974298021, 44.84084082749663], [-1.074409080760641, 44.84108036571889], [-1.074102508019303, 44.84129957968136], [-1.073767208533557, 44.84149635797969], [-1.073406411554096, 44.841668805281884], [-1.073023592018184, 44.841815260590934], [-1.072622437073923, 44.84193431325025], [-1.072206810556142, 44.842024816537105], [-1.071780715756589, 44.842085898713144], [-1.071348256847706, 44.84211697142526], [-1.070913599332352, 44.842117735375474], [-1.070480929901327, 44.84208818320522], [-1.070054416086287, 44.84202859956642], [-1.069638166097673, 44.84193955837816], [-1.069236189235449, 44.84182191729586], [-1.068852357254864, 44.84167680944619], [-1.068490367060177, 44.84150563250762], [-1.068153705086372, 44.84131003524189], [-1.067845613712445, 44.84109190160651], [-1.067569060030135, 44.840853332601675], [-1.067326707269091, 44.840596626026766], [-1.067120889153639, 44.840324254341525], [-1.06695358743795, 44.84003884084619], [-1.066826412835523, 44.83974313440919], [-1.066740589526106, 44.839439982987344], [-1.066696943388519, 44.83913230619292], [-1.06669589407183, 44.83882306717243], [-1.066737450980322, 44.8385152440679], [-1.066821213209863, 44.83821180133577], [-1.06694637343529, 44.83791566119933]]]}}, {"type": "Feature", "properties": {"nb_detections_cluster": 7, "frp_max": 18.49, "frp_moyen": 11.08, "derniere_detection": "2026-07-23T12:32:00", "fetch_timestamp": "2026-07-23T12:32:00"}, "geometry": {"type": "Polygon", "coordinates": [[[-1.083634473548737, 44.85926628156228], [-1.083799803701678, 44.85898026903629], [-1.084003751482116, 44.85870715926125], [-1.08424435236854, 44.858449582223095], [-1.08451928897097, 44.858210018295324], [-1.084825913359124, 44.85799077436065], [-1.085161272568842, 44.85779396160398], [-1.085522137040863, 44.857621475190356], [-1.085905031718147, 44.857474976023], [-1.086306269502369, 44.857355874757026], [-1.086721986747836, 44.857265318222154], [-1.087148180451539, 44.857204178385054], [-1.087580746781932, 44.857173043957324], [-1.088015520576214, 44.85717221472963], [-1.088448315426716, 44.85720169868652], [-1.088874963971327, 44.8572612119296], [-1.089291358001017, 44.85735018140973], [-1.089693487999155, 44.857467750442204], [-1.090077481732861, 44.857612786951584], [-1.090439641525556, 44.85778389436751], [-1.090776479852499, 44.857979425066134], [-1.091084752917112, 44.85819749622884], [-1.0913614918851, 44.85843600796516], [-1.091604031475799, 44.85869266352609], [-1.0918100356354, 44.858964991413515], [-1.091977520044598, 44.859250369173], [-1.092104871243527, 44.85954604864128], [-1.092190862189216, 44.859849182405775], [-1.092234664095024, 44.860156851221085], [-1.09223585443716, 44.86046609211927], [-1.092194421050235, 44.86077392694277], [-1.092110762271391, 44.86107739102579], [-1.091985683130578, 44.8613735617474], [-1.091820387622647, 44.86165958668161], [-1.091616467134732, 44.86193271107327], [-1.091375885139509, 44.86219030437477], [-1.091100958300978, 44.86242988558756], [-1.090794334174201, 44.86264914716473], [-1.090458965713295, 44.86284597724334], [-1.090098082833034, 44.863018479992704], [-1.08971516129788, 44.86316499388183], [-1.089313889238291, 44.86328410768984], [-1.088898131617144, 44.86337467410503], [-1.088471892989059, 44.86343582078104], [-1.088039278912003, 44.863466958743466], [-1.087604456383656, 44.86346778806577], [-1.087171613684508, 44.8634383007598], [-1.086744920015465, 44.86337878085266], [-1.086328485319668, 44.863289801649564], [-1.08592632067652, 44.86317222020888], [-1.08554229965029, 44.86302716908286], [-1.085180120966395, 44.86285604540363], [-1.084843272875553, 44.86266049741995], [-1.084534999549563, 44.862442408614754], [-1.084258269832765, 44.862203879556475], [-1.084015748650305, 44.861947207659796], [-1.083809771348573, 44.86167486505062], [-1.083642321214742, 44.861389474749096], [-1.083515010391494, 44.86109378540049], [-1.083429064370187, 44.860790644797085], [-1.08338531021104, 44.86048297244711], [-1.083384168602971, 44.86017373145431], [-1.083425649838543, 44.85986589997986], [-1.083509353741816, 44.85956244256089], [-1.083634473548737, 44.85926628156228]]]}}, {"type": "Feature", "properties": {"nb_detections_cluster": 2, "frp_max": 16.97, "frp_moyen": 13.33, "derniere_detection": "2026-07-23T12:32:00", "fetch_timestamp": "2026-07-23T12:32:00"}, "geometry": {"type": "Polygon", "coordinates": [[[-1.073193881272298, 44.869865885345945], [-1.073359295813467, 44.86957988740242], [-1.073563332871728, 44.86930679588479], [-1.073804027065783, 44.86904924060311], [-1.074079060107118, 44.86880970172134], [-1.074385783136818, 44.86859048588096], [-1.074721242240935, 44.86839370399627], [-1.075082206898406, 44.868221250935036], [-1.075465201087621, 44.868074787279326], [-1.0758665367522, 44.86795572334226], [-1.076282349304127, 44.8678652055941], [-1.076708634822865, 44.86780410562806], [-1.077141288592955, 44.86777301177179], [-1.077576144609798, 44.86777222342531], [-1.078009015674145, 44.86780174817951], [-1.078435733690129, 44.86786130174319], [-1.078852189779845, 44.86795031067896], [-1.079254373829112, 44.86806791792216], [-1.079638413084567, 44.86821299102948], [-1.080000609431222, 44.86838413307804], [-1.080337474992237, 44.868579696110594], [-1.080645765708623, 44.86879779699708], [-1.080922512575905, 44.869036335560814], [-1.081165050237115, 44.869293014794415], [-1.081371042656752, 44.86956536297175], [-1.081538505628272, 44.86985075744295], [-1.081665825897947, 44.8701464498838], [-1.081751776720351, 44.87044959275669], [-1.081795529694933, 44.870757266728454], [-1.081796662768842, 44.87106650878144], [-1.081755164327944, 44.8713743407469], [-1.081671433335665, 44.87167779798648], [-1.081546275517232, 44.87197395794506], [-1.081380895625086, 44.87225996830032], [-1.081176885858973, 44.87253307443743], [-1.080936210551367, 44.8727906459845], [-1.080661187264988, 44.87303020215254], [-1.080354464483871, 44.87324943563574], [-1.080018996112414, 44.873446234841765], [-1.079658013027817, 44.87361870423725], [-1.079274991959836, 44.8737651826124], [-1.078873621997785, 44.87388425908843], [-1.078457769047712, 44.8739747867132], [-1.078031438582633, 44.87403589351397], [-1.077598737045271, 44.874066990900396], [-1.077163832275892, 44.87406777933684], [-1.076730913347281, 44.87403825122893], [-1.076304150194699, 44.87397869099676], [-1.075887653430624, 44.873889672333966], [-1.075485434732334, 44.87377205267901], [-1.075101368184732, 44.87362696495222], [-1.074739152951628, 44.87345580663827], [-1.074402277635659, 44.87326022631947], [-1.074093986670689, 44.873042107790155], [-1.073817249070746, 44.87280355190507], [-1.073574729836662, 44.87254685633722], [-1.073368764295792, 44.87227449344045], [-1.073201335621745, 44.87198908643028], [-1.073074055750215, 44.87169338411282], [-1.072988149874152, 44.87139023440522], [-1.072944444666841, 44.87108255690326], [-1.072943360345469, 44.87077331476035], [-1.07298490665063, 44.87046548614859], [-1.073068682779508, 44.8701620355775], [-1.073193881272298, 44.869865885345945]]]}}, {"type": "Feature", "properties": {"nb_detections_cluster": 5, "frp_max": 76.63, "frp_moyen": 42.26, "derniere_detection": "2026-07-23T12:32:00", "fetch_timestamp": "2026-07-23T12:32:00"}, "geometry": {"type": "Polygon", "coordinates": [[[-1.014863422952928, 44.89076368498482], [-1.015029196241865, 44.89047777213226], [-1.015233593001392, 44.89020478607503], [-1.015474644386662, 44.889947355607376], [-1.015750028669967, 44.889707959691], [-1.016057093610655, 44.88948890359051], [-1.016392882003018, 44.889292296681845], [-1.016754160155892, 44.88912003214769], [-1.017137449029688, 44.8889737687546], [-1.017539057731208, 44.8888549148873], [-1.017955119044046, 44.88876461499322], [-1.018381626652974, 44.88870373856778], [-1.018814473704565, 44.888672871786206], [-1.019249492333538, 44.88867231186201], [-1.019682493775121, 44.88870206418665], [-1.020109308678162, 44.888761842277624], [-1.020525827231771, 44.8888510705356], [-1.020928038720069, 44.888968889784046], [-1.021312070125079, 44.88911416553817], [-1.021674223406854, 44.88928549892376], [-1.022011011102534, 44.88948124014098], [-1.022319189902106, 44.88969950434391], [-1.022595791877879, 44.88993818978296], [-1.022838153067151, 44.890194998036264], [-1.023043939132785, 44.890467456135], [-1.023211167854384, 44.89075294037049], [-1.023338228233073, 44.89104870155381], [-1.023423896025299, 44.891351891484966], [-1.023467345555368, 44.891659590377294], [-1.023468157692042, 44.89196883497275], [-1.023426323911465, 44.89227664707778], [-1.023342246406246, 44.89258006224486], [-1.023216734238636, 44.89287615832373], [-1.023050995573784, 44.893162083606946], [-1.022846626066973, 44.89343508429869], [-1.022605593515746, 44.89369253104238], [-1.022330218924028, 44.893931944250745], [-1.022023154160029, 44.894151017994716], [-1.021687356422664, 44.894347642220325], [-1.021326059762225, 44.8945199230794], [-1.020942743929533, 44.894666201178], [-1.020541100853802, 44.89478506756632], [-1.020124999072421, 44.894875377315735], [-1.019698446455799, 44.89493626055206], [-1.019265551586985, 44.89496713083838], [-1.01883048416885, 44.89496769082647], [-1.018397434841105, 44.89493793512243], [-1.01797057479514, 44.894878150338606], [-1.017554015576662, 44.89478891233157], [-1.01715176946428, 44.894671080652465], [-1.016767710806551, 44.89452579026382], [-1.016405538690735, 44.894354440602235], [-1.016068741303469, 44.894158682092986], [-1.015760562327209, 44.8939404002466], [-1.015483969696436, 44.893701697490584], [-1.01524162701473, 44.89344487291237], [-1.015035867907992, 44.89317240010811], [-1.014868673560603, 44.892886903351595], [-1.014741653650459, 44.89259113231296], [-1.014656030865925, 44.8922879355709], [-1.014612629153078, 44.89198023317382], [-1.014611865805567, 44.89167098851448], [-1.014653747472307, 44.89136317978886], [-1.014737870120449, 44.89105977131462], [-1.014863422952928, 44.89076368498482]]]}}, {"type": "Feature", "properties": {"nb_detections_cluster": 3, "frp_max": 161.66, "frp_moyen": 73.39, "derniere_detection": "2026-07-23T12:32:00", "fetch_timestamp": "2026-07-23T12:32:00"}, "geometry": {"type": "Polygon", "coordinates": [[[-1.047288032002976, 44.89597893472863], [-1.047492291877243, 44.89570588886887], [-1.047733218908562, 44.895448387979], [-1.048008492566238, 44.895208911699065], [-1.048315461674414, 44.89498976606763], [-1.048651169949732, 44.89479306132287], [-1.049012384472055, 44.89462069158962], [-1.049395626814116, 44.89447431664751], [-1.049797206530441, 44.89435534595541], [-1.050213256683455, 44.894264925085686], [-1.050639771065199, 44.89420392469868], [-1.051072642756927, 44.89417293216319], [-1.051507703656077, 44.894172245903654], [-1.05194076459093, 44.89420187252796], [-1.052367655637626, 44.894261526763984], [-1.052784266252314, 44.894350634205004], [-1.053186584832948, 44.89446833683783], [-1.0535707373307, 44.89461350130061], [-1.053933024539978, 44.8947847297908], [-1.054269957708716, 44.8949803735187], [-1.054578292126504, 44.89519854857721], [-1.054855058367538, 44.89543715407528], [-1.055097590887686, 44.895693892360924], [-1.055303553700282, 44.89596629113926], [-1.055470962883164, 44.896251727273004], [-1.055598205699823, 44.89654745203659], [-1.055684056149938, 44.89685061758101], [-1.055727686798812, 44.897158304354605], [-1.055728676770916, 44.89746754921623], [-1.055687015829605, 44.89777537396999], [-1.055603104502709, 44.8980788140468], [-1.055477750251742, 44.898374947056624], [-1.0553121597206, 44.89866092093655], [-1.055107927137456, 44.8989339814229], [-1.054867018980649, 44.89919149858336], [-1.054591755055534, 44.89943099215257], [-1.054284786163953, 44.89965015542758], [-1.053949068580942, 44.89984687749218], [-1.053587835584324, 44.90001926355594], [-1.053204566311326, 44.90016565321166], [-1.052802952242362, 44.900284636435046], [-1.052386861635158, 44.90037506717212], [-1.051960302252306, 44.90043607438339], [-1.05152738274192, 44.90046707043778], [-1.051092273044206, 44.900467756775626], [-1.050659164206183, 44.90043812678602], [-1.050232227992604, 44.90037846587046], [-1.049815576683058, 44.900289348692304], [-1.04941322344347, 44.900171633638955], [-1.049029043654597, 44.90002645454957], [-1.048666737570808, 44.89985520978882], [-1.048329794669509, 44.89965954877163], [-1.048021460035125, 44.89944135606954], [-1.047744703101786, 44.89920273325163], [-1.047502189055931, 44.89894597863547], [-1.047296253174271, 44.89867356514352], [-1.04712887834403, 44.898388116478515], [-1.047001675981562, 44.89809238184755], [-1.046915870532554, 44.89778920947888], [-1.046872287702337, 44.897481519186385], [-1.046871346528798, 44.89717227424644], [-1.046913055373278, 44.89686445285797], [-1.046997011867057, 44.89656101946074], [-1.047122406812881, 44.896264896188036], [-1.047288032002976, 44.89597893472863]]]}}, {"type": "Feature", "properties": {"nb_detections_cluster": 2, "frp_max": 11.27, "frp_moyen": 9.04, "derniere_detection": "2026-07-23T12:32:00", "fetch_timestamp": "2026-07-23T12:32:00"}, "geometry": {"type": "Polygon", "coordinates": [[[-1.013118323528485, 44.90332769781456], [-1.013322776385997, 44.9030547141869], [-1.013563891732176, 44.902797286840865], [-1.013839347223244, 44.90255789470819], [-1.01414648993275, 44.90233884301694], [-1.014482361906062, 44.90214224110064], [-1.01484372864718, 44.90196998209384], [-1.015227110263515, 44.90182372470991], [-1.015628814968916, 44.901704877275684], [-1.016044974622656, 44.90161458417664], [-1.016471581962717, 44.9015537148428], [-1.016904529175517, 44.90152285538105], [-1.017339647431488, 44.90152230293447], [-1.017772747006719, 44.90155206282248], [-1.018199657605285, 44.90161184848976], [-1.018616268494983, 44.901701084264054], [-1.019018568070934, 44.90181891089642], [-1.019402682467036, 44.90196419383097], [-1.01976491284424, 44.90213553412437], [-1.020101770997311, 44.90233128191029], [-1.020410012937723, 44.9025495522795], [-1.020686670129669, 44.90278824342307], [-1.020929078078593, 44.903045056864194], [-1.021134901996883, 44.90331751958408], [-1.021302159299393, 44.90360300782953], [-1.021429238711747, 44.903898772373026], [-1.021514915806803, 44.90420196498218], [-1.021558364818965, 44.904509665844564], [-1.021559166621661, 44.90481891168311], [-1.021517312790235, 44.905126724292295], [-1.021433205710089, 44.90543013921973], [-1.021307654728007, 44.90572623431748], [-1.021141868382698, 44.90601215788745], [-1.020937442788427, 44.9062851561504], [-1.020696346282738, 44.90654259977308], [-1.02042090048538, 44.90678200919828], [-1.020113757950283, 44.90700107853338], [-1.019777876625372, 44.90719769776681], [-1.019416491366027, 44.90736997309852], [-1.01903308277648, 44.907516245187786], [-1.018631343679448, 44.907635105142695], [-1.01821514353731, 44.90772540809654], [-1.017788491168029, 44.90778628424062], [-1.017355496115636, 44.90781714720634], [-1.016920329048147, 44.90781769971597], [-1.016487181565274, 44.90778793644765], [-1.016060225804002, 44.907728144086605], [-1.015643574232115, 44.90763889856233], [-1.015241240017883, 44.907521059498464], [-1.014857098358541, 44.907375761928606], [-1.014494849140847, 44.90720440535855], [-1.014157981294065, 44.90700864028012], [-1.013849739179246, 44.90679035226707], [-1.013573091338898, 44.906551643806374], [-1.013330701908202, 44.90629481404034], [-1.013124904963125, 44.906022336615116], [-1.012957682052245, 44.90573683584899], [-1.012830643128289, 44.9054410614507], [-1.012745011062452, 44.90513786203127], [-1.012701609889882, 44.90483015766492], [-1.012700856898704, 44.90452091176333], [-1.012742758637773, 44.90421310253448], [-1.012826910880625, 44.903909694300786], [-1.012952502544896, 44.90361360895304], [-1.013118323528485, 44.90332769781456]]]}}]}