{
"type": "FeatureCollection",
"name": "zone_active_points",
"crs": { "type": "name", "properties": { "name": "urn:ogc:def:crs:OGC:1.3:CRS84" } },
"features": [
{ "type": "Feature", "properties": { "lat": 44.81498, "lon": -1.12425, "frp": 0.84, "fetch_timestamp": "2026-07-23T14:12:00" }, "geometry": { "type": "Point", "coordinates": [ -1.12425, 44.81498 ] } },
{ "type": "Feature", "properties": { "lat": 44.81509, "lon": -1.13093, "frp": 1.07, "fetch_timestamp": "2026-07-23T14:12:00" }, "geometry": { "type": "Point", "coordinates": [ -1.13093, 44.81509 ] } },
{ "type": "Feature", "properties": { "lat": 44.8152, "lon": -1.13766, "frp": 1.07, "fetch_timestamp": "2026-07-23T14:12:00" }, "geometry": { "type": "Point", "coordinates": [ -1.13766, 44.8152 ] } },
{ "type": "Feature", "properties": { "lat": 44.81531, "lon": -1.14439, "frp": 1.48, "fetch_timestamp": "2026-07-23T14:12:00" }, "geometry": { "type": "Point", "coordinates": [ -1.14439, 44.81531 ] } },
{ "type": "Feature", "properties": { "lat": 44.81541, "lon": -1.15109, "frp": 1.48, "fetch_timestamp": "2026-07-23T14:12:00" }, "geometry": { "type": "Point", "coordinates": [ -1.15109, 44.81541 ] } },
{ "type": "Feature", "properties": { "lat": 44.81553, "lon": -1.15774, "frp": 2.36, "fetch_timestamp": "2026-07-23T14:12:00" }, "geometry": { "type": "Point", "coordinates": [ -1.15774, 44.81553 ] } },
{ "type": "Feature", "properties": { "lat": 44.8157, "lon": -1.1116, "frp": 1.5, "fetch_timestamp": "2026-07-23T14:12:00" }, "geometry": { "type": "Point", "coordinates": [ -1.1116, 44.8157 ] } },
{ "type": "Feature", "properties": { "lat": 44.81584, "lon": -1.11834, "frp": 1.5, "fetch_timestamp": "2026-07-23T14:12:00" }, "geometry": { "type": "Point", "coordinates": [ -1.11834, 44.81584 ] } },
{ "type": "Feature", "properties": { "lat": 44.81599, "lon": -1.12503, "frp": 6.04, "fetch_timestamp": "2026-07-23T14:12:00" }, "geometry": { "type": "Point", "coordinates": [ -1.12503, 44.81599 ] } },
{ "type": "Feature", "properties": { "lat": 44.81613, "lon": -1.13171, "frp": 6.04, "fetch_timestamp": "2026-07-23T14:12:00" }, "geometry": { "type": "Point", "coordinates": [ -1.13171, 44.81613 ] } },
{ "type": "Feature", "properties": { "lat": 44.81627, "lon": -1.13843, "frp": 34.56, "fetch_timestamp": "2026-07-23T14:12:00" }, "geometry": { "type": "Point", "coordinates": [ -1.13843, 44.81627 ] } },
{ "type": "Feature", "properties": { "lat": 44.81642, "lon": -1.14514, "frp": 34.56, "fetch_timestamp": "2026-07-23T14:12:00" }, "geometry": { "type": "Point", "coordinates": [ -1.14514, 44.81642 ] } },
{ "type": "Feature", "properties": { "lat": 44.81656, "lon": -1.15184, "frp": 10.37, "fetch_timestamp": "2026-07-23T14:12:00" }, "geometry": { "type": "Point", "coordinates": [ -1.15184, 44.81656 ] } },
{ "type": "Feature", "properties": { "lat": 44.81671, "lon": -1.15849, "frp": 10.37, "fetch_timestamp": "2026-07-23T14:12:00" }, "geometry": { "type": "Point", "coordinates": [ -1.15849, 44.81671 ] } },
{ "type": "Feature", "properties": { "lat": 44.81684, "lon": -1.16513, "frp": 1.88, "fetch_timestamp": "2026-07-23T14:12:00" }, "geometry": { "type": "Point", "coordinates": [ -1.16513, 44.81684 ] } },
{ "type": "Feature", "properties": { "lat": 44.82071, "lon": -1.09712, "frp": 1.45, "fetch_timestamp": "2026-07-23T14:12:00" }, "geometry": { "type": "Point", "coordinates": [ -1.09712, 44.82071 ] } },
{ "type": "Feature", "properties": { "lat": 44.82082, "lon": -1.10377, "frp": 3.39, "fetch_timestamp": "2026-07-23T14:12:00" }, "geometry": { "type": "Point", "coordinates": [ -1.10377, 44.82082 ] } },
{ "type": "Feature", "properties": { "lat": 44.82093, "lon": -1.11047, "frp": 3.39, "fetch_timestamp": "2026-07-23T14:12:00" }, "geometry": { "type": "Point", "coordinates": [ -1.11047, 44.82093 ] } },
{ "type": "Feature", "properties": { "lat": 44.82105, "lon": -1.1172, "frp": 15.22, "fetch_timestamp": "2026-07-23T14:12:00" }, "geometry": { "type": "Point", "coordinates": [ -1.1172, 44.82105 ] } },
{ "type": "Feature", "properties": { "lat": 44.82116, "lon": -1.12393, "frp": 15.22, "fetch_timestamp": "2026-07-23T14:12:00" }, "geometry": { "type": "Point", "coordinates": [ -1.12393, 44.82116 ] } },
{ "type": "Feature", "properties": { "lat": 44.82127, "lon": -1.13059, "frp": 48.46, "fetch_timestamp": "2026-07-23T14:12:00" }, "geometry": { "type": "Point", "coordinates": [ -1.13059, 44.82127 ] } },
{ "type": "Feature", "properties": { "lat": 44.82138, "lon": -1.13732, "frp": 48.46, "fetch_timestamp": "2026-07-23T14:12:00" }, "geometry": { "type": "Point", "coordinates": [ -1.13732, 44.82138 ] } },
{ "type": "Feature", "properties": { "lat": 44.82143, "lon": -1.09128, "frp": 0.67, "fetch_timestamp": "2026-07-23T14:12:00" }, "geometry": { "type": "Point", "coordinates": [ -1.09128, 44.82143 ] } },
{ "type": "Feature", "properties": { "lat": 44.82149, "lon": -1.14403, "frp": 43.72, "fetch_timestamp": "2026-07-23T14:12:00" }, "geometry": { "type": "Point", "coordinates": [ -1.14403, 44.82149 ] } },
{ "type": "Feature", "properties": { "lat": 44.82158, "lon": -1.09795, "frp": 1.11, "fetch_timestamp": "2026-07-23T14:12:00" }, "geometry": { "type": "Point", "coordinates": [ -1.09795, 44.82158 ] } },
{ "type": "Feature", "properties": { "lat": 44.8216, "lon": -1.15074, "frp": 43.72, "fetch_timestamp": "2026-07-23T14:12:00" }, "geometry": { "type": "Point", "coordinates": [ -1.15074, 44.8216 ] } },
{ "type": "Feature", "properties": { "lat": 44.82171, "lon": -1.15742, "frp": 4.21, "fetch_timestamp": "2026-07-23T14:12:00" }, "geometry": { "type": "Point", "coordinates": [ -1.15742, 44.82171 ] } },
{ "type": "Feature", "properties": { "lat": 44.82172, "lon": -1.10461, "frp": 1.11, "fetch_timestamp": "2026-07-23T14:12:00" }, "geometry": { "type": "Point", "coordinates": [ -1.10461, 44.82172 ] } },
{ "type": "Feature", "properties": { "lat": 44.82182, "lon": -1.1641, "frp": 4.21, "fetch_timestamp": "2026-07-23T14:12:00" }, "geometry": { "type": "Point", "coordinates": [ -1.1641, 44.82182 ] } },
{ "type": "Feature", "properties": { "lat": 44.82187, "lon": -1.1113, "frp": 1.5, "fetch_timestamp": "2026-07-23T14:12:00" }, "geometry": { "type": "Point", "coordinates": [ -1.1113, 44.82187 ] } },
{ "type": "Feature", "properties": { "lat": 44.82193, "lon": -1.17078, "frp": 1.08, "fetch_timestamp": "2026-07-23T14:12:00" }, "geometry": { "type": "Point", "coordinates": [ -1.17078, 44.82193 ] } },
{ "type": "Feature", "properties": { "lat": 44.82202, "lon": -1.11802, "frp": 1.5, "fetch_timestamp": "2026-07-23T14:12:00" }, "geometry": { "type": "Point", "coordinates": [ -1.11802, 44.82202 ] } },
{ "type": "Feature", "properties": { "lat": 44.82204, "lon": -1.1775, "frp": 1.08, "fetch_timestamp": "2026-07-23T14:12:00" }, "geometry": { "type": "Point", "coordinates": [ -1.1775, 44.82204 ] } },
{ "type": "Feature", "properties": { "lat": 44.82217, "lon": -1.12474, "frp": 6.04, "fetch_timestamp": "2026-07-23T14:12:00" }, "geometry": { "type": "Point", "coordinates": [ -1.12474, 44.82217 ] } },
{ "type": "Feature", "properties": { "lat": 44.82231, "lon": -1.13142, "frp": 6.04, "fetch_timestamp": "2026-07-23T14:12:00" }, "geometry": { "type": "Point", "coordinates": [ -1.13142, 44.82231 ] } },
{ "type": "Feature", "properties": { "lat": 44.82246, "lon": -1.13812, "frp": 34.56, "fetch_timestamp": "2026-07-23T14:12:00" }, "geometry": { "type": "Point", "coordinates": [ -1.13812, 44.82246 ] } },
{ "type": "Feature", "properties": { "lat": 44.8226, "lon": -1.14482, "frp": 34.56, "fetch_timestamp": "2026-07-23T14:12:00" }, "geometry": { "type": "Point", "coordinates": [ -1.14482, 44.8226 ] } },
{ "type": "Feature", "properties": { "lat": 44.82274, "lon": -1.15151, "frp": 10.37, "fetch_timestamp": "2026-07-23T14:12:00" }, "geometry": { "type": "Point", "coordinates": [ -1.15151, 44.82274 ] } },
{ "type": "Feature", "properties": { "lat": 44.82289, "lon": -1.1582, "frp": 10.37, "fetch_timestamp": "2026-07-23T14:12:00" }, "geometry": { "type": "Point", "coordinates": [ -1.1582, 44.82289 ] } },
{ "type": "Feature", "properties": { "lat": 44.82304, "lon": -1.16487, "frp": 1.88, "fetch_timestamp": "2026-07-23T14:12:00" }, "geometry": { "type": "Point", "coordinates": [ -1.16487, 44.82304 ] } },
{ "type": "Feature", "properties": { "lat": 44.82318, "lon": -1.17154, "frp": 1.88, "fetch_timestamp": "2026-07-23T14:12:00" }, "geometry": { "type": "Point", "coordinates": [ -1.17154, 44.82318 ] } },
{ "type": "Feature", "properties": { "lat": 44.82665, "lon": -1.08349, "frp": 0.99, "fetch_timestamp": "2026-07-23T14:12:00" }, "geometry": { "type": "Point", "coordinates": [ -1.08349, 44.82665 ] } },
{ "type": "Feature", "properties": { "lat": 44.82676, "lon": -1.09014, "frp": 1.45, "fetch_timestamp": "2026-07-23T14:12:00" }, "geometry": { "type": "Point", "coordinates": [ -1.09014, 44.82676 ] } },
{ "type": "Feature", "properties": { "lat": 44.82688, "lon": -1.09681, "frp": 1.45, "fetch_timestamp": "2026-07-23T14:12:00" }, "geometry": { "type": "Point", "coordinates": [ -1.09681, 44.82688 ] } },
{ "type": "Feature", "properties": { "lat": 44.82699, "lon": -1.10347, "frp": 3.39, "fetch_timestamp": "2026-07-23T14:12:00" }, "geometry": { "type": "Point", "coordinates": [ -1.10347, 44.82699 ] } },
{ "type": "Feature", "properties": { "lat": 44.82711, "lon": -1.11016, "frp": 3.39, "fetch_timestamp": "2026-07-23T14:12:00" }, "geometry": { "type": "Point", "coordinates": [ -1.11016, 44.82711 ] } },
{ "type": "Feature", "properties": { "lat": 44.82722, "lon": -1.11686, "frp": 15.22, "fetch_timestamp": "2026-07-23T14:12:00" }, "geometry": { "type": "Point", "coordinates": [ -1.11686, 44.82722 ] } },
{ "type": "Feature", "properties": { "lat": 44.8273, "lon": -1.07775, "frp": 0.66, "fetch_timestamp": "2026-07-23T14:12:00" }, "geometry": { "type": "Point", "coordinates": [ -1.07775, 44.8273 ] } },
{ "type": "Feature", "properties": { "lat": 44.82734, "lon": -1.12358, "frp": 15.22, "fetch_timestamp": "2026-07-23T14:12:00" }, "geometry": { "type": "Point", "coordinates": [ -1.12358, 44.82734 ] } },
{ "type": "Feature", "properties": { "lat": 44.82745, "lon": -1.13031, "frp": 48.46, "fetch_timestamp": "2026-07-23T14:12:00" }, "geometry": { "type": "Point", "coordinates": [ -1.13031, 44.82745 ] } },
{ "type": "Feature", "properties": { "lat": 44.82745, "lon": -1.08437, "frp": 1.62, "fetch_timestamp": "2026-07-23T14:12:00" }, "geometry": { "type": "Point", "coordinates": [ -1.08437, 44.82745 ] } },
{ "type": "Feature", "properties": { "lat": 44.82756, "lon": -1.13702, "frp": 48.46, "fetch_timestamp": "2026-07-23T14:12:00" }, "geometry": { "type": "Point", "coordinates": [ -1.13702, 44.82756 ] } },
{ "type": "Feature", "properties": { "lat": 44.8276, "lon": -1.09102, "frp": 1.62, "fetch_timestamp": "2026-07-23T14:12:00" }, "geometry": { "type": "Point", "coordinates": [ -1.09102, 44.8276 ] } },
{ "type": "Feature", "properties": { "lat": 44.82767, "lon": -1.1437, "frp": 43.72, "fetch_timestamp": "2026-07-23T14:12:00" }, "geometry": { "type": "Point", "coordinates": [ -1.1437, 44.82767 ] } },
{ "type": "Feature", "properties": { "lat": 44.82775, "lon": -1.09767, "frp": 12.06, "fetch_timestamp": "2026-07-23T14:12:00" }, "geometry": { "type": "Point", "coordinates": [ -1.09767, 44.82775 ] } },
{ "type": "Feature", "properties": { "lat": 44.82779, "lon": -1.15039, "frp": 43.72, "fetch_timestamp": "2026-07-23T14:12:00" }, "geometry": { "type": "Point", "coordinates": [ -1.15039, 44.82779 ] } },
{ "type": "Feature", "properties": { "lat": 44.82789, "lon": -1.10434, "frp": 12.06, "fetch_timestamp": "2026-07-23T14:12:00" }, "geometry": { "type": "Point", "coordinates": [ -1.10434, 44.82789 ] } },
{ "type": "Feature", "properties": { "lat": 44.8279, "lon": -1.15706, "frp": 4.21, "fetch_timestamp": "2026-07-23T14:12:00" }, "geometry": { "type": "Point", "coordinates": [ -1.15706, 44.8279 ] } },
{ "type": "Feature", "properties": { "lat": 44.82801, "lon": -1.16372, "frp": 4.21, "fetch_timestamp": "2026-07-23T14:12:00" }, "geometry": { "type": "Point", "coordinates": [ -1.16372, 44.82801 ] } },
{ "type": "Feature", "properties": { "lat": 44.82804, "lon": -1.11102, "frp": 61.34, "fetch_timestamp": "2026-07-23T14:12:00" }, "geometry": { "type": "Point", "coordinates": [ -1.11102, 44.82804 ] } },
{ "type": "Feature", "properties": { "lat": 44.82812, "lon": -1.17038, "frp": 1.08, "fetch_timestamp": "2026-07-23T14:12:00" }, "geometry": { "type": "Point", "coordinates": [ -1.17038, 44.82812 ] } },
{ "type": "Feature", "properties": { "lat": 44.82819, "lon": -1.1177, "frp": 61.34, "fetch_timestamp": "2026-07-23T14:12:00" }, "geometry": { "type": "Point", "coordinates": [ -1.1177, 44.82819 ] } },
{ "type": "Feature", "properties": { "lat": 44.82823, "lon": -1.17706, "frp": 1.08, "fetch_timestamp": "2026-07-23T14:12:00" }, "geometry": { "type": "Point", "coordinates": [ -1.17706, 44.82823 ] } },
{ "type": "Feature", "properties": { "lat": 44.82834, "lon": -1.12442, "frp": 76.43, "fetch_timestamp": "2026-07-23T14:12:00" }, "geometry": { "type": "Point", "coordinates": [ -1.12442, 44.82834 ] } },
{ "type": "Feature", "properties": { "lat": 44.82849, "lon": -1.13115, "frp": 76.43, "fetch_timestamp": "2026-07-23T14:12:00" }, "geometry": { "type": "Point", "coordinates": [ -1.13115, 44.82849 ] } },
{ "type": "Feature", "properties": { "lat": 44.82864, "lon": -1.13785, "frp": 40.49, "fetch_timestamp": "2026-07-23T14:12:00" }, "geometry": { "type": "Point", "coordinates": [ -1.13785, 44.82864 ] } },
{ "type": "Feature", "properties": { "lat": 44.82878, "lon": -1.14451, "frp": 40.49, "fetch_timestamp": "2026-07-23T14:12:00" }, "geometry": { "type": "Point", "coordinates": [ -1.14451, 44.82878 ] } },
{ "type": "Feature", "properties": { "lat": 44.82893, "lon": -1.1512, "frp": 5.18, "fetch_timestamp": "2026-07-23T14:12:00" }, "geometry": { "type": "Point", "coordinates": [ -1.1512, 44.82893 ] } },
{ "type": "Feature", "properties": { "lat": 44.82907, "lon": -1.15786, "frp": 5.18, "fetch_timestamp": "2026-07-23T14:12:00" }, "geometry": { "type": "Point", "coordinates": [ -1.15786, 44.82907 ] } },
{ "type": "Feature", "properties": { "lat": 44.82922, "lon": -1.16447, "frp": 2.73, "fetch_timestamp": "2026-07-23T14:12:00" }, "geometry": { "type": "Point", "coordinates": [ -1.16447, 44.82922 ] } },
{ "type": "Feature", "properties": { "lat": 44.82936, "lon": -1.17115, "frp": 2.73, "fetch_timestamp": "2026-07-23T14:12:00" }, "geometry": { "type": "Point", "coordinates": [ -1.17115, 44.82936 ] } },
{ "type": "Feature", "properties": { "lat": 44.8327, "lon": -1.07655, "frp": 3.09, "fetch_timestamp": "2026-07-23T14:12:00" }, "geometry": { "type": "Point", "coordinates": [ -1.07655, 44.8327 ] } },
{ "type": "Feature", "properties": { "lat": 44.83282, "lon": -1.08319, "frp": 3.09, "fetch_timestamp": "2026-07-23T14:12:00" }, "geometry": { "type": "Point", "coordinates": [ -1.08319, 44.83282 ] } },
{ "type": "Feature", "properties": { "lat": 44.83293, "lon": -1.08983, "frp": 12.37, "fetch_timestamp": "2026-07-23T14:12:00" }, "geometry": { "type": "Point", "coordinates": [ -1.08983, 44.83293 ] } },
{ "type": "Feature", "properties": { "lat": 44.83305, "lon": -1.09651, "frp": 12.37, "fetch_timestamp": "2026-07-23T14:12:00" }, "geometry": { "type": "Point", "coordinates": [ -1.09651, 44.83305 ] } },
{ "type": "Feature", "properties": { "lat": 44.83317, "lon": -1.10317, "frp": 43.22, "fetch_timestamp": "2026-07-23T14:12:00" }, "geometry": { "type": "Point", "coordinates": [ -1.10317, 44.83317 ] } },
{ "type": "Feature", "properties": { "lat": 44.83328, "lon": -1.10984, "frp": 43.22, "fetch_timestamp": "2026-07-23T14:12:00" }, "geometry": { "type": "Point", "coordinates": [ -1.10984, 44.83328 ] } },
{ "type": "Feature", "properties": { "lat": 44.83331, "lon": -1.0708, "frp": 0.66, "fetch_timestamp": "2026-07-23T14:12:00" }, "geometry": { "type": "Point", "coordinates": [ -1.0708, 44.83331 ] } },
{ "type": "Feature", "properties": { "lat": 44.8334, "lon": -1.11653, "frp": 71.2, "fetch_timestamp": "2026-07-23T14:12:00" }, "geometry": { "type": "Point", "coordinates": [ -1.11653, 44.8334 ] } },
{ "type": "Feature", "properties": { "lat": 44.83347, "lon": -1.07746, "frp": 0.66, "fetch_timestamp": "2026-07-23T14:12:00" }, "geometry": { "type": "Point", "coordinates": [ -1.07746, 44.83347 ] } },
{ "type": "Feature", "properties": { "lat": 44.83352, "lon": -1.12328, "frp": 71.2, "fetch_timestamp": "2026-07-23T14:12:00" }, "geometry": { "type": "Point", "coordinates": [ -1.12328, 44.83352 ] } },
{ "type": "Feature", "properties": { "lat": 44.83361, "lon": -1.0841, "frp": 1.62, "fetch_timestamp": "2026-07-23T14:12:00" }, "geometry": { "type": "Point", "coordinates": [ -1.0841, 44.83361 ] } },
{ "type": "Feature", "properties": { "lat": 44.83363, "lon": -1.13002, "frp": 39.34, "fetch_timestamp": "2026-07-23T14:12:00" }, "geometry": { "type": "Point", "coordinates": [ -1.13002, 44.83363 ] } },
{ "type": "Feature", "properties": { "lat": 44.83375, "lon": -1.13674, "frp": 39.34, "fetch_timestamp": "2026-07-23T14:12:00" }, "geometry": { "type": "Point", "coordinates": [ -1.13674, 44.83375 ] } },
{ "type": "Feature", "properties": { "lat": 44.83376, "lon": -1.09074, "frp": 1.62, "fetch_timestamp": "2026-07-23T14:12:00" }, "geometry": { "type": "Point", "coordinates": [ -1.09074, 44.83376 ] } },
{ "type": "Feature", "properties": { "lat": 44.83386, "lon": -1.14343, "frp": 5.05, "fetch_timestamp": "2026-07-23T14:12:00" }, "geometry": { "type": "Point", "coordinates": [ -1.14343, 44.83386 ] } },
{ "type": "Feature", "properties": { "lat": 44.83392, "lon": -1.0974, "frp": 12.06, "fetch_timestamp": "2026-07-23T14:12:00" }, "geometry": { "type": "Point", "coordinates": [ -1.0974, 44.83392 ] } },
{ "type": "Feature", "properties": { "lat": 44.83398, "lon": -1.15009, "frp": 5.05, "fetch_timestamp": "2026-07-23T14:12:00" }, "geometry": { "type": "Point", "coordinates": [ -1.15009, 44.83398 ] } },
{ "type": "Feature", "properties": { "lat": 44.83406, "lon": -1.10406, "frp": 12.06, "fetch_timestamp": "2026-07-23T14:12:00" }, "geometry": { "type": "Point", "coordinates": [ -1.10406, 44.83406 ] } },
{ "type": "Feature", "properties": { "lat": 44.83409, "lon": -1.15664, "frp": 2.38, "fetch_timestamp": "2026-07-23T14:12:00" }, "geometry": { "type": "Point", "coordinates": [ -1.15664, 44.83409 ] } },
{ "type": "Feature", "properties": { "lat": 44.8342, "lon": -1.16321, "frp": 2.38, "fetch_timestamp": "2026-07-23T14:12:00" }, "geometry": { "type": "Point", "coordinates": [ -1.16321, 44.8342 ] } },
{ "type": "Feature", "properties": { "lat": 44.83422, "lon": -1.11073, "frp": 61.34, "fetch_timestamp": "2026-07-23T14:12:00" }, "geometry": { "type": "Point", "coordinates": [ -1.11073, 44.83422 ] } },
{ "type": "Feature", "properties": { "lat": 44.83437, "lon": -1.11741, "frp": 61.34, "fetch_timestamp": "2026-07-23T14:12:00" }, "geometry": { "type": "Point", "coordinates": [ -1.11741, 44.83437 ] } },
{ "type": "Feature", "properties": { "lat": 44.83452, "lon": -1.12416, "frp": 76.43, "fetch_timestamp": "2026-07-23T14:12:00" }, "geometry": { "type": "Point", "coordinates": [ -1.12416, 44.83452 ] } },
{ "type": "Feature", "properties": { "lat": 44.83467, "lon": -1.13088, "frp": 76.43, "fetch_timestamp": "2026-07-23T14:12:00" }, "geometry": { "type": "Point", "coordinates": [ -1.13088, 44.83467 ] } },
{ "type": "Feature", "properties": { "lat": 44.83482, "lon": -1.13759, "frp": 40.49, "fetch_timestamp": "2026-07-23T14:12:00" }, "geometry": { "type": "Point", "coordinates": [ -1.13759, 44.83482 ] } },
{ "type": "Feature", "properties": { "lat": 44.83497, "lon": -1.1443, "frp": 40.49, "fetch_timestamp": "2026-07-23T14:12:00" }, "geometry": { "type": "Point", "coordinates": [ -1.1443, 44.83497 ] } },
{ "type": "Feature", "properties": { "lat": 44.83511, "lon": -1.1509, "frp": 5.18, "fetch_timestamp": "2026-07-23T14:12:00" }, "geometry": { "type": "Point", "coordinates": [ -1.1509, 44.83511 ] } },
{ "type": "Feature", "properties": { "lat": 44.83526, "lon": -1.15745, "frp": 5.18, "fetch_timestamp": "2026-07-23T14:12:00" }, "geometry": { "type": "Point", "coordinates": [ -1.15745, 44.83526 ] } },
{ "type": "Feature", "properties": { "lat": 44.83862, "lon": -1.06291, "frp": 1.13, "fetch_timestamp": "2026-07-23T14:12:00" }, "geometry": { "type": "Point", "coordinates": [ -1.06291, 44.83862 ] } },
{ "type": "Feature", "properties": { "lat": 44.83875, "lon": -1.06959, "frp": 1.13, "fetch_timestamp": "2026-07-23T14:12:00" }, "geometry": { "type": "Point", "coordinates": [ -1.06959, 44.83875 ] } },
{ "type": "Feature", "properties": { "lat": 44.83886, "lon": -1.07625, "frp": 3.09, "fetch_timestamp": "2026-07-23T14:12:00" }, "geometry": { "type": "Point", "coordinates": [ -1.07625, 44.83886 ] } },
{ "type": "Feature", "properties": { "lat": 44.83898, "lon": -1.08289, "frp": 3.09, "fetch_timestamp": "2026-07-23T14:12:00" }, "geometry": { "type": "Point", "coordinates": [ -1.08289, 44.83898 ] } },
{ "type": "Feature", "properties": { "lat": 44.8391, "lon": -1.08953, "frp": 12.37, "fetch_timestamp": "2026-07-23T14:12:00" }, "geometry": { "type": "Point", "coordinates": [ -1.08953, 44.8391 ] } },
{ "type": "Feature", "properties": { "lat": 44.83922, "lon": -1.09621, "frp": 12.37, "fetch_timestamp": "2026-07-23T14:12:00" }, "geometry": { "type": "Point", "coordinates": [ -1.09621, 44.83922 ] } },
{ "type": "Feature", "properties": { "lat": 44.83934, "lon": -1.10289, "frp": 43.22, "fetch_timestamp": "2026-07-23T14:12:00" }, "geometry": { "type": "Point", "coordinates": [ -1.10289, 44.83934 ] } },
{ "type": "Feature", "properties": { "lat": 44.83946, "lon": -1.10953, "frp": 43.22, "fetch_timestamp": "2026-07-23T14:12:00" }, "geometry": { "type": "Point", "coordinates": [ -1.10953, 44.83946 ] } },
{ "type": "Feature", "properties": { "lat": 44.83958, "lon": -1.11624, "frp": 71.2, "fetch_timestamp": "2026-07-23T14:12:00" }, "geometry": { "type": "Point", "coordinates": [ -1.11624, 44.83958 ] } },
{ "type": "Feature", "properties": { "lat": 44.83993, "lon": -1.13641, "frp": 39.34, "fetch_timestamp": "2026-07-23T14:12:00" }, "geometry": { "type": "Point", "coordinates": [ -1.13641, 44.83993 ] } },
{ "type": "Feature", "properties": { "lat": 44.84005, "lon": -1.14312, "frp": 5.05, "fetch_timestamp": "2026-07-23T14:12:00" }, "geometry": { "type": "Point", "coordinates": [ -1.14312, 44.84005 ] } },
{ "type": "Feature", "properties": { "lat": 44.84016, "lon": -1.14977, "frp": 5.05, "fetch_timestamp": "2026-07-23T14:12:00" }, "geometry": { "type": "Point", "coordinates": [ -1.14977, 44.84016 ] } },
{ "type": "Feature", "properties": { "lat": 44.84466, "lon": -1.05598, "frp": 0.75, "fetch_timestamp": "2026-07-23T14:12:00" }, "geometry": { "type": "Point", "coordinates": [ -1.05598, 44.84466 ] } },
{ "type": "Feature", "properties": { "lat": 44.84479, "lon": -1.06263, "frp": 3.31, "fetch_timestamp": "2026-07-23T14:12:00" }, "geometry": { "type": "Point", "coordinates": [ -1.06263, 44.84479 ] } },
{ "type": "Feature", "properties": { "lat": 44.84491, "lon": -1.06928, "frp": 3.31, "fetch_timestamp": "2026-07-23T14:12:00" }, "geometry": { "type": "Point", "coordinates": [ -1.06928, 44.84491 ] } },
{ "type": "Feature", "properties": { "lat": 44.84503, "lon": -1.07594, "frp": 27.88, "fetch_timestamp": "2026-07-23T14:12:00" }, "geometry": { "type": "Point", "coordinates": [ -1.07594, 44.84503 ] } },
{ "type": "Feature", "properties": { "lat": 44.84515, "lon": -1.0826, "frp": 27.88, "fetch_timestamp": "2026-07-23T14:12:00" }, "geometry": { "type": "Point", "coordinates": [ -1.0826, 44.84515 ] } },
{ "type": "Feature", "properties": { "lat": 44.84527, "lon": -1.08925, "frp": 34.6, "fetch_timestamp": "2026-07-23T14:12:00" }, "geometry": { "type": "Point", "coordinates": [ -1.08925, 44.84527 ] } },
{ "type": "Feature", "properties": { "lat": 44.84539, "lon": -1.09592, "frp": 34.6, "fetch_timestamp": "2026-07-23T14:12:00" }, "geometry": { "type": "Point", "coordinates": [ -1.09592, 44.84539 ] } },
{ "type": "Feature", "properties": { "lat": 44.84551, "lon": -1.1026, "frp": 18.25, "fetch_timestamp": "2026-07-23T14:12:00" }, "geometry": { "type": "Point", "coordinates": [ -1.1026, 44.84551 ] } },
{ "type": "Feature", "properties": { "lat": 44.84563, "lon": -1.10929, "frp": 18.25, "fetch_timestamp": "2026-07-23T14:12:00" }, "geometry": { "type": "Point", "coordinates": [ -1.10929, 44.84563 ] } },
{ "type": "Feature", "properties": { "lat": 44.84599, "lon": -1.12936, "frp": 2.37, "fetch_timestamp": "2026-07-23T14:12:00" }, "geometry": { "type": "Point", "coordinates": [ -1.12936, 44.84599 ] } },
{ "type": "Feature", "properties": { "lat": 44.84611, "lon": -1.13606, "frp": 2.37, "fetch_timestamp": "2026-07-23T14:12:00" }, "geometry": { "type": "Point", "coordinates": [ -1.13606, 44.84611 ] } },
{ "type": "Feature", "properties": { "lat": 44.8507, "lon": -1.04899, "frp": 0.75, "fetch_timestamp": "2026-07-23T14:12:00" }, "geometry": { "type": "Point", "coordinates": [ -1.04899, 44.8507 ] } },
{ "type": "Feature", "properties": { "lat": 44.85082, "lon": -1.05565, "frp": 0.75, "fetch_timestamp": "2026-07-23T14:12:00" }, "geometry": { "type": "Point", "coordinates": [ -1.05565, 44.85082 ] } },
{ "type": "Feature", "properties": { "lat": 44.85094, "lon": -1.06229, "frp": 3.31, "fetch_timestamp": "2026-07-23T14:12:00" }, "geometry": { "type": "Point", "coordinates": [ -1.06229, 44.85094 ] } },
{ "type": "Feature", "properties": { "lat": 44.85107, "lon": -1.06897, "frp": 3.31, "fetch_timestamp": "2026-07-23T14:12:00" }, "geometry": { "type": "Point", "coordinates": [ -1.06897, 44.85107 ] } },
{ "type": "Feature", "properties": { "lat": 44.8512, "lon": -1.07563, "frp": 27.88, "fetch_timestamp": "2026-07-23T14:12:00" }, "geometry": { "type": "Point", "coordinates": [ -1.07563, 44.8512 ] } },
{ "type": "Feature", "properties": { "lat": 44.85132, "lon": -1.08229, "frp": 27.88, "fetch_timestamp": "2026-07-23T14:12:00" }, "geometry": { "type": "Point", "coordinates": [ -1.08229, 44.85132 ] } },
{ "type": "Feature", "properties": { "lat": 44.85144, "lon": -1.08895, "frp": 34.6, "fetch_timestamp": "2026-07-23T14:12:00" }, "geometry": { "type": "Point", "coordinates": [ -1.08895, 44.85144 ] } },
{ "type": "Feature", "properties": { "lat": 44.85156, "lon": -1.09561, "frp": 34.6, "fetch_timestamp": "2026-07-23T14:12:00" }, "geometry": { "type": "Point", "coordinates": [ -1.09561, 44.85156 ] } },
{ "type": "Feature", "properties": { "lat": 44.85169, "lon": -1.10231, "frp": 18.25, "fetch_timestamp": "2026-07-23T14:12:00" }, "geometry": { "type": "Point", "coordinates": [ -1.10231, 44.85169 ] } },
{ "type": "Feature", "properties": { "lat": 44.85181, "lon": -1.10899, "frp": 18.25, "fetch_timestamp": "2026-07-23T14:12:00" }, "geometry": { "type": "Point", "coordinates": [ -1.10899, 44.85181 ] } },
{ "type": "Feature", "properties": { "lat": 44.85193, "lon": -1.11565, "frp": 5.91, "fetch_timestamp": "2026-07-23T14:12:00" }, "geometry": { "type": "Point", "coordinates": [ -1.11565, 44.85193 ] } },
{ "type": "Feature", "properties": { "lat": 44.85205, "lon": -1.12234, "frp": 5.91, "fetch_timestamp": "2026-07-23T14:12:00" }, "geometry": { "type": "Point", "coordinates": [ -1.12234, 44.85205 ] } },
{ "type": "Feature", "properties": { "lat": 44.85673, "lon": -1.04211, "frp": 2.34, "fetch_timestamp": "2026-07-23T14:12:00" }, "geometry": { "type": "Point", "coordinates": [ -1.04211, 44.85673 ] } },
{ "type": "Feature", "properties": { "lat": 44.85686, "lon": -1.04871, "frp": 12.51, "fetch_timestamp": "2026-07-23T14:12:00" }, "geometry": { "type": "Point", "coordinates": [ -1.04871, 44.85686 ] } },
{ "type": "Feature", "properties": { "lat": 44.85698, "lon": -1.05535, "frp": 12.51, "fetch_timestamp": "2026-07-23T14:12:00" }, "geometry": { "type": "Point", "coordinates": [ -1.05535, 44.85698 ] } },
{ "type": "Feature", "properties": { "lat": 44.85711, "lon": -1.062, "frp": 14.87, "fetch_timestamp": "2026-07-23T14:12:00" }, "geometry": { "type": "Point", "coordinates": [ -1.062, 44.85711 ] } },
{ "type": "Feature", "properties": { "lat": 44.85723, "lon": -1.06865, "frp": 14.87, "fetch_timestamp": "2026-07-23T14:12:00" }, "geometry": { "type": "Point", "coordinates": [ -1.06865, 44.85723 ] } },
{ "type": "Feature", "properties": { "lat": 44.85736, "lon": -1.07531, "frp": 13.84, "fetch_timestamp": "2026-07-23T14:12:00" }, "geometry": { "type": "Point", "coordinates": [ -1.07531, 44.85736 ] } },
{ "type": "Feature", "properties": { "lat": 44.85749, "lon": -1.08196, "frp": 13.84, "fetch_timestamp": "2026-07-23T14:12:00" }, "geometry": { "type": "Point", "coordinates": [ -1.08196, 44.85749 ] } },
{ "type": "Feature", "properties": { "lat": 44.85761, "lon": -1.08863, "frp": 16.27, "fetch_timestamp": "2026-07-23T14:12:00" }, "geometry": { "type": "Point", "coordinates": [ -1.08863, 44.85761 ] } },
{ "type": "Feature", "properties": { "lat": 44.85773, "lon": -1.09528, "frp": 16.27, "fetch_timestamp": "2026-07-23T14:12:00" }, "geometry": { "type": "Point", "coordinates": [ -1.09528, 44.85773 ] } },
{ "type": "Feature", "properties": { "lat": 44.85786, "lon": -1.10198, "frp": 6.26, "fetch_timestamp": "2026-07-23T14:12:00" }, "geometry": { "type": "Point", "coordinates": [ -1.10198, 44.85786 ] } },
{ "type": "Feature", "properties": { "lat": 44.85811, "lon": -1.11535, "frp": 3.42, "fetch_timestamp": "2026-07-23T14:12:00" }, "geometry": { "type": "Point", "coordinates": [ -1.11535, 44.85811 ] } },
{ "type": "Feature", "properties": { "lat": 44.86276, "lon": -1.0352, "frp": 2.34, "fetch_timestamp": "2026-07-23T14:12:00" }, "geometry": { "type": "Point", "coordinates": [ -1.0352, 44.86276 ] } },
{ "type": "Feature", "properties": { "lat": 44.86289, "lon": -1.04182, "frp": 2.34, "fetch_timestamp": "2026-07-23T14:12:00" }, "geometry": { "type": "Point", "coordinates": [ -1.04182, 44.86289 ] } },
{ "type": "Feature", "properties": { "lat": 44.86302, "lon": -1.04844, "frp": 12.51, "fetch_timestamp": "2026-07-23T14:12:00" }, "geometry": { "type": "Point", "coordinates": [ -1.04844, 44.86302 ] } },
{ "type": "Feature", "properties": { "lat": 44.86314, "lon": -1.05507, "frp": 12.51, "fetch_timestamp": "2026-07-23T14:12:00" }, "geometry": { "type": "Point", "coordinates": [ -1.05507, 44.86314 ] } },
{ "type": "Feature", "properties": { "lat": 44.86327, "lon": -1.0617, "frp": 14.87, "fetch_timestamp": "2026-07-23T14:12:00" }, "geometry": { "type": "Point", "coordinates": [ -1.0617, 44.86327 ] } },
{ "type": "Feature", "properties": { "lat": 44.8634, "lon": -1.06834, "frp": 14.87, "fetch_timestamp": "2026-07-23T14:12:00" }, "geometry": { "type": "Point", "coordinates": [ -1.06834, 44.8634 ] } },
{ "type": "Feature", "properties": { "lat": 44.86353, "lon": -1.07498, "frp": 13.84, "fetch_timestamp": "2026-07-23T14:12:00" }, "geometry": { "type": "Point", "coordinates": [ -1.07498, 44.86353 ] } },
{ "type": "Feature", "properties": { "lat": 44.86366, "lon": -1.08164, "frp": 13.84, "fetch_timestamp": "2026-07-23T14:12:00" }, "geometry": { "type": "Point", "coordinates": [ -1.08164, 44.86366 ] } },
{ "type": "Feature", "properties": { "lat": 44.86378, "lon": -1.08832, "frp": 16.27, "fetch_timestamp": "2026-07-23T14:12:00" }, "geometry": { "type": "Point", "coordinates": [ -1.08832, 44.86378 ] } },
{ "type": "Feature", "properties": { "lat": 44.86391, "lon": -1.09498, "frp": 16.27, "fetch_timestamp": "2026-07-23T14:12:00" }, "geometry": { "type": "Point", "coordinates": [ -1.09498, 44.86391 ] } },
{ "type": "Feature", "properties": { "lat": 44.86404, "lon": -1.10163, "frp": 6.26, "fetch_timestamp": "2026-07-23T14:12:00" }, "geometry": { "type": "Point", "coordinates": [ -1.10163, 44.86404 ] } },
{ "type": "Feature", "properties": { "lat": 44.86416, "lon": -1.10833, "frp": 6.26, "fetch_timestamp": "2026-07-23T14:12:00" }, "geometry": { "type": "Point", "coordinates": [ -1.10833, 44.86416 ] } },
{ "type": "Feature", "properties": { "lat": 44.86891, "lon": -1.0349, "frp": 2.91, "fetch_timestamp": "2026-07-23T14:12:00" }, "geometry": { "type": "Point", "coordinates": [ -1.0349, 44.86891 ] } },
{ "type": "Feature", "properties": { "lat": 44.86904, "lon": -1.0415, "frp": 2.91, "fetch_timestamp": "2026-07-23T14:12:00" }, "geometry": { "type": "Point", "coordinates": [ -1.0415, 44.86904 ] } },
{ "type": "Feature", "properties": { "lat": 44.86917, "lon": -1.04813, "frp": 5.56, "fetch_timestamp": "2026-07-23T14:12:00" }, "geometry": { "type": "Point", "coordinates": [ -1.04813, 44.86917 ] } },
{ "type": "Feature", "properties": { "lat": 44.8693, "lon": -1.05477, "frp": 5.56, "fetch_timestamp": "2026-07-23T14:12:00" }, "geometry": { "type": "Point", "coordinates": [ -1.05477, 44.8693 ] } },
{ "type": "Feature", "properties": { "lat": 44.86943, "lon": -1.06141, "frp": 6.41, "fetch_timestamp": "2026-07-23T14:12:00" }, "geometry": { "type": "Point", "coordinates": [ -1.06141, 44.86943 ] } },
{ "type": "Feature", "properties": { "lat": 44.86956, "lon": -1.06805, "frp": 6.41, "fetch_timestamp": "2026-07-23T14:12:00" }, "geometry": { "type": "Point", "coordinates": [ -1.06805, 44.86956 ] } },
{ "type": "Feature", "properties": { "lat": 44.86969, "lon": -1.07469, "frp": 10.83, "fetch_timestamp": "2026-07-23T14:12:00" }, "geometry": { "type": "Point", "coordinates": [ -1.07469, 44.86969 ] } },
{ "type": "Feature", "properties": { "lat": 44.86982, "lon": -1.08138, "frp": 10.83, "fetch_timestamp": "2026-07-23T14:12:00" }, "geometry": { "type": "Point", "coordinates": [ -1.08138, 44.86982 ] } },
{ "type": "Feature", "properties": { "lat": 44.87507, "lon": -1.03464, "frp": 2.91, "fetch_timestamp": "2026-07-23T14:12:00" }, "geometry": { "type": "Point", "coordinates": [ -1.03464, 44.87507 ] } },
{ "type": "Feature", "properties": { "lat": 44.8752, "lon": -1.04126, "frp": 2.91, "fetch_timestamp": "2026-07-23T14:12:00" }, "geometry": { "type": "Point", "coordinates": [ -1.04126, 44.8752 ] } },
{ "type": "Feature", "properties": { "lat": 44.87533, "lon": -1.04788, "frp": 5.56, "fetch_timestamp": "2026-07-23T14:12:00" }, "geometry": { "type": "Point", "coordinates": [ -1.04788, 44.87533 ] } },
{ "type": "Feature", "properties": { "lat": 44.87546, "lon": -1.05446, "frp": 5.56, "fetch_timestamp": "2026-07-23T14:12:00" }, "geometry": { "type": "Point", "coordinates": [ -1.05446, 44.87546 ] } },
{ "type": "Feature", "properties": { "lat": 44.8756, "lon": -1.06112, "frp": 6.41, "fetch_timestamp": "2026-07-23T14:12:00" }, "geometry": { "type": "Point", "coordinates": [ -1.06112, 44.8756 ] } },
{ "type": "Feature", "properties": { "lat": 44.87573, "lon": -1.06776, "frp": 6.41, "fetch_timestamp": "2026-07-23T14:12:00" }, "geometry": { "type": "Point", "coordinates": [ -1.06776, 44.87573 ] } },
{ "type": "Feature", "properties": { "lat": 44.87586, "lon": -1.07443, "frp": 10.83, "fetch_timestamp": "2026-07-23T14:12:00" }, "geometry": { "type": "Point", "coordinates": [ -1.07443, 44.87586 ] } },
{ "type": "Feature", "properties": { "lat": 44.87612, "lon": -1.08779, "frp": 4.01, "fetch_timestamp": "2026-07-23T14:12:00" }, "geometry": { "type": "Point", "coordinates": [ -1.08779, 44.87612 ] } },
{ "type": "Feature", "properties": { "lat": 44.88095, "lon": -1.02114, "frp": 5.8, "fetch_timestamp": "2026-07-23T14:12:00" }, "geometry": { "type": "Point", "coordinates": [ -1.02114, 44.88095 ] } },
{ "type": "Feature", "properties": { "lat": 44.88109, "lon": -1.02777, "frp": 5.8, "fetch_timestamp": "2026-07-23T14:12:00" }, "geometry": { "type": "Point", "coordinates": [ -1.02777, 44.88109 ] } },
{ "type": "Feature", "properties": { "lat": 44.88123, "lon": -1.03437, "frp": 5.08, "fetch_timestamp": "2026-07-23T14:12:00" }, "geometry": { "type": "Point", "coordinates": [ -1.03437, 44.88123 ] } },
{ "type": "Feature", "properties": { "lat": 44.88136, "lon": -1.04099, "frp": 5.08, "fetch_timestamp": "2026-07-23T14:12:00" }, "geometry": { "type": "Point", "coordinates": [ -1.04099, 44.88136 ] } },
{ "type": "Feature", "properties": { "lat": 44.88149, "lon": -1.04761, "frp": 1.59, "fetch_timestamp": "2026-07-23T14:12:00" }, "geometry": { "type": "Point", "coordinates": [ -1.04761, 44.88149 ] } },
{ "type": "Feature", "properties": { "lat": 44.88162, "lon": -1.05419, "frp": 1.59, "fetch_timestamp": "2026-07-23T14:12:00" }, "geometry": { "type": "Point", "coordinates": [ -1.05419, 44.88162 ] } },
{ "type": "Feature", "properties": { "lat": 44.88176, "lon": -1.06082, "frp": 4.25, "fetch_timestamp": "2026-07-23T14:12:00" }, "geometry": { "type": "Point", "coordinates": [ -1.06082, 44.88176 ] } },
{ "type": "Feature", "properties": { "lat": 44.88189, "lon": -1.06746, "frp": 4.25, "fetch_timestamp": "2026-07-23T14:12:00" }, "geometry": { "type": "Point", "coordinates": [ -1.06746, 44.88189 ] } },
{ "type": "Feature", "properties": { "lat": 44.88202, "lon": -1.0741, "frp": 6.2, "fetch_timestamp": "2026-07-23T14:12:00" }, "geometry": { "type": "Point", "coordinates": [ -1.0741, 44.88202 ] } },
{ "type": "Feature", "properties": { "lat": 44.88216, "lon": -1.08078, "frp": 6.2, "fetch_timestamp": "2026-07-23T14:12:00" }, "geometry": { "type": "Point", "coordinates": [ -1.08078, 44.88216 ] } },
{ "type": "Feature", "properties": { "lat": 44.88724, "lon": -1.02746, "frp": 5.8, "fetch_timestamp": "2026-07-23T14:12:00" }, "geometry": { "type": "Point", "coordinates": [ -1.02746, 44.88724 ] } },
{ "type": "Feature", "properties": { "lat": 44.88738, "lon": -1.03405, "frp": 5.08, "fetch_timestamp": "2026-07-23T14:12:00" }, "geometry": { "type": "Point", "coordinates": [ -1.03405, 44.88738 ] } },
{ "type": "Feature", "properties": { "lat": 44.88752, "lon": -1.04067, "frp": 5.08, "fetch_timestamp": "2026-07-23T14:12:00" }, "geometry": { "type": "Point", "coordinates": [ -1.04067, 44.88752 ] } },
{ "type": "Feature", "properties": { "lat": 44.88765, "lon": -1.04731, "frp": 1.59, "fetch_timestamp": "2026-07-23T14:12:00" }, "geometry": { "type": "Point", "coordinates": [ -1.04731, 44.88765 ] } },
{ "type": "Feature", "properties": { "lat": 44.88778, "lon": -1.05395, "frp": 1.59, "fetch_timestamp": "2026-07-23T14:12:00" }, "geometry": { "type": "Point", "coordinates": [ -1.05395, 44.88778 ] } },
{ "type": "Feature", "properties": { "lat": 44.88792, "lon": -1.06055, "frp": 4.25, "fetch_timestamp": "2026-07-23T14:12:00" }, "geometry": { "type": "Point", "coordinates": [ -1.06055, 44.88792 ] } },
{ "type": "Feature", "properties": { "lat": 44.89326, "lon": -1.02047, "frp": 2.03, "fetch_timestamp": "2026-07-23T14:12:00" }, "geometry": { "type": "Point", "coordinates": [ -1.02047, 44.89326 ] } },
{ "type": "Feature", "properties": { "lat": 44.89339, "lon": -1.02714, "frp": 2.03, "fetch_timestamp": "2026-07-23T14:12:00" }, "geometry": { "type": "Point", "coordinates": [ -1.02714, 44.89339 ] } },
{ "type": "Feature", "properties": { "lat": 44.89354, "lon": -1.03379, "frp": 1.57, "fetch_timestamp": "2026-07-23T14:12:00" }, "geometry": { "type": "Point", "coordinates": [ -1.03379, 44.89354 ] } },
{ "type": "Feature", "properties": { "lat": 44.89367, "lon": -1.04043, "frp": 1.57, "fetch_timestamp": "2026-07-23T14:12:00" }, "geometry": { "type": "Point", "coordinates": [ -1.04043, 44.89367 ] } },
{ "type": "Feature", "properties": { "lat": 44.89381, "lon": -1.04705, "frp": 2.4, "fetch_timestamp": "2026-07-23T14:12:00" }, "geometry": { "type": "Point", "coordinates": [ -1.04705, 44.89381 ] } },
{ "type": "Feature", "properties": { "lat": 44.89394, "lon": -1.05362, "frp": 2.4, "fetch_timestamp": "2026-07-23T14:12:00" }, "geometry": { "type": "Point", "coordinates": [ -1.05362, 44.89394 ] } },
{ "type": "Feature", "properties": { "lat": 44.89863, "lon": -1.01809, "frp": 1.96, "fetch_timestamp": "2026-07-23T14:12:00" }, "geometry": { "type": "Point", "coordinates": [ -1.01809, 44.89863 ] } },
{ "type": "Feature", "properties": { "lat": 44.89874, "lon": -1.02473, "frp": 1.96, "fetch_timestamp": "2026-07-23T14:12:00" }, "geometry": { "type": "Point", "coordinates": [ -1.02473, 44.89874 ] } },
{ "type": "Feature", "properties": { "lat": 44.89884, "lon": -1.03139, "frp": 1.23, "fetch_timestamp": "2026-07-23T14:12:00" }, "geometry": { "type": "Point", "coordinates": [ -1.03139, 44.89884 ] } },
{ "type": "Feature", "properties": { "lat": 44.89895, "lon": -1.03805, "frp": 1.23, "fetch_timestamp": "2026-07-23T14:12:00" }, "geometry": { "type": "Point", "coordinates": [ -1.03805, 44.89895 ] } },
{ "type": "Feature", "properties": { "lat": 44.89906, "lon": -1.04468, "frp": 2.45, "fetch_timestamp": "2026-07-23T14:12:00" }, "geometry": { "type": "Point", "coordinates": [ -1.04468, 44.89906 ] } },
{ "type": "Feature", "properties": { "lat": 44.89916, "lon": -1.05129, "frp": 2.45, "fetch_timestamp": "2026-07-23T14:12:00" }, "geometry": { "type": "Point", "coordinates": [ -1.05129, 44.89916 ] } },
{ "type": "Feature", "properties": { "lat": 44.89941, "lon": -1.0202, "frp": 2.03, "fetch_timestamp": "2026-07-23T14:12:00" }, "geometry": { "type": "Point", "coordinates": [ -1.0202, 44.89941 ] } },
{ "type": "Feature", "properties": { "lat": 44.89955, "lon": -1.02685, "frp": 2.03, "fetch_timestamp": "2026-07-23T14:12:00" }, "geometry": { "type": "Point", "coordinates": [ -1.02685, 44.89955 ] } },
{ "type": "Feature", "properties": { "lat": 44.89969, "lon": -1.0335, "frp": 1.57, "fetch_timestamp": "2026-07-23T14:12:00" }, "geometry": { "type": "Point", "coordinates": [ -1.0335, 44.89969 ] } },
{ "type": "Feature", "properties": { "lat": 44.89983, "lon": -1.04013, "frp": 1.57, "fetch_timestamp": "2026-07-23T14:12:00" }, "geometry": { "type": "Point", "coordinates": [ -1.04013, 44.89983 ] } },
{ "type": "Feature", "properties": { "lat": 44.89997, "lon": -1.04675, "frp": 2.4, "fetch_timestamp": "2026-07-23T14:12:00" }, "geometry": { "type": "Point", "coordinates": [ -1.04675, 44.89997 ] } },
{ "type": "Feature", "properties": { "lat": 44.9001, "lon": -1.05335, "frp": 2.4, "fetch_timestamp": "2026-07-23T14:12:00" }, "geometry": { "type": "Point", "coordinates": [ -1.05335, 44.9001 ] } },
{ "type": "Feature", "properties": { "lat": 44.90499, "lon": -1.03109, "frp": 1.23, "fetch_timestamp": "2026-07-23T14:12:00" }, "geometry": { "type": "Point", "coordinates": [ -1.03109, 44.90499 ] } },
{ "type": "Feature", "properties": { "lat": 44.9051, "lon": -1.03773, "frp": 1.23, "fetch_timestamp": "2026-07-23T14:12:00" }, "geometry": { "type": "Point", "coordinates": [ -1.03773, 44.9051 ] } },
{ "type": "Feature", "properties": { "lat": 44.90521, "lon": -1.04436, "frp": 2.45, "fetch_timestamp": "2026-07-23T14:12:00" }, "geometry": { "type": "Point", "coordinates": [ -1.04436, 44.90521 ] } },
{ "type": "Feature", "properties": { "lat": 44.90584, "lon": -1.03321, "frp": 1.06, "fetch_timestamp": "2026-07-23T14:12:00" }, "geometry": { "type": "Point", "coordinates": [ -1.03321, 44.90584 ] } },
{ "type": "Feature", "properties": { "lat": 44.90599, "lon": -1.03985, "frp": 1.06, "fetch_timestamp": "2026-07-23T14:12:00" }, "geometry": { "type": "Point", "coordinates": [ -1.03985, 44.90599 ] } },
{ "type": "Feature", "properties": { "lat": 44.90613, "lon": -1.04648, "frp": 1.77, "fetch_timestamp": "2026-07-23T14:12:00" }, "geometry": { "type": "Point", "coordinates": [ -1.04648, 44.90613 ] } },
{ "type": "Feature", "properties": { "lat": 44.81878, "lon": -1.13942, "frp": 29.42, "fetch_timestamp": "2026-07-23T14:12:00" }, "geometry": { "type": "Point", "coordinates": [ -1.13942, 44.81878 ] } },
{ "type": "Feature", "properties": { "lat": 44.81094, "lon": -1.14202, "frp": 54.96, "fetch_timestamp": "2026-07-23T14:12:00" }, "geometry": { "type": "Point", "coordinates": [ -1.14202, 44.81094 ] } },
{ "type": "Feature", "properties": { "lat": 44.81852, "lon": -1.10745, "frp": 72.97, "fetch_timestamp": "2026-07-23T14:12:00" }, "geometry": { "type": "Point", "coordinates": [ -1.10745, 44.81852 ] } },
{ "type": "Feature", "properties": { "lat": 44.8193, "lon": -1.12292, "frp": 17.75, "fetch_timestamp": "2026-07-23T14:12:00" }, "geometry": { "type": "Point", "coordinates": [ -1.12292, 44.8193 ] } },
{ "type": "Feature", "properties": { "lat": 44.82233, "lon": -1.10909, "frp": 72.97, "fetch_timestamp": "2026-07-23T14:12:00" }, "geometry": { "type": "Point", "coordinates": [ -1.10909, 44.82233 ] } },
{ "type": "Feature", "properties": { "lat": 44.83366, "lon": -1.07635, "frp": 250.89, "fetch_timestamp": "2026-07-23T14:12:00" }, "geometry": { "type": "Point", "coordinates": [ -1.07635, 44.83366 ] } },
{ "type": "Feature", "properties": { "lat": 44.83458, "lon": -1.1295, "frp": 13.86, "fetch_timestamp": "2026-07-23T14:12:00" }, "geometry": { "type": "Point", "coordinates": [ -1.1295, 44.83458 ] } },
{ "type": "Feature", "properties": { "lat": 44.83608, "lon": -1.12259, "frp": 7.58, "fetch_timestamp": "2026-07-23T14:12:00" }, "geometry": { "type": "Point", "coordinates": [ -1.12259, 44.83608 ] } },
{ "type": "Feature", "properties": { "lat": 44.83828, "lon": -1.09337, "frp": 33.45, "fetch_timestamp": "2026-07-23T14:12:00" }, "geometry": { "type": "Point", "coordinates": [ -1.09337, 44.83828 ] } },
{ "type": "Feature", "properties": { "lat": 44.83897, "lon": -1.07112, "frp": 250.89, "fetch_timestamp": "2026-07-23T14:12:00" }, "geometry": { "type": "Point", "coordinates": [ -1.07112, 44.83897 ] } },
{ "type": "Feature", "properties": { "lat": 44.8429, "lon": -1.11043, "frp": 10.8, "fetch_timestamp": "2026-07-23T14:12:00" }, "geometry": { "type": "Point", "coordinates": [ -1.11043, 44.8429 ] } },
{ "type": "Feature", "properties": { "lat": 44.84972, "lon": -1.0983, "frp": 15.58, "fetch_timestamp": "2026-07-23T14:12:00" }, "geometry": { "type": "Point", "coordinates": [ -1.0983, 44.84972 ] } },
{ "type": "Feature", "properties": { "lat": 44.85121, "lon": -1.09143, "frp": 15.58, "fetch_timestamp": "2026-07-23T14:12:00" }, "geometry": { "type": "Point", "coordinates": [ -1.09143, 44.85121 ] } },
{ "type": "Feature", "properties": { "lat": 44.85502, "lon": -1.09306, "frp": 17.58, "fetch_timestamp": "2026-07-23T14:12:00" }, "geometry": { "type": "Point", "coordinates": [ -1.09306, 44.85502 ] } },
{ "type": "Feature", "properties": { "lat": 44.86032, "lon": -1.08781, "frp": 12.82, "fetch_timestamp": "2026-07-23T14:12:00" }, "geometry": { "type": "Point", "coordinates": [ -1.08781, 44.86032 ] } },
{ "type": "Feature", "properties": { "lat": 44.87092, "lon": -1.07737, "frp": 16.97, "fetch_timestamp": "2026-07-23T14:12:00" }, "geometry": { "type": "Point", "coordinates": [ -1.07737, 44.87092 ] } },
{ "type": "Feature", "properties": { "lat": 44.89182, "lon": -1.01904, "frp": 76.63, "fetch_timestamp": "2026-07-23T14:12:00" }, "geometry": { "type": "Point", "coordinates": [ -1.01904, 44.89182 ] } },
{ "type": "Feature", "properties": { "lat": 44.89732, "lon": -1.0513, "frp": 161.66, "fetch_timestamp": "2026-07-23T14:12:00" }, "geometry": { "type": "Point", "coordinates": [ -1.0513, 44.89732 ] } },
{ "type": "Feature", "properties": { "lat": 44.90467, "lon": -1.01713, "frp": 11.27, "fetch_timestamp": "2026-07-23T14:12:00" }, "geometry": { "type": "Point", "coordinates": [ -1.01713, 44.90467 ] } },
{ "type": "Feature", "properties": { "lat": 44.80413, "lon": -1.12547, "frp": 129.37, "fetch_timestamp": "2026-07-23T14:12:00" }, "geometry": { "type": "Point", "coordinates": [ -1.12547, 44.80413 ] } },
{ "type": "Feature", "properties": { "lat": 44.80423, "lon": -1.14387, "frp": 65.54, "fetch_timestamp": "2026-07-23T14:12:00" }, "geometry": { "type": "Point", "coordinates": [ -1.14387, 44.80423 ] } },
{ "type": "Feature", "properties": { "lat": 44.80902, "lon": -1.12195, "frp": 128.54, "fetch_timestamp": "2026-07-23T14:12:00" }, "geometry": { "type": "Point", "coordinates": [ -1.12195, 44.80902 ] } },
{ "type": "Feature", "properties": { "lat": 44.8111, "lon": -1.11609, "frp": 59.39, "fetch_timestamp": "2026-07-23T14:12:00" }, "geometry": { "type": "Point", "coordinates": [ -1.11609, 44.8111 ] } },
{ "type": "Feature", "properties": { "lat": 44.82287, "lon": -1.10327, "frp": 46.08, "fetch_timestamp": "2026-07-23T14:12:00" }, "geometry": { "type": "Point", "coordinates": [ -1.10327, 44.82287 ] } },
{ "type": "Feature", "properties": { "lat": 44.82954, "lon": -1.06593, "frp": 29.64, "fetch_timestamp": "2026-07-23T14:12:00" }, "geometry": { "type": "Point", "coordinates": [ -1.06593, 44.82954 ] } },
{ "type": "Feature", "properties": { "lat": 44.82963, "lon": -1.07518, "frp": 193.1, "fetch_timestamp": "2026-07-23T14:12:00" }, "geometry": { "type": "Point", "coordinates": [ -1.07518, 44.82963 ] } },
{ "type": "Feature", "properties": { "lat": 44.83192, "lon": -1.06918, "frp": 118.83, "fetch_timestamp": "2026-07-23T14:12:00" }, "geometry": { "type": "Point", "coordinates": [ -1.06918, 44.83192 ] } },
{ "type": "Feature", "properties": { "lat": 44.83665, "lon": -1.07499, "frp": 23.55, "fetch_timestamp": "2026-07-23T14:12:00" }, "geometry": { "type": "Point", "coordinates": [ -1.07499, 44.83665 ] } },
{ "type": "Feature", "properties": { "lat": 44.8924, "lon": -1.00781, "frp": 17.22, "fetch_timestamp": "2026-07-23T14:12:00" }, "geometry": { "type": "Point", "coordinates": [ -1.00781, 44.8924 ] } },
{ "type": "Feature", "properties": { "lat": 44.89248, "lon": -1.01725, "frp": 14.58, "fetch_timestamp": "2026-07-23T14:12:00" }, "geometry": { "type": "Point", "coordinates": [ -1.01725, 44.89248 ] } },
{ "type": "Feature", "properties": { "lat": 44.89267, "lon": -1.04526, "frp": 44.08, "fetch_timestamp": "2026-07-23T14:12:00" }, "geometry": { "type": "Point", "coordinates": [ -1.04526, 44.89267 ] } },
{ "type": "Feature", "properties": { "lat": 44.897, "lon": -1.0491, "frp": 53.23, "fetch_timestamp": "2026-07-23T14:12:00" }, "geometry": { "type": "Point", "coordinates": [ -1.0491, 44.897 ] } },
{ "type": "Feature", "properties": { "lat": 44.89711, "lon": -1.05851, "frp": 53.23, "fetch_timestamp": "2026-07-23T14:12:00" }, "geometry": { "type": "Point", "coordinates": [ -1.05851, 44.89711 ] } },
{ "type": "Feature", "properties": { "lat": 44.89952, "lon": -1.01702, "frp": 14.58, "fetch_timestamp": "2026-07-23T14:12:00" }, "geometry": { "type": "Point", "coordinates": [ -1.01702, 44.89952 ] } },
{ "type": "Feature", "properties": { "lat": 44.88488, "lon": -1.04762, "frp": 29.08, "fetch_timestamp": "2026-07-23T14:12:00" }, "geometry": { "type": "Point", "coordinates": [ -1.04762, 44.88488 ] } },
{ "type": "Feature", "properties": { "lat": 44.88491, "lon": -1.03977, "frp": 45.53, "fetch_timestamp": "2026-07-23T14:12:00" }, "geometry": { "type": "Point", "coordinates": [ -1.03977, 44.88491 ] } },
{ "type": "Feature", "properties": { "lat": 44.88493, "lon": -1.03187, "frp": 45.53, "fetch_timestamp": "2026-07-23T14:12:00" }, "geometry": { "type": "Point", "coordinates": [ -1.03187, 44.88493 ] } },
{ "type": "Feature", "properties": { "lat": 44.88718, "lon": -1.04933, "frp": 108.63, "fetch_timestamp": "2026-07-23T14:12:00" }, "geometry": { "type": "Point", "coordinates": [ -1.04933, 44.88718 ] } },
{ "type": "Feature", "properties": { "lat": 44.88731, "lon": -1.03359, "frp": 143.96, "fetch_timestamp": "2026-07-23T14:12:00" }, "geometry": { "type": "Point", "coordinates": [ -1.03359, 44.88731 ] } },
{ "type": "Feature", "properties": { "lat": 44.88738, "lon": -1.0257, "frp": 143.96, "fetch_timestamp": "2026-07-23T14:12:00" }, "geometry": { "type": "Point", "coordinates": [ -1.0257, 44.88738 ] } },
{ "type": "Feature", "properties": { "lat": 44.88744, "lon": -1.01782, "frp": 17.04, "fetch_timestamp": "2026-07-23T14:12:00" }, "geometry": { "type": "Point", "coordinates": [ -1.01782, 44.88744 ] } },
{ "type": "Feature", "properties": { "lat": 44.89156, "lon": -1.03188, "frp": 195.84, "fetch_timestamp": "2026-07-23T14:12:00" }, "geometry": { "type": "Point", "coordinates": [ -1.03188, 44.89156 ] } },
{ "type": "Feature", "properties": { "lat": 44.89159, "lon": -1.02405, "frp": 36.45, "fetch_timestamp": "2026-07-23T14:12:00" }, "geometry": { "type": "Point", "coordinates": [ -1.02405, 44.89159 ] } },
{ "type": "Feature", "properties": { "lat": 44.89162, "lon": -1.01615, "frp": 36.45, "fetch_timestamp": "2026-07-23T14:12:00" }, "geometry": { "type": "Point", "coordinates": [ -1.01615, 44.89162 ] } },
{ "type": "Feature", "properties": { "lat": 44.8938, "lon": -1.0493, "frp": 112.46, "fetch_timestamp": "2026-07-23T14:12:00" }, "geometry": { "type": "Point", "coordinates": [ -1.0493, 44.8938 ] } },
{ "type": "Feature", "properties": { "lat": 44.89394, "lon": -1.03354, "frp": 86.12, "fetch_timestamp": "2026-07-23T14:12:00" }, "geometry": { "type": "Point", "coordinates": [ -1.03354, 44.89394 ] } },
{ "type": "Feature", "properties": { "lat": 44.89401, "lon": -1.0257, "frp": 86.12, "fetch_timestamp": "2026-07-23T14:12:00" }, "geometry": { "type": "Point", "coordinates": [ -1.0257, 44.89401 ] } },
{ "type": "Feature", "properties": { "lat": 44.89407, "lon": -1.01784, "frp": 21.93, "fetch_timestamp": "2026-07-23T14:12:00" }, "geometry": { "type": "Point", "coordinates": [ -1.01784, 44.89407 ] } },
{ "type": "Feature", "properties": { "lat": 44.89812, "lon": -1.04762, "frp": 202.48, "fetch_timestamp": "2026-07-23T14:12:00" }, "geometry": { "type": "Point", "coordinates": [ -1.04762, 44.89812 ] } },
{ "type": "Feature", "properties": { "lat": 44.89816, "lon": -1.03973, "frp": 195.84, "fetch_timestamp": "2026-07-23T14:12:00" }, "geometry": { "type": "Point", "coordinates": [ -1.03973, 44.89816 ] } },
{ "type": "Feature", "properties": { "lat": 44.89819, "lon": -1.03189, "frp": 195.84, "fetch_timestamp": "2026-07-23T14:12:00" }, "geometry": { "type": "Point", "coordinates": [ -1.03189, 44.89819 ] } },
{ "type": "Feature", "properties": { "lat": 44.89822, "lon": -1.02407, "frp": 36.45, "fetch_timestamp": "2026-07-23T14:12:00" }, "geometry": { "type": "Point", "coordinates": [ -1.02407, 44.89822 ] } },
{ "type": "Feature", "properties": { "lat": 44.9005, "lon": -1.04139, "frp": 112.46, "fetch_timestamp": "2026-07-23T14:12:00" }, "geometry": { "type": "Point", "coordinates": [ -1.04139, 44.9005 ] } },
{ "type": "Feature", "properties": { "lat": 44.90057, "lon": -1.03353, "frp": 86.12, "fetch_timestamp": "2026-07-23T14:12:00" }, "geometry": { "type": "Point", "coordinates": [ -1.03353, 44.90057 ] } },
{ "type": "Feature", "properties": { "lat": 44.90063, "lon": -1.02566, "frp": 86.12, "fetch_timestamp": "2026-07-23T14:12:00" }, "geometry": { "type": "Point", "coordinates": [ -1.02566, 44.90063 ] } },
{ "type": "Feature", "properties": { "lat": 44.90071, "lon": -1.01779, "frp": 21.93, "fetch_timestamp": "2026-07-23T14:12:00" }, "geometry": { "type": "Point", "coordinates": [ -1.01779, 44.90071 ] } },
{ "type": "Feature", "properties": { "lat": 44.90479, "lon": -1.03975, "frp": 13.46, "fetch_timestamp": "2026-07-23T14:12:00" }, "geometry": { "type": "Point", "coordinates": [ -1.03975, 44.90479 ] } },
{ "type": "Feature", "properties": { "lat": 44.90482, "lon": -1.0319, "frp": 13.46, "fetch_timestamp": "2026-07-23T14:12:00" }, "geometry": { "type": "Point", "coordinates": [ -1.0319, 44.90482 ] } },
{ "type": "Feature", "properties": { "lat": 44.90485, "lon": -1.02404, "frp": 17.65, "fetch_timestamp": "2026-07-23T14:12:00" }, "geometry": { "type": "Point", "coordinates": [ -1.02404, 44.90485 ] } },
{ "type": "Feature", "properties": { "lat": 44.82004, "lon": -1.15191, "frp": 3.22, "fetch_timestamp": "2026-07-23T14:12:00" }, "geometry": { "type": "Point", "coordinates": [ -1.15191, 44.82004 ] } },
{ "type": "Feature", "properties": { "lat": 44.82344, "lon": -1.15064, "frp": 1.82, "fetch_timestamp": "2026-07-23T14:12:00" }, "geometry": { "type": "Point", "coordinates": [ -1.15064, 44.82344 ] } },
{ "type": "Feature", "properties": { "lat": 44.82685, "lon": -1.14937, "frp": 1.82, "fetch_timestamp": "2026-07-23T14:12:00" }, "geometry": { "type": "Point", "coordinates": [ -1.14937, 44.82685 ] } },
{ "type": "Feature", "properties": { "lat": 44.83355, "lon": -1.08309, "frp": 3.99, "fetch_timestamp": "2026-07-23T14:12:00" }, "geometry": { "type": "Point", "coordinates": [ -1.08309, 44.83355 ] } },
{ "type": "Feature", "properties": { "lat": 44.84998, "lon": -1.05417, "frp": 3.6, "fetch_timestamp": "2026-07-23T14:12:00" }, "geometry": { "type": "Point", "coordinates": [ -1.05417, 44.84998 ] } },
{ "type": "Feature", "properties": { "lat": 44.85238, "lon": -1.04758, "frp": 1.42, "fetch_timestamp": "2026-07-23T14:12:00" }, "geometry": { "type": "Point", "coordinates": [ -1.04758, 44.85238 ] } },
{ "type": "Feature", "properties": { "lat": 44.82079, "lon": -1.15644, "frp": 24.68, "fetch_timestamp": "2026-07-23T14:12:00" }, "geometry": { "type": "Point", "coordinates": [ -1.15644, 44.82079 ] } },
{ "type": "Feature", "properties": { "lat": 44.82921, "lon": -1.0861, "frp": 23.02, "fetch_timestamp": "2026-07-23T14:12:00" }, "geometry": { "type": "Point", "coordinates": [ -1.0861, 44.82921 ] } },
{ "type": "Feature", "properties": { "lat": 44.82931, "lon": -1.10605, "frp": 25.66, "fetch_timestamp": "2026-07-23T14:12:00" }, "geometry": { "type": "Point", "coordinates": [ -1.10605, 44.82931 ] } },
{ "type": "Feature", "properties": { "lat": 44.83418, "lon": -1.08884, "frp": 41.02, "fetch_timestamp": "2026-07-23T14:12:00" }, "geometry": { "type": "Point", "coordinates": [ -1.08884, 44.83418 ] } },
{ "type": "Feature", "properties": { "lat": 44.8354, "lon": -1.08455, "frp": 58.57, "fetch_timestamp": "2026-07-23T14:12:00" }, "geometry": { "type": "Point", "coordinates": [ -1.08455, 44.8354 ] } },
{ "type": "Feature", "properties": { "lat": 44.84037, "lon": -1.08729, "frp": 58.57, "fetch_timestamp": "2026-07-23T14:12:00" }, "geometry": { "type": "Point", "coordinates": [ -1.08729, 44.84037 ] } },
{ "type": "Feature", "properties": { "lat": 44.84279, "lon": -1.07873, "frp": 57.6, "fetch_timestamp": "2026-07-23T14:12:00" }, "geometry": { "type": "Point", "coordinates": [ -1.07873, 44.84279 ] } },
{ "type": "Feature", "properties": { "lat": 44.84401, "lon": -1.07443, "frp": 57.6, "fetch_timestamp": "2026-07-23T14:12:00" }, "geometry": { "type": "Point", "coordinates": [ -1.07443, 44.84401 ] } },
{ "type": "Feature", "properties": { "lat": 44.84765, "lon": -1.06154, "frp": 100.76, "fetch_timestamp": "2026-07-23T14:12:00" }, "geometry": { "type": "Point", "coordinates": [ -1.06154, 44.84765 ] } },
{ "type": "Feature", "properties": { "lat": 44.8514, "lon": -1.06858, "frp": 13.63, "fetch_timestamp": "2026-07-23T14:12:00" }, "geometry": { "type": "Point", "coordinates": [ -1.06858, 44.8514 ] } },
{ "type": "Feature", "properties": { "lat": 44.87864, "lon": -1.07375, "frp": 9.69, "fetch_timestamp": "2026-07-23T14:12:00" }, "geometry": { "type": "Point", "coordinates": [ -1.07375, 44.87864 ] } },
{ "type": "Feature", "properties": { "lat": 44.89046, "lon": -1.0112, "frp": 28.77, "fetch_timestamp": "2026-07-23T14:12:00" }, "geometry": { "type": "Point", "coordinates": [ -1.0112, 44.89046 ] } },
{ "type": "Feature", "properties": { "lat": 44.89542, "lon": -1.01391, "frp": 28.77, "fetch_timestamp": "2026-07-23T14:12:00" }, "geometry": { "type": "Point", "coordinates": [ -1.01391, 44.89542 ] } },
{ "type": "Feature", "properties": { "lat": 44.89815, "lon": -1.04504, "frp": 108.91, "fetch_timestamp": "2026-07-23T14:12:00" }, "geometry": { "type": "Point", "coordinates": [ -1.04504, 44.89815 ] } },
{ "type": "Feature", "properties": { "lat": 44.9031, "lon": -1.04778, "frp": 80.78, "fetch_timestamp": "2026-07-23T14:12:00" }, "geometry": { "type": "Point", "coordinates": [ -1.04778, 44.9031 ] } },
{ "type": "Feature", "properties": { "lat": 44.80746, "lon": -1.16132, "frp": 8.85, "fetch_timestamp": "2026-07-23T14:12:00" }, "geometry": { "type": "Point", "coordinates": [ -1.16132, 44.80746 ] } },
{ "type": "Feature", "properties": { "lat": 44.80892, "lon": -1.15923, "frp": 6.31, "fetch_timestamp": "2026-07-23T14:12:00" }, "geometry": { "type": "Point", "coordinates": [ -1.15923, 44.80892 ] } },
{ "type": "Feature", "properties": { "lat": 44.82148, "lon": -1.1199, "frp": 9.49, "fetch_timestamp": "2026-07-23T14:12:00" }, "geometry": { "type": "Point", "coordinates": [ -1.1199, 44.82148 ] } },
{ "type": "Feature", "properties": { "lat": 44.82563, "lon": -1.14273, "frp": 9.01, "fetch_timestamp": "2026-07-23T14:12:00" }, "geometry": { "type": "Point", "coordinates": [ -1.14273, 44.82563 ] } },
{ "type": "Feature", "properties": { "lat": 44.83543, "lon": -1.12784, "frp": 12.14, "fetch_timestamp": "2026-07-23T14:12:00" }, "geometry": { "type": "Point", "coordinates": [ -1.12784, 44.83543 ] } },
{ "type": "Feature", "properties": { "lat": 44.85272, "lon": -1.09783, "frp": 7.31, "fetch_timestamp": "2026-07-23T14:12:00" }, "geometry": { "type": "Point", "coordinates": [ -1.09783, 44.85272 ] } },
{ "type": "Feature", "properties": { "lat": 44.85439, "lon": -1.06177, "frp": 13.11, "fetch_timestamp": "2026-07-23T14:12:00" }, "geometry": { "type": "Point", "coordinates": [ -1.06177, 44.85439 ] } },
{ "type": "Feature", "properties": { "lat": 44.8546, "lon": -1.05725, "frp": 13.73, "fetch_timestamp": "2026-07-23T14:12:00" }, "geometry": { "type": "Point", "coordinates": [ -1.05725, 44.8546 ] } },
{ "type": "Feature", "properties": { "lat": 44.85822, "lon": -1.09382, "frp": 10.81, "fetch_timestamp": "2026-07-23T14:12:00" }, "geometry": { "type": "Point", "coordinates": [ -1.09382, 44.85822 ] } },
{ "type": "Feature", "properties": { "lat": 44.85843, "lon": -1.08931, "frp": 10.81, "fetch_timestamp": "2026-07-23T14:12:00" }, "geometry": { "type": "Point", "coordinates": [ -1.08931, 44.85843 ] } },
{ "type": "Feature", "properties": { "lat": 44.86371, "lon": -1.08976, "frp": 6.06, "fetch_timestamp": "2026-07-23T14:12:00" }, "geometry": { "type": "Point", "coordinates": [ -1.08976, 44.86371 ] } },
{ "type": "Feature", "properties": { "lat": 44.86963, "lon": -1.07669, "frp": 9.54, "fetch_timestamp": "2026-07-23T14:12:00" }, "geometry": { "type": "Point", "coordinates": [ -1.07669, 44.86963 ] } },
{ "type": "Feature", "properties": { "lat": 44.88043, "lon": -1.07308, "frp": 9.92, "fetch_timestamp": "2026-07-23T14:12:00" }, "geometry": { "type": "Point", "coordinates": [ -1.07308, 44.88043 ] } },
{ "type": "Feature", "properties": { "lat": 44.88278, "lon": -1.0231, "frp": 2.91, "fetch_timestamp": "2026-07-23T14:12:00" }, "geometry": { "type": "Point", "coordinates": [ -1.0231, 44.88278 ] } },
{ "type": "Feature", "properties": { "lat": 44.90422, "lon": -1.02036, "frp": 8.59, "fetch_timestamp": "2026-07-23T14:12:00" }, "geometry": { "type": "Point", "coordinates": [ -1.02036, 44.90422 ] } },
{ "type": "Feature", "properties": { "lat": 44.90444, "lon": -1.01581, "frp": 12.24, "fetch_timestamp": "2026-07-23T14:12:00" }, "geometry": { "type": "Point", "coordinates": [ -1.01581, 44.90444 ] } }
]
}
