{"type": "FeatureCollection", "name": "zone_active", "crs": {"type": "name", "properties": {"name": "urn:ogc:def:crs:OGC:1.3:CRS84"}}, "features": [{"type": "Feature", "properties": {"nb_detections_cluster": 23, "frp_max": 144.69, "frp_moyen": 77.95, "derniere_detection": "2026-07-23T14:12:00", "fetch_timestamp": "2026-07-23T14:12:00"}, "geometry": {"type": "Polygon", "coordinates": [[[-1.121173145282113, 44.80337391552688], [-1.121297941601218, 44.80307771759203], [-1.121462914874256, 44.802791654301586], [-1.121666475820179, 44.8025184804229], [-1.121906663643138, 44.802260826559476], [-1.122181164931106, 44.80202117382478], [-1.122487335945743, 44.80180182995684], [-1.122822228088462, 44.801604907103005], [-1.123182616297194, 44.80143230148859], [-1.123565030100425, 44.80128567516472], [-1.123965787029579, 44.801166440010974], [-1.124381028068398, 44.801075744146324], [-1.124806754798471, 44.801014460879074], [-1.12523886788391, 44.800983180301934], [-1.125673206525404, 44.80098220361282], [-1.126105588504635, 44.80101154021619], [-1.12653185043442, 44.80107090763247], [-1.126947887827995, 44.80115973421673], [-1.127349694602528, 44.80127716466017], [-1.127733401637433, 44.80142206822188], [-1.128095314016962, 44.80159304961164], [-1.128431946599172, 44.801788462419296], [-1.128740057569292, 44.802006424961455], [-1.129016679654746, 44.8022448383937], [-1.129259148701435, 44.80250140691378], [-1.129465129336074, 44.802773659861884], [-1.129632637467246, 44.803058975505415], [-1.129760059408093, 44.80335460627951], [-1.129846167435894, 44.80365770524066], [-1.129890131637997, 44.80396535347891], [-1.129891527929114, 44.80427458822467], [-1.129850342161864, 44.80458243137995], [-1.129766970289925, 44.80488591819889], [-1.129642214581224, 44.80518212584183], [-1.129477275916585, 44.80546820152746], [-1.129273742247077, 44.80574139001205], [-1.12903357332033, 44.80599906013087], [-1.128759081822202, 44.80623873014573], [-1.128452911114813, 44.80645809165452], [-1.128118009784944, 44.806655031832], [-1.127757603247719, 44.8068276537871], [-1.127375162679008, 44.80697429484073], [-1.126974371575967, 44.80709354254725], [-1.126559090268141, 44.80718424830531], [-1.126133318721452, 44.80724553842635], [-1.125701157994069, 44.80727682255436], [-1.125631331057378, 44.80727697968797], [-1.125739580308072, 44.8073915244831], [-1.125945561815214, 44.807663784415816], [-1.12611306665416, 44.80794910584445], [-1.126240481169627, 44.808244741148414], [-1.126326577710272, 44.80854784334057], [-1.126370526473933, 44.8088554934798], [-1.12637190352387, 44.80916472877823], [-1.126330694897882, 44.80947257113247], [-1.126247296769684, 44.809776055804406], [-1.126122511659973, 44.810072259975], [-1.125957540732654, 44.810358330896364], [-1.12575397224946, 44.810631513370666], [-1.125513766293283, 44.810889176290985], [-1.125239235906599, 44.811128837988505], [-1.124933024826086, 44.81134819014117], [-1.124598082027401, 44.81154512001384], [-1.124237633325122, 44.811717730814735], [-1.123855150301292, 44.81186435997215], [-1.123454316862055, 44.81198359515504], [-1.123038993744804, 44.81207428788265], [-1.122613181318246, 44.812135564592005], [-1.122180981034383, 44.81216683505619], [-1.121746555904459, 44.81216779807243], [-1.12131409038052, 44.812138444364756], [-1.120887750029925, 44.81207905667347], [-1.120471641392206, 44.81199020703021], [-1.120346369643464, 44.81195359358572], [-1.12026255635843, 44.812152481134206], [-1.120097549501414, 44.81243854353904], [-1.119893945003534, 44.812711715448756], [-1.119653703294577, 44.81296936585819], [-1.119379137761417, 44.81320901321894], [-1.119072892479301, 44.81342834934708], [-1.118737916753369, 44.81362526166176], [-1.118377436715419, 44.813797853540294], [-1.117994924249392, 44.81394446259323], [-1.117594063545089, 44.81406367668316], [-1.117178715602591, 44.81415434753251], [-1.11675288102979, 44.81421560178899], [-1.116320661492051, 44.814246849442], [-1.115886220186121, 44.81424778950845], [-1.115453741719878, 44.81421841293348], [-1.115027391785357, 44.81415900267759], [-1.114611277014395, 44.81407013098982], [-1.114209405404599, 44.813952653892954], [-1.113825647697643, 44.81380770293421], [-1.113463700082765, 44.81363667428094], [-1.113127048585348, 44.81344121526668], [-1.112818935484134, 44.81322320851742], [-1.112542328080909, 44.812984753811385], [-1.112299890123595, 44.81272814784721], [-1.112093956158009, 44.81245586211588], [-1.111926509055069, 44.81217051908987], [-1.111799160929491, 44.81187486695924], [-1.11171313763317, 44.811571753158034], [-1.111669266971856, 44.81126409693646], [-1.111667970757748, 44.81095486124316], [-1.111709260773583, 44.810647024188455], [-1.111792738686083, 44.81034355036338], [-1.111917599908556, 44.810047362290966], [-1.112082641374432, 44.80976131228442], [-1.112286273145921, 44.80948815498315], [-1.112526533745128, 44.809230520830894], [-1.112801109059234, 44.80899089075133], [-1.113107354637116, 44.80877157226426], [-1.113442321162267, 44.80857467727262], [-1.113802782856474, 44.80840210173336], [-1.114185268540733, 44.80825550740803], [-1.11458609505445, 44.80813630586806], [-1.115001402711472, 44.80804564490875], [-1.115427192452054, 44.80798439750231], [-1.115859364333706, 44.80795315339609], [-1.116293756991082, 44.80795221343688], [-1.116726187685836, 44.807981586675446], [-1.117152492561769, 44.80804099027948], [-1.117568566718617, 44.808129852255576], [-1.11769382813647, 44.80816646879006], [-1.117777644566832, 44.80796758344836], [-1.117942650105525, 44.807681524923375], [-1.118146245866288, 44.807408357056], [-1.11838647071797, 44.80715071039179], [-1.118661010891948, 44.8069110659749], [-1.118967222275425, 44.80669173146323], [-1.119302155881102, 44.80649481891403], [-1.119662586247683, 44.806322224453346], [-1.120045042497753, 44.80617561002494], [-1.120445841754073, 44.8060563873938], [-1.120861124592877, 44.80596570455836], [-1.121286892193337, 44.805904434701446], [-1.121719044826093, 44.805873167786615], [-1.121788870029869, 44.805873013115985], [-1.121680631753653, 44.80575846452388], [-1.121474677884494, 44.80548619684604], [-1.121307203927207, 44.80520086864971], [-1.121179822255369, 44.80490522798223], [-1.121093759044182, 44.80460212216726], [-1.121049842484024, 44.80429447037815], [-1.121048494829326, 44.80398523552094], [-1.121089728358403, 44.80367739569793], [-1.121173145282113, 44.80337391552688]]]}}, {"type": "Feature", "properties": {"nb_detections_cluster": 45, "frp_max": 128.34, "frp_moyen": 32.74, "derniere_detection": "2026-07-23T14:12:00", "fetch_timestamp": "2026-07-23T14:12:00"}, "geometry": {"type": "Polygon", "coordinates": [[[-1.139697589848816, 44.803178409707414], [-1.139862469784778, 44.802892319046826], [-1.140065941681135, 44.802619111396616], [-1.140306045599362, 44.80236141768557], [-1.140580468935177, 44.802121719410955], [-1.140886568700646, 44.801902324749406], [-1.141221396983019, 44.80170534633745], [-1.141581729334923, 44.801532680935395], [-1.141964095822467, 44.80138599117015], [-1.142364814432487, 44.8012666895322], [-1.142780026517525, 44.80117592478069], [-1.143205733937829, 44.80111457088729], [-1.143637837543352, 44.80108321862472], [-1.144072176626016, 44.80108216988118], [-1.144504568963254, 44.80111143475489], [-1.144930851068196, 44.80117073145701], [-1.145346918259902, 44.801259489023494], [-1.145748764168752, 44.801376852810094], [-1.146132519297504, 44.8015216927178], [-1.146494488267513, 44.80169261406936], [-1.146831185392139, 44.80188797103271], [-1.147139368235355, 44.80210588246231], [-1.147416068832731, 44.802344250005945], [-1.147658622274377, 44.8026007783033], [-1.147864692374541, 44.80287299708206], [-1.148032294180473, 44.80315828493869], [-1.148159813103405, 44.80345389457601], [-1.148246020486812, 44.803756979254224], [-1.148290085461314, 44.80406462020097], [-1.148291582971194, 44.80437385471704], [-1.148250497894278, 44.80468170470677], [-1.148167225214478, 44.80498520535862], [-1.148042566244321, 44.805281433699726], [-1.147877720932804, 44.805567536749656], [-1.147674276331723, 44.80584075900117], [-1.147434191330661, 44.80609846896442], [-1.147159777806921, 44.80633818451753], [-1.146853678371369, 44.80655759681989], [-1.146518840924072, 44.80675459255704], [-1.146158490264609, 44.806927274302865], [-1.145776097030418, 44.80707397880239], [-1.145375344262524, 44.807193292998896], [-1.144960091921052, 44.807284067650606], [-1.144534339692784, 44.80734542840541], [-1.144102188449714, 44.80737678422691], [-1.143667800730606, 44.807377833090115], [-1.143235360627095, 44.807348564892216], [-1.142809033461684, 44.8072892615498], [-1.142392925646959, 44.807200494282114], [-1.141991045113665, 44.80708311810618], [-1.141607262689637, 44.80693826359714], [-1.141245274802464, 44.806767325993405], [-1.140908567865761, 44.806571951751536], [-1.140600384692629, 44.806354022681134], [-1.140323693260177, 44.80611563781232], [-1.140081158126091, 44.80585909317116], [-1.139875114772574, 44.805586859658135], [-1.139707547124517, 44.805301559242956], [-1.139580068458018, 44.805005939705424], [-1.139493905882575, 44.80470284816582], [-1.139449888545619, 44.80439520366014], [-1.139448439672184, 44.804085969024406], [-1.139489572515372, 44.803778122358864], [-1.139572890255641, 44.80347462834733], [-1.139697589848816, 44.803178409707414]]]}}, {"type": "Feature", "properties": {"nb_detections_cluster": 34, "frp_max": 79.78, "frp_moyen": 35.25, "derniere_detection": "2026-07-23T14:12:00", "fetch_timestamp": "2026-07-23T14:12:00"}, "geometry": {"type": "Polygon", "coordinates": [[[-1.099096966253351, 44.82181687594561], [-1.099262107538651, 44.82153084389494], [-1.099465844268801, 44.82125770905991], [-1.099706213955119, 44.82100010166787], [-1.099980901434316, 44.820760502384694], [-1.100287261175223, 44.820541218433625], [-1.100622342762104, 44.82034436138495], [-1.100982919308917, 44.82017182683027], [-1.101365518530887, 44.820025276136406], [-1.101766456174343, 44.81990612045468], [-1.102181871483258, 44.81981550713878], [-1.102607764361511, 44.819754308702144], [-1.103040033873699, 44.81972311442062], [-1.103474517714574, 44.819722224661206], [-1.103907032267937, 44.819751647991325], [-1.104333412870228, 44.81981110109632], [-1.104749553892087, 44.81990001150616], [-1.105151448252856, 44.820017523104866], [-1.105535225988504, 44.8201625043701], [-1.105897191502331, 44.8203335592634], [-1.106233859140498, 44.82052904066676], [-1.106541986750337, 44.82074706623622], [-1.106818606898628, 44.82098553652041], [-1.107061055449456, 44.82124215516951], [-1.10726699722638, 44.82151445104092], [-1.10743444851162, 44.82179980198859], [-1.107561796165162, 44.82209546010753], [-1.107647813179112, 44.822398578190835], [-1.107691670516741, 44.8227062371442], [-1.107692945121392, 44.823015474094746], [-1.107651624017118, 44.82332331092308], [-1.107568104460586, 44.82362678294416], [-1.107443190141719, 44.82392296746068], [-1.107278083468671, 44.82420901191392], [-1.107074374010468, 44.82448216136087], [-1.106834023207748, 44.824739785012625], [-1.106559345498111, 44.82497940157844], [-1.106252986037291, 44.82519870317096], [-1.105917895230258, 44.82539557754188], [-1.105557300317381, 44.825568128433986], [-1.10517467428923, 44.825714693852554], [-1.104773702429625, 44.82583386208046], [-1.104358246809499, 44.82592448528183], [-1.103932309074112, 44.82598569056335], [-1.103499991882698, 44.826016888386114], [-1.103065459372796, 44.826017778247056], [-1.102632897030923, 44.82598835157484], [-1.102206471357126, 44.82592889181255], [-1.101790289712842, 44.82583997168609], [-1.101388360739821, 44.82572244768478], [-1.101004555732227, 44.82557745180763], [-1.100642571334803, 44.82540638065462], [-1.100305893927075, 44.82521088196863], [-1.099997766037151, 44.824992838757716], [-1.09972115510901, 44.824754351151284], [-1.099478724924248, 44.82449771616476], [-1.099272809953502, 44.82422540556862], [-1.099105392884413, 44.8239400420748], [-1.09897808554208, 44.823644374070376], [-1.098892113385267, 44.823341249142196], [-1.098848303726861, 44.823033586647576], [-1.098847077791239, 44.82272434959552], [-1.098888446684021, 44.82241651610927], [-1.098972011312058, 44.82211305074547], [-1.099096966253351, 44.82181687594561]]]}}, {"type": "Feature", "properties": {"nb_detections_cluster": 27, "frp_max": 193.1, "frp_moyen": 48.33, "derniere_detection": "2026-07-23T14:12:00", "fetch_timestamp": "2026-07-23T14:12:00"}, "geometry": {"type": "Polygon", "coordinates": [[[-1.071376192869332, 44.82801674242164], [-1.071616720227288, 44.8277591953266], [-1.071891560500872, 44.82751966506802], [-1.072198066687877, 44.827300458204334], [-1.072533286962708, 44.827103685563465], [-1.072893993104205, 44.826931241924115], [-1.073276711580049, 44.826784787777655], [-1.073677756988599, 44.826665733345635], [-1.074093267536463, 44.826575225006835], [-1.074519242210737, 44.826514134263824], [-1.074951579288626, 44.82648304935549], [-1.075386115814452, 44.82648226959566], [-1.075818667664803, 44.826511802492575], [-1.076245069817001, 44.82657136367659], [-1.076661216434112, 44.82666037963699], [-1.077063100381464, 44.82677799324145], [-1.077446851795077, 44.826923071985334], [-1.077808775331429, 44.82709421889155], [-1.078145385740558, 44.82728978595601], [-1.078453441420483, 44.82750789000987], [-1.078729975630213, 44.82774643084586], [-1.078972325060946, 44.828003111434725], [-1.079178155490298, 44.82827546003728], [-1.079345484272314, 44.82856085399949], [-1.079472699446284, 44.82885654500208], [-1.079558575279743, 44.82915968552121], [-1.07960228409526, 44.82946735624641], [-1.079603404266261, 44.82977659419122], [-1.07956192430391, 44.83008442122653], [-1.079478242994688, 44.8303878727614], [-1.079353165586323, 44.830684026295664], [-1.07918789605774, 44.8309700295688], [-1.078984025546587, 44.83124312803428], [-1.078743517044845, 44.83150069139406], [-1.078468686509238, 44.83174023893798], [-1.078162180567753, 44.83195946344337], [-1.077826951036545, 44.83215625340431], [-1.077466226492495, 44.83232871337648], [-1.077083481175118, 44.83247518224091], [-1.076682401517562, 44.83259424921039], [-1.07626685062939, 44.83268476742437], [-1.075840831073759, 44.83274586500076], [-1.075408446298232, 44.8327769534381], [-1.07497386109148, 44.832777733286896], [-1.074541261447694, 44.832748197035514], [-1.074114814226228, 44.8326886291825], [-1.073698626996003, 44.832599603494906], [-1.073514834685669, 44.83254581483383], [-1.073478337242394, 44.83267810574202], [-1.073353223111613, 44.83297425273553], [-1.073187916306011, 44.83326024728706], [-1.072984008322262, 44.83353333493398], [-1.072743462513291, 44.83379088548244], [-1.072468595195185, 44.83403041834566], [-1.072316296614251, 44.834139327390155], [-1.072342964820291, 44.834123675194526], [-1.072703716613089, 44.833951231775174], [-1.073086483402215, 44.83380477794633], [-1.07348757932084, 44.833685723926486], [-1.07390314208926, 44.83359521609044], [-1.074329170191805, 44.83353412593596], [-1.074761561391299, 44.833503041696225], [-1.075196152211016, 44.833502262678664], [-1.075628758004841, 44.83353179638433], [-1.07605521323076, 44.83359135843582], [-1.076471411540871, 44.833680375314025], [-1.076873345302815, 44.8337979898778], [-1.077257144172992, 44.83394306961332], [-1.077619112350944, 44.8341142175339], [-1.077955764156848, 44.834309785625706], [-1.078263857590084, 44.834527890709985], [-1.078540425546072, 44.834766432569566], [-1.078782804390979, 44.83502311416532], [-1.078988659619077, 44.83529546374836], [-1.079156008345486, 44.835580858655256], [-1.079283238417295, 44.83587655055756], [-1.079369123958416, 44.83617969192286], [-1.07941283719777, 44.836487363432475], [-1.079413956466001, 44.83679660209241], [-1.079372470282797, 44.837104429766654], [-1.079288777494374, 44.837407881858105], [-1.079163683458851, 44.83770403586126], [-1.078998392315139, 44.83799003951109], [-1.078794495408927, 44.8382631382574], [-1.0785539559863, 44.838520701799446], [-1.078279090301705, 44.83876024942533], [-1.077972545321596, 44.83897947391156], [-1.0776372732381, 44.83917626375241], [-1.077276503037932, 44.83934872350475], [-1.07689370940037, 44.83949519205168], [-1.076492579224014, 44.839614258609046], [-1.076076976105073, 44.83970477632029], [-1.075650903109864, 44.83976587330815], [-1.075218464200765, 44.839796961076836], [-1.074783824687954, 44.8397977401833], [-1.074351171088795, 44.839768203123036], [-1.073924670782434, 44.83970863440243], [-1.073508431849188, 44.83961960779683], [-1.073106463482543, 44.83950198082122], [-1.072722637355934, 44.83935688646639], [-1.072360650317272, 44.83918572228086], [-1.072023988771185, 44.838990136903504], [-1.071715895092603, 44.83877201417736], [-1.071439336395536, 44.83853345499755], [-1.071196975957999, 44.838276757068805], [-1.070991147578338, 44.8380043927677], [-1.07082383310966, 44.837718985323264], [-1.070696643388372, 44.83742328354573], [-1.070610802739913, 44.837120135347064], [-1.070567137210165, 44.83681246030851], [-1.070566066635027, 44.83650322155967], [-1.070607600623567, 44.83619539724001], [-1.07069133849243, 44.83589195181768], [-1.070816473151088, 44.83559580754192], [-1.070981798899503, 44.835309816303926], [-1.071185723062146, 44.83503673217693], [-1.071426281345482, 44.83477918489981], [-1.07170115677026, 44.83453965455949], [-1.071853457628698, 44.834430746344914], [-1.071826789140542, 44.83444639842448], [-1.071466031477007, 44.834618839021076], [-1.071083254918248, 44.83476528729968], [-1.070682146198404, 44.834884332671386], [-1.070266568707037, 44.83497482848363], [-1.069840525263619, 44.83503590307015], [-1.069408119545855, 44.83506696815086], [-1.068973516544183, 44.83506772450129], [-1.068540902424223, 44.83503816483613], [-1.068114444184779, 44.83497857387947], [-1.067698249500895, 44.83488952562085], [-1.067296327139753, 44.834771877783815], [-1.066912548331576, 44.83462676356012], [-1.066550609468419, 44.8344555806896], [-1.066213996490814, 44.8342599779911], [-1.065905951305826, 44.83404183947448], [-1.065629440560337, 44.83380326618697], [-1.065387127070491, 44.833546555969114], [-1.065181344182444, 44.833274181315815], [-1.065014073311176, 44.832988765555804], [-1.064886924873236, 44.83269305757936], [-1.064859906394028, 44.832597597402994], [-1.064448140503966, 44.832509479897624], [-1.064046241973314, 44.83239182038144], [-1.063662487815781, 44.83224669503156], [-1.063300574185942, 44.83207550169494], [-1.062963986781242, 44.831879889291244], [-1.062655967262394, 44.8316617419238], [-1.062379482029048, 44.83142316072505], [-1.062137193651602, 44.83116644361176], [-1.061931435234339, 44.83089406314523], [-1.061764187956554, 44.83060864271014], [-1.06163706200758, 44.830312931241785], [-1.061551281098751, 44.83000977674541], [-1.061507670700725, 44.82970209886286], [-1.061506650118594, 44.829392860751085], [-1.061548228480141, 44.829085040543305], [-1.061632004674884, 44.828781602668066], [-1.061757171243416, 44.828485469301846], [-1.061922522178628, 44.82819949223072], [-1.06212646456267, 44.82792642539147], [-1.062367033926754, 44.82766889835647], [-1.062641913185134, 44.82742939101761], [-1.062948454960316, 44.82721020971262], [-1.063283707084139, 44.82701346502324], [-1.063644441028878, 44.82684105145903], [-1.064027182994608, 44.82669462922171], [-1.064428247353599, 44.826575608225575], [-1.064843772130075, 44.82648513452746], [-1.065269756174191, 44.826424079296345], [-1.065702097672976, 44.82639303042917], [-1.066136633628207, 44.82639228689276], [-1.066569179921967, 44.826421855846554], [-1.066995571585057, 44.82648145257371], [-1.067411702881495, 44.826570503221255], [-1.067813566824062, 44.82668815032284], [-1.06819729374132, 44.82683326105134], [-1.068559188525521, 44.82700443812161], [-1.06889576620345, 44.827200033239144], [-1.069203785488185, 44.827418162964875], [-1.069480279989075, 44.82765672684435], [-1.069722586779576, 44.827913427626356], [-1.0699283720478, 44.82818579337722], [-1.070095653582584, 44.82847120127774], [-1.070222819878121, 44.82876690287435], [-1.070249845626094, 44.82886236162435], [-1.070661593887163, 44.82895045749565], [-1.070845371706296, 44.829004250818706], [-1.07088187296208, 44.82887196093657], [-1.07100699098356, 44.828575817129554], [-1.071172295108364, 44.828289826268026], [-1.071376192869332, 44.82801674242164]]]}}, {"type": "Feature", "properties": {"nb_detections_cluster": 2, "frp_max": 31.73, "frp_moyen": 24.48, "derniere_detection": "2026-07-23T14:12:00", "fetch_timestamp": "2026-07-23T14:12:00"}, "geometry": {"type": "Polygon", "coordinates": [[[-1.00363359119224, 44.891343262573635], [-1.003799423393141, 44.891057366431255], [-1.004003876876337, 44.890784400991016], [-1.004244982250855, 44.89052699484857], [-1.004520417269221, 44.89028762673136], [-1.004827529202369, 44.890068601636266], [-1.005163360392231, 44.88987202864059], [-1.005524676735674, 44.88969980060043], [-1.005907998825504, 44.88955357593095], [-1.006309635448813, 44.889434762643944], [-1.006725719120442, 44.8893445047961], [-1.007152243309958, 44.88928367147799], [-1.007585101004347, 44.88925284844973], [-1.008020124235883, 44.88925233250354], [-1.008453124195487, 44.88928212860742], [-1.008879931546252, 44.889341949857325], [-1.009296436549962, 44.88943122023835], [-1.00969862862113, 44.88954908016835], [-1.010082634928648, 44.88969439477079], [-1.01044475767411, 44.889865764797385], [-1.010781509688563, 44.890061540095445], [-1.011089648005429, 44.89027983549083], [-1.01136620508669, 44.89051854893359], [-1.011608517401799, 44.89077538173211], [-1.011814251084117, 44.891047860681205], [-1.011981424417553, 44.89133336187132], [-1.012108426936495, 44.89162913595019], [-1.012194034954492, 44.89193233459361], [-1.012237423371413, 44.892240037930925], [-1.012238173644522, 44.892549282661214], [-1.012196277845727, 44.89285709058953], [-1.012112138764932, 44.89316049730852], [-1.011986566057453, 44.89345658074925], [-1.011820768471573, 44.89374248932587], [-1.011616342230145, 44.89401546940344], [-1.011375255677256, 44.89427289182385], [-1.011099830337076, 44.894512277234064], [-1.010792718566741, 44.89473131997269], [-1.010456878018065, 44.894927910284366], [-1.010095543153834, 44.89510015464755], [-1.009712194092984, 44.89524639401978], [-1.009310523084907, 44.89536521982429], [-1.00889439893615, 44.89545548752331], [-1.008467829732654, 44.895516327647684], [-1.008034924217299, 44.89554715417576], [-1.007599852195544, 44.895547670180825], [-1.007166804351449, 44.895517870692615], [-1.006739951862091, 44.89545804274522], [-1.006323406200342, 44.895368762610936], [-1.005921179514153, 44.89525089024672], [-1.005537145964867, 44.89510556100692], [-1.005175004397776, 44.89493417470238], [-1.004838242705139, 44.89473838211131], [-1.004530104225459, 44.8945200690724], [-1.004253556503013, 44.89428133831363], [-1.004011262708691, 44.8940244891921], [-1.003805555997392, 44.893751995540235], [-1.003638417048725, 44.89346648183263], [-1.003511455006913, 44.8931706979026], [-1.003425892002895, 44.89286749245289], [-1.003382551406939, 44.89255978561575], [-1.003381849924049, 44.892250540826595], [-1.003423793607335, 44.89194273628262], [-1.003507977826723, 44.89163933626109], [-1.00363359119224, 44.891343262573635]]]}}, {"type": "Feature", "properties": {"nb_detections_cluster": 5, "frp_max": 31.73, "frp_moyen": 22.8, "derniere_detection": "2026-07-23T14:12:00", "fetch_timestamp": "2026-07-23T14:12:00"}, "geometry": {"type": "Polygon", "coordinates": [[[-1.013073407532687, 44.891423617465954], [-1.01323919188851, 44.89113770722605], [-1.01344359975668, 44.890864724406484], [-1.013684662185386, 44.89060729777032], [-1.013960057340586, 44.8903679062424], [-1.014267132876954, 44.89014885504503], [-1.014602931486774, 44.88995225350693], [-1.014964219380515, 44.88977999475906], [-1.015347517424815, 44.88963373751228], [-1.015749134638193, 44.889514890092116], [-1.016165203722304, 44.889424596883906], [-1.01659171828711, 44.88936372731871], [-1.017024571412224, 44.88933286750569], [-1.017459595173893, 44.88933231459123], [-1.017892600757934, 44.88936207389934], [-1.018319418773309, 44.88942185888025], [-1.01873593937916, 44.889511093868286], [-1.019138151839837, 44.88962891962209], [-1.019522183127991, 44.88977420159427], [-1.01988433520478, 44.889945540850704], [-1.020221120618927, 44.890141287535045], [-1.020529296082365, 44.89035955674871], [-1.020805893699498, 44.890598246693884], [-1.021048249549566, 44.89085505890523], [-1.021254029346817, 44.89112752037589], [-1.021421250931184, 44.89141300736465], [-1.021548303372494, 44.89170877065606], [-1.021633962503607, 44.892011962029855], [-1.021677402732208, 44.89231966168544], [-1.021678205016617, 44.892628906357416], [-1.021636360927843, 44.892936717851455], [-1.021552272757762, 44.89324013172595], [-1.021426749671324, 44.89353622584307], [-1.021260999938842, 44.89382214851422], [-1.021056619322193, 44.89409514596877], [-1.020815575725934, 44.89435258888127], [-1.020540190260381, 44.894591997701376], [-1.020233114898492, 44.89481106654226], [-1.01989730694128, 44.89500768539715], [-1.01953600053749, 44.89517996046964], [-1.019152675531818, 44.895326232421525], [-1.018751023941851, 44.895445092362145], [-1.01833491438701, 44.895535395425036], [-1.017908354812598, 44.8955962718004], [-1.017475453868696, 44.89562713511739], [-1.01704038131671, 44.895627688094926], [-1.016607327845805, 44.895597925406626], [-1.016180464687283, 44.89553813373214], [-1.01576390341683, 44.89544888899435], [-1.015361656332811, 44.895331050809304], [-1.014977597793134, 44.89518575420213], [-1.0146154268839, 44.89501439866937], [-1.014278631780107, 44.89481863469285], [-1.01397045614219, 44.894600347835684], [-1.013693867872447, 44.8943616405737], [-1.013451530532427, 44.89410481203772], [-1.013245777696551, 44.89383233586197], [-1.013078590488772, 44.89354683635275], [-1.012951578518193, 44.89325106320667], [-1.012865964396686, 44.8929478650227], [-1.012822571986871, 44.892640161863156], [-1.01282181849278, 44.8923309171281], [-1.012863710468419, 44.89202310901424], [-1.012947843781646, 44.89171970183332], [-1.013073407532687, 44.891423617465954]]]}}, {"type": "Feature", "properties": {"nb_detections_cluster": 9, "frp_max": 53.23, "frp_moyen": 43.5, "derniere_detection": "2026-07-23T14:12:00", "fetch_timestamp": "2026-07-23T14:12:00"}, "geometry": {"type": "Polygon", "coordinates": [[[-1.041082866458922, 44.891614670593235], [-1.041248508696126, 44.89132871855197], [-1.041452781026795, 44.89105568419214], [-1.041693715804001, 44.890798196773254], [-1.041968992422596, 44.890558735805584], [-1.042275959678335, 44.890339607180245], [-1.042611661305808, 44.89014292097162], [-1.042972864448986, 44.88997057112605], [-1.043356090790242, 44.88982421723166], [-1.043757650038224, 44.8897052685446], [-1.044173675452474, 44.889614870425405], [-1.044600161063245, 44.889553893315295], [-1.045033000228804, 44.88952292435898], [-1.045468025159741, 44.88952226175382], [-1.045901047030615, 44.88955191187996], [-1.04632789629364, 44.889611589238974], [-1.046744462807215, 44.88970071920147], [-1.047146735393855, 44.88981844353742], [-1.047530840447521, 44.889963628675986], [-1.04789307921938, 44.89013487661549], [-1.048229963423701, 44.89033053837898], [-1.048538248821499, 44.89054872988566], [-1.04881496645895, 44.89078735008606], [-1.049057451259921, 44.89104410118659], [-1.049263367697252, 44.89131651076896], [-1.049430732295368, 44.891601955591774], [-1.04955793274715, 44.89189768684582], [-1.049643743460306, 44.8922008566195], [-1.049687337382895, 44.892508545320396], [-1.049688293993174, 44.892817789788765], [-1.049646603375906, 44.893125611832474], [-1.049562666344853, 44.893429046908466], [-1.049437290609219, 44.893725172674905], [-1.049361567809753, 44.893855928120715], [-1.049740883157283, 44.89388188552765], [-1.050167769431984, 44.89394154821144], [-1.050584374178936, 44.8940306638937], [-1.050986685852572, 44.89414837448192], [-1.051370830470542, 44.89429354653761], [-1.051733108903113, 44.89446478218513], [-1.052070032482701, 44.89466043256583], [-1.052378356591204, 44.89487861370856], [-1.052655111902062, 44.895117224663714], [-1.052897632976373, 44.89537396772669], [-1.053103583937665, 44.895646370556605], [-1.053270980977882, 44.89593180997716], [-1.053398211477435, 44.896227537231134], [-1.053484049554606, 44.89653070444548], [-1.053527667893851, 44.89683839205249], [-1.053528645738188, 44.89714763690298], [-1.053486972967777, 44.89745546080112], [-1.053403050224383, 44.89775889918603], [-1.053277685079491, 44.89805502968403], [-1.053112084281941, 44.89834100025632], [-1.052907842158807, 44.89861405667112], [-1.052666925280341, 44.89887156903526], [-1.052391653535935, 44.89911105712959], [-1.052084677802771, 44.89933021430392], [-1.051748954421813, 44.89952692970074], [-1.051387716726761, 44.899699308593874], [-1.051004443900119, 44.89984569064515], [-1.050602827456557, 44.89996466590354], [-1.050186735676693, 44.90005508839179], [-1.049760176334421, 44.90011608714985], [-1.049327258077479, 44.90014707462804], [-1.048892150833996, 44.900147752349376], [-1.048459045627352, 44.90011811378587], [-1.048032114187311, 44.90005844442162], [-1.047615468747466, 44.89996931900139], [-1.047213122417188, 44.89985159599198], [-1.04682895051066, 44.89970640930915], [-1.046466653206301, 44.899535157390694], [-1.046129719896928, 44.899339489720504], [-1.045821395574552, 44.89912129093419], [-1.04554464957395, 44.8988826626594], [-1.04530214697624, 44.898625903266286], [-1.045096222947844, 44.89835348572332], [-1.044928860261807, 44.89806803377219], [-1.044801670217504, 44.89777229665168], [-1.044715877141979, 44.89746912261397], [-1.044672306621389, 44.89716143148903], [-1.044671377575072, 44.89685218656122], [-1.044713098247587, 44.896544366029346], [-1.044797066156319, 44.89624093432487], [-1.044922471994103, 44.895944813564824], [-1.044998207953468, 44.89581406106035], [-1.044618881741812, 44.895788087443755], [-1.044191987322215, 44.895728403402735], [-1.043775380124644, 44.895639263700915], [-1.043373072890048, 44.895521526942616], [-1.042988940555971, 44.895376327176066], [-1.04262668291961, 44.89520506296505], [-1.042289788991655, 44.89500938391186], [-1.041981503384761, 44.89479117476172], [-1.041704795060789, 44.89455253724213], [-1.04146232873796, 44.89429576981222], [-1.04125643923333, 44.89402334551782], [-1.041089108987461, 44.89373788816573], [-1.040961948987341, 44.893442147046635], [-1.040876183270722, 44.89313897045125], [-1.040832637160357, 44.89283127823413], [-1.04083172934059, 44.89252203369012], [-1.040873467851667, 44.89221421501432], [-1.040957450039294, 44.891910786620336], [-1.041082866458922, 44.891614670593235]]]}}, {"type": "Feature", "properties": {"nb_detections_cluster": 1, "frp_max": 53.23, "frp_moyen": 53.23, "derniere_detection": "2026-07-23T14:12:00", "fetch_timestamp": "2026-07-23T14:12:00"}, "geometry": {"type": "Polygon", "coordinates": [[[-1.054332286909835, 44.89605516738582], [-1.054497874745757, 44.89576919519717], [-1.054702098780763, 44.89549613609986], [-1.05494299183278, 44.89523861959169], [-1.055218233698237, 44.89499912546315], [-1.055525173507328, 44.89477995992467], [-1.055860855258732, 44.89458323340616], [-1.056222046287629, 44.89441084024214], [-1.05660526839288, 44.89426444043786], [-1.057006831323795, 44.89414544369161], [-1.057422868304357, 44.89405499582663], [-1.057849373253391, 44.89399396776321], [-1.058282239342935, 44.89396294713666], [-1.058717298524349, 44.893962232641876], [-1.059150361642454, 44.89399183115863], [-1.059577258752381, 44.894051457685464], [-1.059993879251931, 44.89414053808244], [-1.060396211443927, 44.894258214596796], [-1.060780381148541, 44.89440335411816], [-1.061142688994579, 44.894574559084184], [-1.061479646031341, 44.89477018093167], [-1.061788007318686, 44.8949883359643], [-1.062064803172164, 44.89522692348381], [-1.062307367762589, 44.89548364601141], [-1.062513364794562, 44.895756031403955], [-1.062680810016476, 44.89604145665312], [-1.062808090344844, 44.89633717313822], [-1.062893979418163, 44.89664033308995], [-1.062937649429829, 44.89694801701062], [-1.062938679125256, 44.89725726178659], [-1.062897057885249, 44.89756508922278], [-1.062813185855273, 44.89786853472437], [-1.062687870118348, 44.89816467584915], [-1.062522316947393, 44.898450660456035], [-1.062318120210692, 44.89872373417812], [-1.062077246041262, 44.89898126695561], [-1.061802013917026, 44.899220778372786], [-1.061495074333439, 44.89943996155481], [-1.061159383283159, 44.89963670539379], [-1.060798173788358, 44.899809114889536], [-1.060414924759802, 44.8999555294092], [-1.060013327482834, 44.900074538689], [-1.05959725005337, 44.90016499642399], [-1.059170700107012, 44.900226031314645], [-1.058737786200946, 44.90025705546324], [-1.058302678221372, 44.900257770039566], [-1.057869567198757, 44.90022816816068], [-1.057442624918913, 44.90016853495729], [-1.057025963719892, 44.90007944482586], [-1.056623596862929, 44.89996175589329], [-1.056239399860009, 44.89981660174713], [-1.055877073131385, 44.89964538051179], [-1.055540106353401, 44.899449741375626], [-1.055231744840553, 44.89923156869948], [-1.054954958285951, 44.8989929638595], [-1.054712412161432, 44.89873622500019], [-1.054506442052764, 44.89846382489227], [-1.054339031176903, 44.89817838710956], [-1.054211791297436, 44.89788266075443], [-1.05412594722144, 44.897579493975456], [-1.054082325026297, 44.89727180653274], [-1.054081344129028, 44.89696256167525], [-1.054123013273545, 44.89665473760117], [-1.054206930473439, 44.89635129877615], [-1.054332286909835, 44.89605516738582]]]}}, {"type": "Feature", "properties": {"nb_detections_cluster": 1, "frp_max": 14.58, "frp_moyen": 14.58, "derniere_detection": "2026-07-23T14:12:00", "fetch_timestamp": "2026-07-23T14:12:00"}, "geometry": {"type": "Polygon", "coordinates": [[[-1.01284288795436, 44.89846360650196], [-1.013008694280234, 44.89817769598142], [-1.013213128909989, 44.897904712989416], [-1.013454222633988, 44.89764728629063], [-1.013729653316735, 44.897407894810556], [-1.014036768270725, 44.897188843771005], [-1.014372609808633, 44.89699224249921], [-1.01473394372754, 44.89681998412354], [-1.01511729045091, 44.896673727351256], [-1.015518958528559, 44.8965548805033], [-1.015935080172415, 44.89646458795955], [-1.016361648486413, 44.89640371914465], [-1.016794556032691, 44.896372860160504], [-1.017229634363569, 44.89637230814556], [-1.017662694139505, 44.89640206841513], [-1.018089565447739, 44.8964618544102], [-1.018506137934332, 44.896551090455326], [-1.018908400364141, 44.89666891729901], [-1.019292479228708, 44.896814200383304], [-1.019654676031099, 44.896985540763424], [-1.019991502889371, 44.89718128857219], [-1.020299716116356, 44.897399558900176], [-1.020576347452772, 44.897638249938865], [-1.020818732653088, 44.897895063212395], [-1.021024537148818, 44.89816752570365], [-1.02119177854194, 44.89845301366162], [-1.021318845711382, 44.898748777861506], [-1.021404514348012, 44.8990519700743], [-1.021447958767813, 44.89935967049132], [-1.021448759888566, 44.89966891583985], [-1.02140690929231, 44.899976727919], [-1.021322809333419, 44.90028014228158], [-1.021197269290216, 44.90057623678503], [-1.02103149759617, 44.900862159737024], [-1.02082709022454, 44.901135157364244], [-1.020586015337449, 44.90139260033957], [-1.0203105943465, 44.90163200911203], [-1.02000347956675, 44.901851077795286], [-1.019667628678827, 44.90204769638405], [-1.019306276244964, 44.902219971084506], [-1.018922902553218, 44.90236624256198], [-1.018521200090154, 44.902485101930445], [-1.018105037965255, 44.902575404328886], [-1.017678424630249, 44.90263627995395], [-1.017245469253129, 44.902667142442], [-1.016810342119692, 44.90266769451992], [-1.01637723444493, 44.90263793087003], [-1.015950317982331, 44.90257813818123], [-1.01553370482109, 44.90248889238613], [-1.015131407759453, 44.90237105311101], [-1.014747301636762, 44.90222575539152], [-1.014385085997464, 44.90205439873485], [-1.014048249447394, 44.90185863363368], [-1.013740036046169, 44.90164034566199], [-1.013463414059768, 44.901401637306336], [-1.013221047374408, 44.90114480770803], [-1.013015269847052, 44.900872330511575], [-1.012848062839347, 44.90058683003309], [-1.012721036150949, 44.90029105597851], [-1.012635412535327, 44.89998785695556], [-1.012592015946365, 44.89968015303464], [-1.012591263628173, 44.899370907623144], [-1.012633162123254, 44.89906309892431], [-1.01271730723651, 44.898759691255485], [-1.01284288795436, 44.89846360650196]]]}}]}