{
"type": "FeatureCollection",
"name": "zone_active_points",
"crs": { "type": "name", "properties": { "name": "urn:ogc:def:crs:OGC:1.3:CRS84" } },
"features": [
{ "type": "Feature", "properties": { "lat": 44.81878, "lon": -1.13942, "frp": 29.42, "fetch_timestamp": "2026-07-24T02:11:00" }, "geometry": { "type": "Point", "coordinates": [ -1.13942, 44.81878 ] } },
{ "type": "Feature", "properties": { "lat": 44.81094, "lon": -1.14202, "frp": 54.96, "fetch_timestamp": "2026-07-24T02:11:00" }, "geometry": { "type": "Point", "coordinates": [ -1.14202, 44.81094 ] } },
{ "type": "Feature", "properties": { "lat": 44.81852, "lon": -1.10745, "frp": 72.97, "fetch_timestamp": "2026-07-24T02:11:00" }, "geometry": { "type": "Point", "coordinates": [ -1.10745, 44.81852 ] } },
{ "type": "Feature", "properties": { "lat": 44.8193, "lon": -1.12292, "frp": 17.75, "fetch_timestamp": "2026-07-24T02:11:00" }, "geometry": { "type": "Point", "coordinates": [ -1.12292, 44.8193 ] } },
{ "type": "Feature", "properties": { "lat": 44.82233, "lon": -1.10909, "frp": 72.97, "fetch_timestamp": "2026-07-24T02:11:00" }, "geometry": { "type": "Point", "coordinates": [ -1.10909, 44.82233 ] } },
{ "type": "Feature", "properties": { "lat": 44.83366, "lon": -1.07635, "frp": 250.89, "fetch_timestamp": "2026-07-24T02:11:00" }, "geometry": { "type": "Point", "coordinates": [ -1.07635, 44.83366 ] } },
{ "type": "Feature", "properties": { "lat": 44.83458, "lon": -1.1295, "frp": 13.86, "fetch_timestamp": "2026-07-24T02:11:00" }, "geometry": { "type": "Point", "coordinates": [ -1.1295, 44.83458 ] } },
{ "type": "Feature", "properties": { "lat": 44.83608, "lon": -1.12259, "frp": 7.58, "fetch_timestamp": "2026-07-24T02:11:00" }, "geometry": { "type": "Point", "coordinates": [ -1.12259, 44.83608 ] } },
{ "type": "Feature", "properties": { "lat": 44.83828, "lon": -1.09337, "frp": 33.45, "fetch_timestamp": "2026-07-24T02:11:00" }, "geometry": { "type": "Point", "coordinates": [ -1.09337, 44.83828 ] } },
{ "type": "Feature", "properties": { "lat": 44.83897, "lon": -1.07112, "frp": 250.89, "fetch_timestamp": "2026-07-24T02:11:00" }, "geometry": { "type": "Point", "coordinates": [ -1.07112, 44.83897 ] } },
{ "type": "Feature", "properties": { "lat": 44.8429, "lon": -1.11043, "frp": 10.8, "fetch_timestamp": "2026-07-24T02:11:00" }, "geometry": { "type": "Point", "coordinates": [ -1.11043, 44.8429 ] } },
{ "type": "Feature", "properties": { "lat": 44.84972, "lon": -1.0983, "frp": 15.58, "fetch_timestamp": "2026-07-24T02:11:00" }, "geometry": { "type": "Point", "coordinates": [ -1.0983, 44.84972 ] } },
{ "type": "Feature", "properties": { "lat": 44.85121, "lon": -1.09143, "frp": 15.58, "fetch_timestamp": "2026-07-24T02:11:00" }, "geometry": { "type": "Point", "coordinates": [ -1.09143, 44.85121 ] } },
{ "type": "Feature", "properties": { "lat": 44.85502, "lon": -1.09306, "frp": 17.58, "fetch_timestamp": "2026-07-24T02:11:00" }, "geometry": { "type": "Point", "coordinates": [ -1.09306, 44.85502 ] } },
{ "type": "Feature", "properties": { "lat": 44.86032, "lon": -1.08781, "frp": 12.82, "fetch_timestamp": "2026-07-24T02:11:00" }, "geometry": { "type": "Point", "coordinates": [ -1.08781, 44.86032 ] } },
{ "type": "Feature", "properties": { "lat": 44.87092, "lon": -1.07737, "frp": 16.97, "fetch_timestamp": "2026-07-24T02:11:00" }, "geometry": { "type": "Point", "coordinates": [ -1.07737, 44.87092 ] } },
{ "type": "Feature", "properties": { "lat": 44.89182, "lon": -1.01904, "frp": 76.63, "fetch_timestamp": "2026-07-24T02:11:00" }, "geometry": { "type": "Point", "coordinates": [ -1.01904, 44.89182 ] } },
{ "type": "Feature", "properties": { "lat": 44.89732, "lon": -1.0513, "frp": 161.66, "fetch_timestamp": "2026-07-24T02:11:00" }, "geometry": { "type": "Point", "coordinates": [ -1.0513, 44.89732 ] } },
{ "type": "Feature", "properties": { "lat": 44.90467, "lon": -1.01713, "frp": 11.27, "fetch_timestamp": "2026-07-24T02:11:00" }, "geometry": { "type": "Point", "coordinates": [ -1.01713, 44.90467 ] } },
{ "type": "Feature", "properties": { "lat": 44.80413, "lon": -1.12547, "frp": 129.37, "fetch_timestamp": "2026-07-24T02:11:00" }, "geometry": { "type": "Point", "coordinates": [ -1.12547, 44.80413 ] } },
{ "type": "Feature", "properties": { "lat": 44.80423, "lon": -1.14387, "frp": 65.54, "fetch_timestamp": "2026-07-24T02:11:00" }, "geometry": { "type": "Point", "coordinates": [ -1.14387, 44.80423 ] } },
{ "type": "Feature", "properties": { "lat": 44.80902, "lon": -1.12195, "frp": 128.54, "fetch_timestamp": "2026-07-24T02:11:00" }, "geometry": { "type": "Point", "coordinates": [ -1.12195, 44.80902 ] } },
{ "type": "Feature", "properties": { "lat": 44.8111, "lon": -1.11609, "frp": 59.39, "fetch_timestamp": "2026-07-24T02:11:00" }, "geometry": { "type": "Point", "coordinates": [ -1.11609, 44.8111 ] } },
{ "type": "Feature", "properties": { "lat": 44.82287, "lon": -1.10327, "frp": 46.08, "fetch_timestamp": "2026-07-24T02:11:00" }, "geometry": { "type": "Point", "coordinates": [ -1.10327, 44.82287 ] } },
{ "type": "Feature", "properties": { "lat": 44.82954, "lon": -1.06593, "frp": 29.64, "fetch_timestamp": "2026-07-24T02:11:00" }, "geometry": { "type": "Point", "coordinates": [ -1.06593, 44.82954 ] } },
{ "type": "Feature", "properties": { "lat": 44.82963, "lon": -1.07518, "frp": 193.1, "fetch_timestamp": "2026-07-24T02:11:00" }, "geometry": { "type": "Point", "coordinates": [ -1.07518, 44.82963 ] } },
{ "type": "Feature", "properties": { "lat": 44.83192, "lon": -1.06918, "frp": 118.83, "fetch_timestamp": "2026-07-24T02:11:00" }, "geometry": { "type": "Point", "coordinates": [ -1.06918, 44.83192 ] } },
{ "type": "Feature", "properties": { "lat": 44.83665, "lon": -1.07499, "frp": 23.55, "fetch_timestamp": "2026-07-24T02:11:00" }, "geometry": { "type": "Point", "coordinates": [ -1.07499, 44.83665 ] } },
{ "type": "Feature", "properties": { "lat": 44.8924, "lon": -1.00781, "frp": 17.22, "fetch_timestamp": "2026-07-24T02:11:00" }, "geometry": { "type": "Point", "coordinates": [ -1.00781, 44.8924 ] } },
{ "type": "Feature", "properties": { "lat": 44.89248, "lon": -1.01725, "frp": 14.58, "fetch_timestamp": "2026-07-24T02:11:00" }, "geometry": { "type": "Point", "coordinates": [ -1.01725, 44.89248 ] } },
{ "type": "Feature", "properties": { "lat": 44.89267, "lon": -1.04526, "frp": 44.08, "fetch_timestamp": "2026-07-24T02:11:00" }, "geometry": { "type": "Point", "coordinates": [ -1.04526, 44.89267 ] } },
{ "type": "Feature", "properties": { "lat": 44.897, "lon": -1.0491, "frp": 53.23, "fetch_timestamp": "2026-07-24T02:11:00" }, "geometry": { "type": "Point", "coordinates": [ -1.0491, 44.897 ] } },
{ "type": "Feature", "properties": { "lat": 44.89711, "lon": -1.05851, "frp": 53.23, "fetch_timestamp": "2026-07-24T02:11:00" }, "geometry": { "type": "Point", "coordinates": [ -1.05851, 44.89711 ] } },
{ "type": "Feature", "properties": { "lat": 44.89952, "lon": -1.01702, "frp": 14.58, "fetch_timestamp": "2026-07-24T02:11:00" }, "geometry": { "type": "Point", "coordinates": [ -1.01702, 44.89952 ] } },
{ "type": "Feature", "properties": { "lat": 44.82004, "lon": -1.15191, "frp": 3.22, "fetch_timestamp": "2026-07-24T02:11:00" }, "geometry": { "type": "Point", "coordinates": [ -1.15191, 44.82004 ] } },
{ "type": "Feature", "properties": { "lat": 44.82344, "lon": -1.15064, "frp": 1.82, "fetch_timestamp": "2026-07-24T02:11:00" }, "geometry": { "type": "Point", "coordinates": [ -1.15064, 44.82344 ] } },
{ "type": "Feature", "properties": { "lat": 44.82685, "lon": -1.14937, "frp": 1.82, "fetch_timestamp": "2026-07-24T02:11:00" }, "geometry": { "type": "Point", "coordinates": [ -1.14937, 44.82685 ] } },
{ "type": "Feature", "properties": { "lat": 44.83355, "lon": -1.08309, "frp": 3.99, "fetch_timestamp": "2026-07-24T02:11:00" }, "geometry": { "type": "Point", "coordinates": [ -1.08309, 44.83355 ] } },
{ "type": "Feature", "properties": { "lat": 44.84998, "lon": -1.05417, "frp": 3.6, "fetch_timestamp": "2026-07-24T02:11:00" }, "geometry": { "type": "Point", "coordinates": [ -1.05417, 44.84998 ] } },
{ "type": "Feature", "properties": { "lat": 44.85238, "lon": -1.04758, "frp": 1.42, "fetch_timestamp": "2026-07-24T02:11:00" }, "geometry": { "type": "Point", "coordinates": [ -1.04758, 44.85238 ] } },
{ "type": "Feature", "properties": { "lat": 44.82079, "lon": -1.15644, "frp": 24.68, "fetch_timestamp": "2026-07-24T02:11:00" }, "geometry": { "type": "Point", "coordinates": [ -1.15644, 44.82079 ] } },
{ "type": "Feature", "properties": { "lat": 44.82921, "lon": -1.0861, "frp": 23.02, "fetch_timestamp": "2026-07-24T02:11:00" }, "geometry": { "type": "Point", "coordinates": [ -1.0861, 44.82921 ] } },
{ "type": "Feature", "properties": { "lat": 44.82931, "lon": -1.10605, "frp": 25.66, "fetch_timestamp": "2026-07-24T02:11:00" }, "geometry": { "type": "Point", "coordinates": [ -1.10605, 44.82931 ] } },
{ "type": "Feature", "properties": { "lat": 44.83418, "lon": -1.08884, "frp": 41.02, "fetch_timestamp": "2026-07-24T02:11:00" }, "geometry": { "type": "Point", "coordinates": [ -1.08884, 44.83418 ] } },
{ "type": "Feature", "properties": { "lat": 44.8354, "lon": -1.08455, "frp": 58.57, "fetch_timestamp": "2026-07-24T02:11:00" }, "geometry": { "type": "Point", "coordinates": [ -1.08455, 44.8354 ] } },
{ "type": "Feature", "properties": { "lat": 44.84037, "lon": -1.08729, "frp": 58.57, "fetch_timestamp": "2026-07-24T02:11:00" }, "geometry": { "type": "Point", "coordinates": [ -1.08729, 44.84037 ] } },
{ "type": "Feature", "properties": { "lat": 44.84279, "lon": -1.07873, "frp": 57.6, "fetch_timestamp": "2026-07-24T02:11:00" }, "geometry": { "type": "Point", "coordinates": [ -1.07873, 44.84279 ] } },
{ "type": "Feature", "properties": { "lat": 44.84401, "lon": -1.07443, "frp": 57.6, "fetch_timestamp": "2026-07-24T02:11:00" }, "geometry": { "type": "Point", "coordinates": [ -1.07443, 44.84401 ] } },
{ "type": "Feature", "properties": { "lat": 44.84765, "lon": -1.06154, "frp": 100.76, "fetch_timestamp": "2026-07-24T02:11:00" }, "geometry": { "type": "Point", "coordinates": [ -1.06154, 44.84765 ] } },
{ "type": "Feature", "properties": { "lat": 44.8514, "lon": -1.06858, "frp": 13.63, "fetch_timestamp": "2026-07-24T02:11:00" }, "geometry": { "type": "Point", "coordinates": [ -1.06858, 44.8514 ] } },
{ "type": "Feature", "properties": { "lat": 44.87864, "lon": -1.07375, "frp": 9.69, "fetch_timestamp": "2026-07-24T02:11:00" }, "geometry": { "type": "Point", "coordinates": [ -1.07375, 44.87864 ] } },
{ "type": "Feature", "properties": { "lat": 44.89046, "lon": -1.0112, "frp": 28.77, "fetch_timestamp": "2026-07-24T02:11:00" }, "geometry": { "type": "Point", "coordinates": [ -1.0112, 44.89046 ] } },
{ "type": "Feature", "properties": { "lat": 44.89542, "lon": -1.01391, "frp": 28.77, "fetch_timestamp": "2026-07-24T02:11:00" }, "geometry": { "type": "Point", "coordinates": [ -1.01391, 44.89542 ] } },
{ "type": "Feature", "properties": { "lat": 44.89815, "lon": -1.04504, "frp": 108.91, "fetch_timestamp": "2026-07-24T02:11:00" }, "geometry": { "type": "Point", "coordinates": [ -1.04504, 44.89815 ] } },
{ "type": "Feature", "properties": { "lat": 44.9031, "lon": -1.04778, "frp": 80.78, "fetch_timestamp": "2026-07-24T02:11:00" }, "geometry": { "type": "Point", "coordinates": [ -1.04778, 44.9031 ] } },
{ "type": "Feature", "properties": { "lat": 44.80746, "lon": -1.16132, "frp": 8.85, "fetch_timestamp": "2026-07-24T02:11:00" }, "geometry": { "type": "Point", "coordinates": [ -1.16132, 44.80746 ] } },
{ "type": "Feature", "properties": { "lat": 44.80892, "lon": -1.15923, "frp": 6.31, "fetch_timestamp": "2026-07-24T02:11:00" }, "geometry": { "type": "Point", "coordinates": [ -1.15923, 44.80892 ] } },
{ "type": "Feature", "properties": { "lat": 44.82148, "lon": -1.1199, "frp": 9.49, "fetch_timestamp": "2026-07-24T02:11:00" }, "geometry": { "type": "Point", "coordinates": [ -1.1199, 44.82148 ] } },
{ "type": "Feature", "properties": { "lat": 44.82563, "lon": -1.14273, "frp": 9.01, "fetch_timestamp": "2026-07-24T02:11:00" }, "geometry": { "type": "Point", "coordinates": [ -1.14273, 44.82563 ] } },
{ "type": "Feature", "properties": { "lat": 44.83543, "lon": -1.12784, "frp": 12.14, "fetch_timestamp": "2026-07-24T02:11:00" }, "geometry": { "type": "Point", "coordinates": [ -1.12784, 44.83543 ] } },
{ "type": "Feature", "properties": { "lat": 44.85272, "lon": -1.09783, "frp": 7.31, "fetch_timestamp": "2026-07-24T02:11:00" }, "geometry": { "type": "Point", "coordinates": [ -1.09783, 44.85272 ] } },
{ "type": "Feature", "properties": { "lat": 44.85439, "lon": -1.06177, "frp": 13.11, "fetch_timestamp": "2026-07-24T02:11:00" }, "geometry": { "type": "Point", "coordinates": [ -1.06177, 44.85439 ] } },
{ "type": "Feature", "properties": { "lat": 44.8546, "lon": -1.05725, "frp": 13.73, "fetch_timestamp": "2026-07-24T02:11:00" }, "geometry": { "type": "Point", "coordinates": [ -1.05725, 44.8546 ] } },
{ "type": "Feature", "properties": { "lat": 44.85822, "lon": -1.09382, "frp": 10.81, "fetch_timestamp": "2026-07-24T02:11:00" }, "geometry": { "type": "Point", "coordinates": [ -1.09382, 44.85822 ] } },
{ "type": "Feature", "properties": { "lat": 44.85843, "lon": -1.08931, "frp": 10.81, "fetch_timestamp": "2026-07-24T02:11:00" }, "geometry": { "type": "Point", "coordinates": [ -1.08931, 44.85843 ] } },
{ "type": "Feature", "properties": { "lat": 44.86371, "lon": -1.08976, "frp": 6.06, "fetch_timestamp": "2026-07-24T02:11:00" }, "geometry": { "type": "Point", "coordinates": [ -1.08976, 44.86371 ] } },
{ "type": "Feature", "properties": { "lat": 44.86963, "lon": -1.07669, "frp": 9.54, "fetch_timestamp": "2026-07-24T02:11:00" }, "geometry": { "type": "Point", "coordinates": [ -1.07669, 44.86963 ] } },
{ "type": "Feature", "properties": { "lat": 44.88043, "lon": -1.07308, "frp": 9.92, "fetch_timestamp": "2026-07-24T02:11:00" }, "geometry": { "type": "Point", "coordinates": [ -1.07308, 44.88043 ] } },
{ "type": "Feature", "properties": { "lat": 44.88278, "lon": -1.0231, "frp": 2.91, "fetch_timestamp": "2026-07-24T02:11:00" }, "geometry": { "type": "Point", "coordinates": [ -1.0231, 44.88278 ] } },
{ "type": "Feature", "properties": { "lat": 44.90422, "lon": -1.02036, "frp": 8.59, "fetch_timestamp": "2026-07-24T02:11:00" }, "geometry": { "type": "Point", "coordinates": [ -1.02036, 44.90422 ] } },
{ "type": "Feature", "properties": { "lat": 44.90444, "lon": -1.01581, "frp": 12.24, "fetch_timestamp": "2026-07-24T02:11:00" }, "geometry": { "type": "Point", "coordinates": [ -1.01581, 44.90444 ] } },
{ "type": "Feature", "properties": { "lat": 44.82153, "lon": -1.10568, "frp": 3.2, "fetch_timestamp": "2026-07-24T02:11:00" }, "geometry": { "type": "Point", "coordinates": [ -1.10568, 44.82153 ] } },
{ "type": "Feature", "properties": { "lat": 44.82484, "lon": -1.10472, "frp": 2.12, "fetch_timestamp": "2026-07-24T02:11:00" }, "geometry": { "type": "Point", "coordinates": [ -1.10472, 44.82484 ] } },
{ "type": "Feature", "properties": { "lat": 44.83076, "lon": -1.09789, "frp": 3.23, "fetch_timestamp": "2026-07-24T02:11:00" }, "geometry": { "type": "Point", "coordinates": [ -1.09789, 44.83076 ] } },
{ "type": "Feature", "properties": { "lat": 44.83148, "lon": -1.10281, "frp": 4.34, "fetch_timestamp": "2026-07-24T02:11:00" }, "geometry": { "type": "Point", "coordinates": [ -1.10281, 44.83148 ] } },
{ "type": "Feature", "properties": { "lat": 44.86434, "lon": -1.06768, "frp": 2.92, "fetch_timestamp": "2026-07-24T02:11:00" }, "geometry": { "type": "Point", "coordinates": [ -1.06768, 44.86434 ] } }
]
}
