{"type": "FeatureCollection", "name": "zone_active", "crs": {"type": "name", "properties": {"name": "urn:ogc:def:crs:OGC:1.3:CRS84"}}, "features": [{"type": "Feature", "properties": {"nb_detections_cluster": 23, "frp_max": 144.69, "frp_moyen": 77.95, "derniere_detection": "2026-07-23T14:12:00", "fetch_timestamp": "2026-07-24T02:11:00"}, "geometry": {"type": "Polygon", "coordinates": [[[-1.12195, 44.80902], [-1.11609, 44.8111], [-1.12547, 44.80413], [-1.12195, 44.80902]]]}}, {"type": "Feature", "properties": {"nb_detections_cluster": 45, "frp_max": 128.34, "frp_moyen": 32.74, "derniere_detection": "2026-07-23T14:12:00", "fetch_timestamp": "2026-07-24T02:11:00"}, "geometry": {"type": "Polygon", "coordinates": [[[-1.139449888545619, 44.80439520366014], [-1.139448439672184, 44.804085969024406], [-1.139489572515372, 44.803778122358864], [-1.139572890255641, 44.80347462834733], [-1.139697589848816, 44.803178409707414], [-1.139862469784778, 44.802892319046826], [-1.140065941681135, 44.802619111396616], [-1.140306045599362, 44.80236141768557], [-1.140580468935177, 44.802121719410955], [-1.140886568700646, 44.801902324749406], [-1.141221396983019, 44.80170534633745], [-1.141581729334923, 44.801532680935395], [-1.141964095822467, 44.80138599117015], [-1.142364814432487, 44.8012666895322], [-1.142780026517525, 44.80117592478069], [-1.143205733937829, 44.80111457088729], [-1.143637837543352, 44.80108321862472], [-1.144072176626016, 44.80108216988118], [-1.144504568963254, 44.80111143475489], [-1.144930851068196, 44.80117073145701], [-1.145346918259902, 44.801259489023494], [-1.145748764168752, 44.801376852810094], [-1.146132519297504, 44.8015216927178], [-1.146494488267513, 44.80169261406936], [-1.146831185392139, 44.80188797103271], [-1.147139368235355, 44.80210588246231], [-1.147416068832731, 44.802344250005945], [-1.147658622274377, 44.8026007783033], [-1.147864692374541, 44.80287299708206], [-1.148032294180473, 44.80315828493869], [-1.148159813103405, 44.80345389457601], [-1.148246020486812, 44.803756979254224], [-1.148290085461314, 44.80406462020097], [-1.148291582971194, 44.80437385471704], [-1.148250497894278, 44.80468170470677], [-1.148167225214478, 44.80498520535862], [-1.148042566244321, 44.805281433699726], [-1.147877720932804, 44.805567536749656], [-1.147674276331723, 44.80584075900117], [-1.147434191330661, 44.80609846896442], [-1.147159777806921, 44.80633818451753], [-1.146853678371369, 44.80655759681989], [-1.146518840924072, 44.80675459255704], [-1.146158490264609, 44.806927274302865], [-1.145776097030418, 44.80707397880239], [-1.145375344262524, 44.807193292998896], [-1.144960091921052, 44.807284067650606], [-1.144534339692784, 44.80734542840541], [-1.144102188449714, 44.80737678422691], [-1.143667800730606, 44.807377833090115], [-1.143235360627095, 44.807348564892216], [-1.142809033461684, 44.8072892615498], [-1.142392925646959, 44.807200494282114], [-1.141991045113665, 44.80708311810618], [-1.141607262689637, 44.80693826359714], [-1.141245274802464, 44.806767325993405], [-1.140908567865761, 44.806571951751536], [-1.140600384692629, 44.806354022681134], [-1.140323693260177, 44.80611563781232], [-1.140081158126091, 44.80585909317116], [-1.139875114772574, 44.805586859658135], [-1.139707547124517, 44.805301559242956], [-1.139580068458018, 44.805005939705424], [-1.139493905882575, 44.80470284816582], [-1.139449888545619, 44.80439520366014]]]}}, {"type": "Feature", "properties": {"nb_detections_cluster": 2, "frp_max": 8.85, "frp_moyen": 7.58, "derniere_detection": "2026-07-23T13:55:00", "fetch_timestamp": "2026-07-24T02:11:00"}, "geometry": {"type": "Polygon", "coordinates": [[[-1.163196988033529, 44.81031264900059], [-1.163035033828689, 44.81053023466503], [-1.162794999228887, 44.8107879782784], [-1.162520628325751, 44.81102773220763], [-1.162214563319393, 44.811247187242515], [-1.161879751778037, 44.81144422965709], [-1.161519418251529, 44.81161696157567], [-1.161137033212095, 44.811763719260064], [-1.16073627962168, 44.811883089141276], [-1.160321017448216, 44.81197392144119], [-1.159895246473118, 44.812035341252475], [-1.159463067748924, 44.81206675696983], [-1.159028644079113, 44.81206786599137], [-1.158596159901663, 44.81203865763481], [-1.158169780963696, 44.81197941324038], [-1.157753614176613, 44.8118907034595], [-1.157351668039334, 44.811773382755455], [-1.156967814011777, 44.81162858116915], [-1.156605749211402, 44.81145769342923], [-1.156268960792836, 44.81126236551203], [-1.155960692354186, 44.811044478780985], [-1.155683912693986, 44.81080613185844], [-1.155441287219852, 44.81054962040508], [-1.155235152284217, 44.8102774150018], [-1.155067492694122, 44.80999213734765], [-1.154939922611232, 44.80969653500328], [-1.154853670025486, 44.809393454923516], [-1.154809564951166, 44.80908581603405], [-1.154808031458201, 44.8087765811169], [-1.154849083614515, 44.80846872827518], [-1.154932325377455, 44.80816522225223], [-1.155056954434339, 44.80786898588141], [-1.155221769954105, 44.80758287194134], [-1.155425184174449, 44.807309635687304], [-1.155665237712005, 44.807051908323565], [-1.15593961844739, 44.806812171671595], [-1.156245683802644, 44.80659273427759], [-1.156580486196135, 44.80639570918963], [-1.156940801429563, 44.806222993617546], [-1.157323159733697, 44.80607625067131], [-1.157353259781688, 44.80606728521195], [-1.157515223120488, 44.80584970816975], [-1.157755260841266, 44.80559197640941], [-1.158029625537359, 44.80535223470522], [-1.158335674785244, 44.805132791652035], [-1.158670461158376, 44.804935760352436], [-1.159030760612699, 44.80476303807606], [-1.15941310353089, 44.80461628799749], [-1.159813808126553, 44.80449692318798], [-1.160229015887035, 44.80440609301502], [-1.160654728714125, 44.80434467208017], [-1.161086847405658, 44.804313251801744], [-1.161521211108284, 44.80431213472282], [-1.161953637362414, 44.80434133159966], [-1.162379962354676, 44.80440056129812], [-1.162796080991292, 44.80448925349934], [-1.163197986407436, 44.80460655418852], [-1.163581808533055, 44.80475133387418], [-1.163943851344587, 44.804922198458996], [-1.164280628444577, 44.80511750265757], [-1.164588896627107, 44.80533536583248], [-1.164865687106194, 44.805573690096224], [-1.165108334106629, 44.805830180505374], [-1.165314500541892, 44.806102367152455], [-1.165482200531689, 44.80638762894349], [-1.165609818541852, 44.806683218832426], [-1.165696124961695, 44.806986290269684], [-1.165740287968115, 44.807293924610576], [-1.165741881561274, 44.807603159219624], [-1.165700889693589, 44.80791101600034], [-1.165617706451174, 44.808214530075894], [-1.165493132285037, 44.80851077834432], [-1.165328366327229, 44.80879690763328], [-1.16512499486505, 44.80907016218298], [-1.164884976083416, 44.80932791019254], [-1.164610621221583, 44.80956766917376], [-1.164304572325149, 44.80978712986778], [-1.163969776807156, 44.80998417849413], [-1.163609459063091, 44.810156917117304], [-1.163227089413138, 44.81030368193452], [-1.163196988033529, 44.81031264900059]]]}}, {"type": "Feature", "properties": {"nb_detections_cluster": 34, "frp_max": 108.72, "frp_moyen": 31.72, "derniere_detection": "2026-07-23T12:32:00", "fetch_timestamp": "2026-07-24T02:11:00"}, "geometry": {"type": "Polygon", "coordinates": [[[-1.137599355453989, 44.8111051302962], [-1.137597916588355, 44.81079589493904], [-1.137639064476683, 44.8104880482655], [-1.137722402154378, 44.810184554959406], [-1.137847126385117, 44.80988833773157], [-1.138012035421386, 44.80960224917612], [-1.138215540600442, 44.809329044303816], [-1.138455681663166, 44.809071354016645], [-1.138730145647518, 44.80883165977894], [-1.139036289174094, 44.80861226972841], [-1.139371163908736, 44.80841529645721], [-1.139731544956768, 44.80824263667612], [-1.14011396191543, 44.80809595295792], [-1.140514732285604, 44.80797665773486], [-1.1409299969215, 44.80788589970435], [-1.141355757177429, 44.80782455277327], [-1.141787913394674, 44.80779320764734], [-1.142222304358646, 44.80779216614604], [-1.142654747347301, 44.80782143829787], [-1.143081078386128, 44.807880742243874], [-1.143497192323068, 44.80796950695031], [-1.143899082338439, 44.80808687770412], [-1.144282878510329, 44.80823172433924], [-1.144644885064889, 44.80840265211364], [-1.144981615953555, 44.80859801513339], [-1.145289828415134, 44.80881593219462], [-1.145566554199923, 44.80905430489089], [-1.145809128155403, 44.809310837812326], [-1.146015213898166, 44.809583060641984], [-1.146182826324698, 44.80986835193735], [-1.146310350743807, 44.81016396436814], [-1.146396558445882, 44.8104670511676], [-1.146440618558301, 44.81077469354299], [-1.14644210607201, 44.8110839287813], [-1.146401005960929, 44.81139177877987], [-1.146317713353603, 44.81169527872709], [-1.146193029754328, 44.81199150565694], [-1.146028155349172, 44.81227760660242], [-1.145824677470022, 44.812550826076674], [-1.145584555326879, 44.81280853261653], [-1.145310101154713, 44.813048244133086], [-1.145003957955852, 44.8132676518246], [-1.14466907405186, 44.81346464242103], [-1.144308674689784, 44.813637318545744], [-1.143926230976187, 44.81378401699792], [-1.143525426438359, 44.81390332477908], [-1.143110121535137, 44.81399409270923], [-1.142684316459659, 44.81405544650102], [-1.142252112593035, 44.81408679518508], [-1.141817672980989, 44.81408783680523], [-1.141385182215085, 44.81405856132836], [-1.140958806105888, 44.81399925074121], [-1.140542651537485, 44.8139104763328], [-1.140140726891002, 44.81379309318893], [-1.139756903419205, 44.813648231951866], [-1.139394877945065, 44.81347728792481], [-1.139058137244213, 44.81328190762622], [-1.13874992445492, 44.81306397292399], [-1.138473207839481, 44.81282558290246], [-1.138230652198044, 44.812569033637395], [-1.138024593210218, 44.81229679607378], [-1.137857014951339, 44.81201149222031], [-1.137729530799554, 44.811715869889895], [-1.13764336791703, 44.81141277622973], [-1.137599355453989, 44.8111051302962]]]}}, {"type": "Feature", "properties": {"nb_detections_cluster": 64, "frp_max": 79.78, "frp_moyen": 35.93, "derniere_detection": "2026-07-24T02:11:00", "fetch_timestamp": "2026-07-24T02:11:00"}, "geometry": {"type": "Polygon", "coordinates": [[[-1.10909, 44.82233], [-1.10605, 44.82931], [-1.10281, 44.83148], [-1.09789, 44.83076], [-1.10472, 44.82484], [-1.10327, 44.82287], [-1.10568, 44.82153], [-1.10745, 44.81852], [-1.10909, 44.82233]]]}}, {"type": "Feature", "properties": {"nb_detections_cluster": 2, "frp_max": 17.75, "frp_moyen": 13.62, "derniere_detection": "2026-07-23T13:55:00", "fetch_timestamp": "2026-07-24T02:11:00"}, "geometry": {"type": "Polygon", "coordinates": [[[-1.124162536224141, 44.822320820042144], [-1.124073398400243, 44.8225323414455], [-1.123908380464411, 44.822818410507836], [-1.123704756884289, 44.823091590356164], [-1.123464488273239, 44.82334924990887], [-1.123189888277053, 44.82358890752957], [-1.12288360130276, 44.82380825493545], [-1.122548577056947, 44.82400517943709], [-1.122188042138668, 44.82417778429439], [-1.121805468960424, 44.824324406992936], [-1.121404542296798, 44.82444363526385], [-1.120989123783225, 44.82453432069299], [-1.120563214707416, 44.82459558978765], [-1.12013091745245, 44.82462685239426], [-1.119696395963773, 44.824627807385745], [-1.119263835621727, 44.82459844556342], [-1.11883740290712, 44.824539049745724], [-1.118421205249274, 44.824450192042654], [-1.118019251444295, 44.82433272834227], [-1.117635413025674, 44.82418779006274], [-1.117273386960146, 44.82401677324931], [-1.116936660028779, 44.82382132512151], [-1.116628475236906, 44.82360332820047], [-1.1163518005768, 44.82336488216975], [-1.116109300444123, 44.82310828364449], [-1.115903309983437, 44.82283600404398], [-1.115735812609656, 44.82255066578173], [-1.115608420921494, 44.822255017001915], [-1.115522361190203, 44.82195190510633], [-1.115478461572211, 44.821644249326866], [-1.115477144158343, 44.821335012607946], [-1.115518420935245, 44.82102717306975], [-1.115601893696869, 44.820723695327295], [-1.115726757905863, 44.82042750194133], [-1.115891810466644, 44.82014144527628], [-1.116095461334339, 44.81986828003567], [-1.116335748846944, 44.81961063673972], [-1.116610358632288, 44.81937099640017], [-1.116916645907154, 44.81915166663562], [-1.117251660953401, 44.81895475945764], [-1.11761217752551, 44.81878217094051], [-1.117994723916011, 44.81863556297075], [-1.118395616379762, 44.818516347251176], [-1.118657711478003, 44.81845913306954], [-1.118746863223975, 44.818247616304006], [-1.118911894011079, 44.8179615553536], [-1.119115522300906, 44.817688384767635], [-1.119355786648875, 44.81743073511784], [-1.119630372905877, 44.81719108747713], [-1.119936636515242, 44.816971749534424], [-1.120271627986687, 44.816774833380045], [-1.120632121301671, 44.816602235174756], [-1.121014644976631, 44.81645561689833], [-1.121415515485114, 44.81633639035286], [-1.121830872717329, 44.81624570357444], [-1.122256717136196, 44.816184429783846], [-1.122688948272786, 44.81615315898255], [-1.12312340419127, 44.81615219227432], [-1.123555901544268, 44.81618153896754], [-1.123982275833849, 44.81624091648547], [-1.124398421491491, 44.81632975308589], [-1.124800331392014, 44.816447193363594], [-1.125184135421909, 44.81659210648293], [-1.125546137731487, 44.816763097061724], [-1.125882852312835, 44.81695851860125], [-1.126191036561518, 44.81717648933408], [-1.126467722499204, 44.81741491033692], [-1.126710245356746, 44.81767148573459], [-1.126916269242448, 44.81794374480109], [-1.127083809648116, 44.818229065744866], [-1.12721125257577, 44.818524700949986], [-1.12729737010024, 44.81882780343028], [-1.127341332217047, 44.81913545424188], [-1.127342714860608, 44.819444690590416], [-1.127301504014597, 44.81975253436242], [-1.12721809587385, 44.82005602080609], [-1.12709329305525, 44.82035222708537], [-1.126928296893024, 44.82063830043204], [-1.126724695891736, 44.82091148562492], [-1.126484450447286, 44.82116915153092], [-1.12620987398233, 44.82140881645242], [-1.125903610677236, 44.82162817203642], [-1.125568610010593, 44.82182510551462], [-1.125208098354309, 44.821997720060544], [-1.124825547896793, 44.82214435306644], [-1.124424643193737, 44.822263592164184], [-1.124162536224141, 44.822320820042144]]]}}, {"type": "Feature", "properties": {"nb_detections_cluster": 408, "frp_max": 111.79, "frp_moyen": 23.13, "derniere_detection": "2026-07-23T02:47:00", "fetch_timestamp": "2026-07-24T02:11:00"}, "geometry": {"type": "Polygon", "coordinates": [[[-1.134998731143357, 44.818945027100895], [-1.13499730638641, 44.818635790900636], [-1.135038474259678, 44.818327944385814], [-1.135121837605918, 44.81802445223875], [-1.135246592941439, 44.81772823715905], [-1.135411538219033, 44.817442151720144], [-1.135615084426829, 44.81716895090276], [-1.135855270910503, 44.81691126556983], [-1.136129784270559, 44.81667157713797], [-1.136435980652079, 44.81645219368897], [-1.13677091121193, 44.81625522775139], [-1.13713135051789, 44.8160825759654], [-1.137513827606259, 44.81593590082678], [-1.137914659398985, 44.81581661468515], [-1.138329986158915, 44.81572586615047], [-1.138755808642257, 44.815664529038195], [-1.13918802659121, 44.81563319395952], [-1.139622478196875, 44.81563216263714], [-1.140054980153393, 44.815661445001574], [-1.14048136791854, 44.81572075909551], [-1.140897535794117, 44.815809533787466], [-1.141299476441122, 44.81592691426831], [-1.141683319450137, 44.81607177027825], [-1.14204536859632, 44.81624270698499], [-1.142382137420959, 44.816438078408616], [-1.142690382797509, 44.816656003264306], [-1.14296713615924, 44.81689438307058], [-1.14320973208796, 44.81715092234907], [-1.143415833988537, 44.81742315072161], [-1.1435834566017, 44.8177084466923], [-1.143710985137987, 44.818004062885834], [-1.143797190847942, 44.818307152499195], [-1.143841242877939, 44.818614796712524], [-1.143842716296554, 44.81892403279511], [-1.14380159621326, 44.819231882636146], [-1.143718277948759, 44.8195353814255], [-1.143593563254277, 44.8198316062083], [-1.143428652615206, 44.82011770403822], [-1.143225133712281, 44.82039091945836], [-1.142984966150514, 44.820648621044604], [-1.142710462602244, 44.820888326755785], [-1.142404266545325, 44.82110772784599], [-1.142069326810419, 44.82130471110879], [-1.141708869182337, 44.82147737923818], [-1.14132636532889, 44.82162406911032], [-1.140925499356696, 44.82174336780939], [-1.140510132316408, 44.821834126242834], [-1.140084264999764, 44.821895470214834], [-1.13965199938749, 44.82192680885056], [-1.139217499120156, 44.82192784029062], [-1.138784949373664, 44.82189855459996], [-1.138358516526778, 44.82183923386375], [-1.137942308010163, 44.82175044946871], [-1.137540332724634, 44.82163305659685], [-1.137156462410747, 44.82148818598414], [-1.136794394342659, 44.82131723302407], [-1.136457615706234, 44.82112184432115], [-1.136149370005082, 44.820903901824224], [-1.135872625818408, 44.82066550469275], [-1.13563004821181, 44.82040894907087], [-1.135423973076311, 44.82013670596482], [-1.135256384642615, 44.819851397436665], [-1.135128896386689, 44.81955577134436], [-1.135042735510032, 44.81925267487127], [-1.134998731143357, 44.818945027100895]]]}}, {"type": "Feature", "properties": {"nb_detections_cluster": 5, "frp_max": 24.68, "frp_moyen": 8.11, "derniere_detection": "2026-07-23T13:55:00", "fetch_timestamp": "2026-07-24T02:11:00"}, "geometry": {"type": "Polygon", "coordinates": [[[-1.15644, 44.82079], [-1.14937, 44.82685], [-1.14273, 44.82563], [-1.15064, 44.82344], [-1.15191, 44.82004], [-1.15644, 44.82079]]]}}, {"type": "Feature", "properties": {"nb_detections_cluster": 4, "frp_max": 13.86, "frp_moyen": 10.35, "derniere_detection": "2026-07-23T13:55:00", "fetch_timestamp": "2026-07-24T02:11:00"}, "geometry": {"type": "Polygon", "coordinates": [[[-1.1295, 44.83458], [-1.12784, 44.83543], [-1.12259, 44.83608], [-1.1295, 44.83458]]]}}, {"type": "Feature", "properties": {"nb_detections_cluster": 1, "frp_max": 10.8, "frp_moyen": 10.8, "derniere_detection": "2026-07-23T12:32:00", "fetch_timestamp": "2026-07-24T02:11:00"}, "geometry": {"type": "Polygon", "coordinates": [[[-1.106006748024411, 44.84306387304198], [-1.106005482246833, 44.84275463403484], [-1.106046826664036, 44.84244679585398], [-1.106130382418066, 44.84214332310131], [-1.106255344171877, 44.84184713828946], [-1.106420507890123, 44.841561093700186], [-1.106624282457163, 44.8412879439207], [-1.106864705019537, 44.84103031932228], [-1.107139459904422, 44.84079070073656], [-1.107445900931268, 44.84057139557264], [-1.107781076901383, 44.840374515605106], [-1.108141760019732, 44.84020195664626], [-1.10852447697527, 44.840055380297926], [-1.108925542380654, 44.839936197958444], [-1.109341094249702, 44.839845557238235], [-1.109767131171489, 44.83978433091456], [-1.110199550823802, 44.83975310853183], [-1.110634189455926, 44.83975219072761], [-1.111066861961438, 44.83978158633937], [-1.11149340215613, 44.83984101231933], [-1.111909702874185, 44.83992989645866], [-1.112311755497473, 44.84004738289439], [-1.112695688538252, 44.84019234034643], [-1.113057804904535, 44.84036337300565], [-1.113394617490005, 44.840558833968146], [-1.113702882746293, 44.84077684108684], [-1.113979631914703, 44.841015295088056], [-1.114222199616811, 44.8412718997788], [-1.114428249528618, 44.84154418415093], [-1.114595796890773, 44.841829526169136], [-1.114723227637732, 44.84212517801452], [-1.114809313961018, 44.84242829254058], [-1.11485322615601, 44.84273595068734], [-1.114854540637276, 44.84304518958976], [-1.114813244044339, 44.84335303110966], [-1.114729733397291, 44.843656510516865], [-1.114604812299743, 44.84395270504299], [-1.114439683224644, 44.84423876203296], [-1.114235935956318, 44.84451192642302], [-1.113995532299149, 44.844769567280395], [-1.113720787199447, 44.84500920314866], [-1.113414346461719, 44.84522852595455], [-1.113079161273549, 44.84542542324548], [-1.112718459784216, 44.845597998543454], [-1.112335716010753, 44.84574458961873], [-1.111934616371097, 44.845863784506996], [-1.111519024167036, 44.845954435115665], [-1.11109294235955, 44.846015668287365], [-1.11066047499578, 44.846046894214595], [-1.110225787659967, 44.84604781212353], [-1.109793067330188, 44.846018413172715], [-1.109366482028514, 44.845958980538214], [-1.108950140654197, 44.84587008668462], [-1.10854805338776, 44.8457525878482], [-1.108164093048268, 44.845607615785596], [-1.107801957776779, 44.8454365668674], [-1.107465135406128, 44.84524108862235], [-1.107156869860721, 44.8450230638617], [-1.106880129910367, 44.84478459253708], [-1.106637580579243, 44.84452797150722], [-1.106431557485361, 44.84425567240817], [-1.106264044357477, 44.84397031784115], [-1.106136653945531, 44.84367465610734], [-1.106050612507945, 44.84337153473324], [-1.106006748024411, 44.84306387304198]]]}}, {"type": "Feature", "properties": {"nb_detections_cluster": 45, "frp_max": 250.89, "frp_moyen": 56.37, "derniere_detection": "2026-07-23T14:12:00", "fetch_timestamp": "2026-07-24T02:11:00"}, "geometry": {"type": "Polygon", "coordinates": [[[-1.08884, 44.83418], [-1.09337, 44.83828], [-1.08729, 44.84037], [-1.08455, 44.8354], [-1.07873, 44.84279], [-1.07443, 44.84401], [-1.07112, 44.83897], [-1.07499, 44.83665], [-1.06918, 44.83192], [-1.06593, 44.82954], [-1.07518, 44.82963], [-1.07635, 44.83366], [-1.08309, 44.83355], [-1.0861, 44.82921], [-1.08884, 44.83418]]]}}, {"type": "Feature", "properties": {"nb_detections_cluster": 17, "frp_max": 18.49, "frp_moyen": 11.41, "derniere_detection": "2026-07-23T13:55:00", "fetch_timestamp": "2026-07-24T02:11:00"}, "geometry": {"type": "Polygon", "coordinates": [[[-1.09382, 44.85822], [-1.08976, 44.86371], [-1.08781, 44.86032], [-1.08931, 44.85843], [-1.09306, 44.85502], [-1.09143, 44.85121], [-1.0983, 44.84972], [-1.09783, 44.85272], [-1.09382, 44.85822]]]}}, {"type": "Feature", "properties": {"nb_detections_cluster": 3, "frp_max": 16.97, "frp_moyen": 12.07, "derniere_detection": "2026-07-23T13:55:00", "fetch_timestamp": "2026-07-24T02:11:00"}, "geometry": {"type": "Polygon", "coordinates": [[[-1.081077470103442, 44.86920032848093], [-1.081165050237115, 44.869293014794415], [-1.081371042656752, 44.86956536297175], [-1.081538505628272, 44.86985075744295], [-1.081665825897947, 44.8701464498838], [-1.081751776720351, 44.87044959275669], [-1.081795529694933, 44.870757266728454], [-1.081796662768842, 44.87106650878144], [-1.081755164327944, 44.8713743407469], [-1.081671433335665, 44.87167779798648], [-1.081546275517232, 44.87197395794506], [-1.081380895625086, 44.87225996830032], [-1.081176885858973, 44.87253307443743], [-1.080936210551367, 44.8727906459845], [-1.080661187264988, 44.87303020215254], [-1.080354464483871, 44.87324943563574], [-1.080018996112414, 44.873446234841765], [-1.079658013027817, 44.87361870423725], [-1.079274991959836, 44.8737651826124], [-1.078873621997785, 44.87388425908843], [-1.078457769047712, 44.8739747867132], [-1.078031438582633, 44.87403589351397], [-1.077598737045271, 44.874066990900396], [-1.077163832275892, 44.87406777933684], [-1.076730913347281, 44.87403825122893], [-1.076304150194699, 44.87397869099676], [-1.075887653430624, 44.873889672333966], [-1.075485434732334, 44.87377205267901], [-1.075101368184732, 44.87362696495222], [-1.074739152951628, 44.87345580663827], [-1.074402277635659, 44.87326022631947], [-1.074093986670689, 44.873042107790155], [-1.073817249070746, 44.87280355190507], [-1.073574729836662, 44.87254685633722], [-1.073368764295792, 44.87227449344045], [-1.073201335621745, 44.87198908643028], [-1.073074055750215, 44.87169338411282], [-1.072988149874152, 44.87139023440522], [-1.072982367163039, 44.87134952525884], [-1.072894797329351, 44.87125683243141], [-1.072688839818579, 44.870984468384954], [-1.072521418447138, 44.87069906046645], [-1.072394145080409, 44.870403357490716], [-1.072308244848714, 44.87010020738126], [-1.072264544371008, 44.869792529737765], [-1.072263463818955, 44.869483287714885], [-1.072305012896886, 44.869175459483685], [-1.07238879077531, 44.86887200954993], [-1.072513989977609, 44.8685758602064], [-1.072679404181453, 44.86828986339301], [-1.072883439858833, 44.86801677323673], [-1.073124131641779, 44.86775921953451], [-1.073399161265018, 44.867519682435095], [-1.073705879902575, 44.867300468562796], [-1.07404133368281, 44.86710368881299], [-1.07440229213594, 44.866931238032855], [-1.074785279300103, 44.866784776782495], [-1.075186607186569, 44.86666571535187], [-1.075602411282214, 44.86657520018712], [-1.076028687747919, 44.86651410285656], [-1.076461331955386, 44.866483011662474], [-1.076896177992082, 44.86648222597927], [-1.077329038754836, 44.86651175337218], [-1.07775574624696, 44.866571309524566], [-1.078172191691866, 44.866660320974134], [-1.078574365077854, 44.86677793063203], [-1.07895839375422, 44.86692300603167], [-1.079320579707834, 44.86709415022814], [-1.079657435161919, 44.867289715243444], [-1.079965716154807, 44.867507817928484], [-1.080242453775653, 44.86774635808923], [-1.080484982756529, 44.86800303870291], [-1.080690967145534, 44.86827538803011], [-1.080858422813468, 44.8685607834099], [-1.080985736576958, 44.86885647650929], [-1.081071681753252, 44.86915961978432], [-1.081077470103442, 44.86920032848093]]]}}, {"type": "Feature", "properties": {"nb_detections_cluster": 4, "frp_max": 22.52, "frp_moyen": 15.11, "derniere_detection": "2026-07-23T13:55:00", "fetch_timestamp": "2026-07-24T02:11:00"}, "geometry": {"type": "Polygon", "coordinates": [[[-1.077506436019147, 44.880307630460656], [-1.077507401435751, 44.88057668022501], [-1.077465872445783, 44.88088451151189], [-1.077382104084153, 44.881187966428136], [-1.077256902435784, 44.88148412244104], [-1.077091472675066, 44.881770127266186], [-1.076887407481893, 44.88204322634202], [-1.076646671722459, 44.882300789364656], [-1.076371583541649, 44.882540335627134], [-1.076064792048493, 44.88275955791909], [-1.075729251809199, 44.882956344755925], [-1.075368194393213, 44.883128800723405], [-1.074985097246302, 44.88327526474105], [-1.074583650190659, 44.88339432606837], [-1.074167719875008, 44.88348483789916], [-1.073741312517675, 44.88354592841275], [-1.073308535302147, 44.883577009175724], [-1.07287355679776, 44.88357778081252], [-1.072440566787647, 44.88354823589059], [-1.07201373589184, 44.88348865899203], [-1.071597175375417, 44.883399623970966], [-1.071194897529776, 44.88328198842345], [-1.070810777009561, 44.88313688542285], [-1.070448513498437, 44.88296571260098], [-1.070111596064006, 44.88277011867987], [-1.069803269545727, 44.8825519875849], [-1.069526503299956, 44.88231342029178], [-1.069283962603275, 44.882056714583406], [-1.069077982989574, 44.88178434291127], [-1.068910547767799, 44.88149892857541], [-1.068783268936482, 44.881203220452434], [-1.06869737167831, 44.880900066515395], [-1.06865368258333, 44.88059238640083], [-1.068652621713307, 44.880283143287194], [-1.068694198582749, 44.87997531535596], [-1.068778012094267, 44.879671867110076], [-1.068903254427853, 44.87937572082595], [-1.069068718845605, 44.879089728414094], [-1.069272811335783, 44.87881664395903], [-1.069323687285418, 44.87876221976208], [-1.069322761118509, 44.87849317008173], [-1.069364332988041, 44.87818534207318], [-1.069448140205378, 44.8778818934927], [-1.069573375011162, 44.877585746619935], [-1.06973883074002, 44.87729975337105], [-1.069942913463915, 44.877026667838635], [-1.070183657361708, 44.87676911977512], [-1.070458743666194, 44.87652958927494], [-1.070765523005532, 44.876310382898815], [-1.071101040923543, 44.876113611469954], [-1.071462066332855, 44.87594116975539], [-1.071845122626915, 44.875794718227915], [-1.072246521151402, 44.875675667083875], [-1.072662396713107, 44.87558516267035], [-1.073088744784867, 44.8755240764521], [-1.073521460049008, 44.8754929966245], [-1.073956375908912, 44.87549222245238], [-1.074389304589201, 44.87552176139021], [-1.074816077439314, 44.87558132901018], [-1.075232585053416, 44.87567035173959], [-1.075634816821245, 44.875787972380934], [-1.076018899529971, 44.875933058361895], [-1.076381134646186, 44.876104212635646], [-1.07671803391969, 44.87629978712718], [-1.077026352966803, 44.876517898596134], [-1.077303122510146, 44.876756446763885], [-1.077545676974265, 44.87701313453054], [-1.077751680161708, 44.87728549008782], [-1.07791914776207, 44.877570890714765], [-1.078046466476864, 44.87786658802783], [-1.07813240957544, 44.878169734442494], [-1.078176148731433, 44.878477410591465], [-1.078177262024866, 44.87878665343606], [-1.078135738031912, 44.87909448479995], [-1.078051975961898, 44.87939794005052], [-1.077926781839193, 44.879694096651775], [-1.077761360765742, 44.87998010231369], [-1.077557305337795, 44.880253202466655], [-1.077506436019147, 44.880307630460656]]]}}, {"type": "Feature", "properties": {"nb_detections_cluster": 13, "frp_max": 100.76, "frp_moyen": 24.26, "derniere_detection": "2026-07-23T13:55:00", "fetch_timestamp": "2026-07-24T02:11:00"}, "geometry": {"type": "Polygon", "coordinates": [[[-1.06154, 44.84765], [-1.06858, 44.8514], [-1.06177, 44.85439], [-1.05725, 44.8546], [-1.04758, 44.85238], [-1.05417, 44.84998], [-1.06154, 44.84765]]]}}, {"type": "Feature", "properties": {"nb_detections_cluster": 1, "frp_max": 2.92, "frp_moyen": 2.92, "derniere_detection": "2026-07-24T02:11:00", "fetch_timestamp": "2026-07-24T02:11:00"}, "geometry": {"type": "Polygon", "coordinates": [[[-1.063254935220756, 44.8645021703839], [-1.063253904384376, 44.86419292879655], [-1.063295498934343, 44.863885104457445], [-1.063379317603407, 44.86358166183489], [-1.063504552522297, 44.863285523151156], [-1.06366999702491, 44.86299954024347], [-1.063874057291649, 44.86272646710486], [-1.064114767717944, 44.86246893336834], [-1.064389809859175, 44.862229418990346], [-1.064696534768994, 44.86201023037636], [-1.065031988515518, 44.86181347817855], [-1.065392940629419, 44.86164105697871], [-1.065775915209985, 44.86149462705211], [-1.066177224389732, 44.86137559838709], [-1.066593003835713, 44.86128511711429], [-1.067019249946183, 44.861224054475656], [-1.067451858385115, 44.861192998439435], [-1.067886663584351, 44.86119224804148], [-1.06831947883388, 44.8612218105073], [-1.068746136575166, 44.86128140118253], [-1.069162528510568, 44.86137044627243], [-1.069564645143511, 44.86148808836428], [-1.06994861436965, 44.86163319467911], [-1.070310738748185, 44.861804367974315], [-1.070647531095143, 44.861999959991735], [-1.070955748056428, 44.86221808732221], [-1.071232421337692, 44.86245664953433], [-1.071474886290503, 44.86271334939299], [-1.071680807579483, 44.862985714973384], [-1.071848201683064, 44.863271123458006], [-1.071975456010748, 44.86356682638766], [-1.072061344452201, 44.86386997612362], [-1.072105039207726, 44.86417765326664], [-1.072106118785275, 44.86448689476836], [-1.072064572086082, 44.86479472246541], [-1.071980798538515, 44.865098171760394], [-1.071855604277855, 44.86539432017468], [-1.071690194407731, 44.86568031549704], [-1.071486161416828, 44.865953403257386], [-1.071245469861528, 44.86621095326084], [-1.070970437461246, 44.866450484925764], [-1.07066371278799, 44.866669691182395], [-1.070328249764554, 44.86686646070057], [-1.069967279216769, 44.867038898232856], [-1.069584277753755, 44.86718534287635], [-1.069182934276071, 44.867304384077144], [-1.068767114434716, 44.86739487522287], [-1.068340823383806, 44.86745594469217], [-1.067908167186403, 44.86748700425428], [-1.067473313245995, 44.86748775473785], [-1.067040450145692, 44.86745818891412], [-1.066613747282907, 44.867398591566456], [-1.066197314689277, 44.867309536745985], [-1.065795163423847, 44.86719188223948], [-1.065411166921869, 44.867046761302895], [-1.06504902367234, 44.866875571740756], [-1.064712221584434, 44.8666799624364], [-1.064404004386586, 44.86646181746329], [-1.064127340382235, 44.866223237930804], [-1.063884893863307, 44.86596652173972], [-1.063678999456775, 44.86569414144242], [-1.063511639651131, 44.86540872042202], [-1.063384425718822, 44.865113007619435], [-1.063298582217809, 44.86480985105279], [-1.063254935220756, 44.8645021703839]]]}}, {"type": "Feature", "properties": {"nb_detections_cluster": 1, "frp_max": 2.91, "frp_moyen": 2.91, "derniere_detection": "2026-07-23T13:55:00", "fetch_timestamp": "2026-07-24T02:11:00"}, "geometry": {"type": "Polygon", "coordinates": [[[-1.018673353685092, 44.88294039455054], [-1.018672568091636, 44.88263115079326], [-1.018714420749506, 44.882323341407016], [-1.018798507905436, 44.88201993071584], [-1.018924019104351, 44.88172384063412], [-1.019089745019475, 44.88143792253092], [-1.019294089121285, 44.88116492977482], [-1.019535083072122, 44.880907491224605], [-1.019810405697424, 44.88066808591989], [-1.020117405350314, 44.88044901921567], [-1.020453125453772, 44.880252400589995], [-1.020814332974174, 44.8800801233384], [-1.021197549552012, 44.87993384634994], [-1.021599084990151, 44.87981497814022], [-1.02201507277754, 44.879724663294766], [-1.022441507306816, 44.87966377145303], [-1.02287428242811, 44.879632888938644], [-1.023309230968632, 44.87963231311659], [-1.023742164838376, 44.87966204953144], [-1.024168915336735, 44.879721811853884], [-1.02458537327289, 44.8798110246364], [-1.02498752851459, 44.87992882885148], [-1.025371508585438, 44.880074090159106], [-1.025733615939792, 44.880245409824155], [-1.02607036355708, 44.880441138178945], [-1.026378508513293, 44.88065939050137], [-1.026655083206738, 44.880898065156295], [-1.026897423937573, 44.88115486382571], [-1.027103196565839, 44.88142731363307], [-1.027270419000734, 44.88171279094958], [-1.027397480304136, 44.88200854665293], [-1.027483156223817, 44.882311732596], [-1.027526621006046, 44.882619429030484], [-1.027527455372935, 44.882928672722045], [-1.027485650586766, 44.88323648548586], [-1.027401608561125, 44.88353990286812], [-1.027276138016753, 44.88383600269724], [-1.027110446718099, 44.884121933229665], [-1.026906129864389, 44.88439494061906], [-1.026665154746156, 44.884652395444334], [-1.026389841814234, 44.88489181804046], [-1.026082842342991, 44.885110902387936], [-1.025747112902465, 44.88530753833064], [-1.025385886885098, 44.8854798319076], [-1.025002643361228, 44.8856261236024], [-1.024601073563507, 44.88574500433423], [-1.024185045323408, 44.88583532903637], [-1.02375856580287, 44.88589622769059], [-1.023325742880748, 44.885927113711446], [-1.022890745566793, 44.8859276895992], [-1.022457763825347, 44.88589794980678], [-1.0220309681967, 44.88583818079328], [-1.021614469606001, 44.88574895826333], [-1.021212279747832, 44.885631141619044], [-1.020828272428884, 44.88548586567812], [-1.020466146241926, 44.88531452973799], [-1.020129388931257, 44.88511878409181], [-1.019821243793398, 44.88490051412614], [-1.019544678437021, 44.884661822154165], [-1.019302356203151, 44.88440500715939], [-1.019096610520918, 44.88413254264571], [-1.018929422445606, 44.88384705280709], [-1.018802401594912, 44.88355128724704], [-1.018716770666494, 44.883248094491485], [-1.018673353685092, 44.88294039455054]]]}}, {"type": "Feature", "properties": {"nb_detections_cluster": 19, "frp_max": 76.63, "frp_moyen": 25.54, "derniere_detection": "2026-07-23T14:12:00", "fetch_timestamp": "2026-07-24T02:11:00"}, "geometry": {"type": "Polygon", "coordinates": [[[-1.01702, 44.89952], [-1.02036, 44.90422], [-1.01713, 44.90467], [-1.01581, 44.90444], [-1.01391, 44.89542], [-1.00781, 44.8924], [-1.0112, 44.89046], [-1.01904, 44.89182], [-1.01725, 44.89248], [-1.01702, 44.89952]]]}}, {"type": "Feature", "properties": {"nb_detections_cluster": 17, "frp_max": 161.66, "frp_moyen": 62.75, "derniere_detection": "2026-07-23T14:12:00", "fetch_timestamp": "2026-07-24T02:11:00"}, "geometry": {"type": "Polygon", "coordinates": [[[-1.0513, 44.89732], [-1.05851, 44.89711], [-1.04778, 44.9031], [-1.04504, 44.89815], [-1.04526, 44.89267], [-1.0491, 44.897], [-1.0513, 44.89732]]]}}]}