{"type": "FeatureCollection", "name": "zone_active", "crs": {"type": "name", "properties": {"name": "urn:ogc:def:crs:OGC:1.3:CRS84"}}, "features": [{"type": "Feature", "properties": {"nb_detections_cluster": 1, "frp_max": 24.68, "frp_moyen": 24.68, "derniere_detection": "2026-07-23T12:14:00", "fetch_timestamp": "2026-07-23T12:14:00"}, "geometry": {"type": "Polygon", "coordinates": [[[-1.152141455140218, 44.82003511114434], [-1.152266125230615, 44.81973887673437], [-1.152430989768434, 44.819452765806055], [-1.152634460519123, 44.819179533585675], [-1.152874577554774, 44.818921811238674], [-1.153149028144414, 44.81868208053814], [-1.153455169037334, 44.81846264997299], [-1.153790051924481, 44.8182656325255], [-1.154150451832466, 44.81809292533194], [-1.154532898176746, 44.8179461914216], [-1.154933708175131, 44.81782684371008], [-1.155349022300175, 44.81773603140018], [-1.155774841429645, 44.817674628921495], [-1.156207065337963, 44.817643227514594], [-1.15664153215883, 44.81764212954088], [-1.157074058439901, 44.817671345572606], [-1.157500479404801, 44.81773059429121], [-1.157916689035759, 44.81781930519469], [-1.158318679591854, 44.81793662408815], [-1.158702580183265, 44.81808142130484], [-1.159064694030876, 44.818252302578614], [-1.159401534053163, 44.81844762246336], [-1.159709856438216, 44.818665500170596], [-1.159986691877972, 44.8189038376729], [-1.160229374164071, 44.81916033989933], [-1.160435565869974, 44.81943253682858], [-1.160603280871758, 44.81971780726767], [-1.160730903490388, 44.82001340408721], [-1.160817204070475, 44.820316480670876], [-1.16086135084481, 44.820624118324396], [-1.160862917969544, 44.82093335438035], [-1.160821889651657, 44.82124121072826], [-1.160738660327998, 44.82154472249548], [-1.16061403089308, 44.82184096660222], [-1.160449201010995, 44.82212708991618], [-1.160245757584494, 44.822400336735086], [-1.16000565949143, 44.82265807533252], [-1.159731218734826, 44.82289782331085], [-1.15942507818751, 44.82311727151724], [-1.159090186145254, 44.823314306291415], [-1.158729767933276, 44.823487029831284], [-1.158347294839525, 44.82363377847937], [-1.157946450674166, 44.82375313875372], [-1.157531096277655, 44.8238439609687], [-1.15710523231984, 44.82390537031415], [-1.156672960749025, 44.82393677528555], [-1.156238445263154, 44.823937873384565], [-1.155805871184739, 44.82390865403408], [-1.15537940512698, 44.82384939868022], [-1.154963154840541, 44.823760678079964], [-1.154561129628711, 44.82364334680086], [-1.154177201713114, 44.823498534985625], [-1.153815068922917, 44.823327637461425], [-1.153478219067595, 44.82313230029888], [-1.153169896336936, 44.822914404950424], [-1.152893070052289, 44.82267605012141], [-1.152650406070184, 44.82241953154869], [-1.152444241113753, 44.822147319881694], [-1.152276560278943, 44.82186203687979], [-1.152148977931778, 44.82156643015516], [-1.152062722180036, 44.82126334670472], [-1.152018623068197, 44.82095570548669], [-1.152017104608469, 44.820646469305466], [-1.152058180723699, 44.820338616276274], [-1.152141455140218, 44.82003511114434]]]}}, {"type": "Feature", "properties": {"nb_detections_cluster": 4, "frp_max": 58.57, "frp_moyen": 45.3, "derniere_detection": "2026-07-23T12:14:00", "fetch_timestamp": "2026-07-23T12:14:00"}, "geometry": {"type": "Polygon", "coordinates": [[[-1.081926817335474, 44.828156227956484], [-1.082092064647801, 44.827870220869514], [-1.082295907816427, 44.827597116997715], [-1.082536383327772, 44.82733954627022], [-1.082811174999615, 44.82709998899973], [-1.083117636297622, 44.826880752004875], [-1.08345281582831, 44.82668394640374], [-1.083813485762714, 44.826511467292434], [-1.084196172917027, 44.826364975503914], [-1.084597192191083, 44.82624588162222], [-1.085012682043035, 44.826155332406], [-1.085438641659175, 44.82609419975143], [-1.085870969461641, 44.82606307230097], [-1.086305502584031, 44.82606224977808], [-1.086738056935701, 44.826091740102775], [-1.087164467469912, 44.82615125931533], [-1.087580628269068, 44.82624023430915], [-1.087982532062013, 44.82635780834636], [-1.088366308793775, 44.82650284930341], [-1.088728262877158, 44.82667396056702], [-1.089064908768188, 44.82686949447636], [-1.089373004523365, 44.827087568181845], [-1.089649583015942, 44.827326081768476], [-1.089891980510844, 44.827582738469474], [-1.090097862322984, 44.82785506677568], [-1.090265245311733, 44.82814044422864], [-1.090392516994483, 44.82843612266802], [-1.090478451094676, 44.82873925469113], [-1.090522219373827, 44.8290469210693], [-1.090523399632743, 44.829356158858076], [-1.09048197980392, 44.82966398992987], [-1.090398358094695, 44.82996744965494], [-1.090273339178748, 44.83026361545433], [-1.090108126471598, 44.83054963494947], [-1.089904310563537, 44.83082275343763], [-1.089663853920535, 44.83108034042797], [-1.089656617303467, 44.8310866498636], [-1.089904412466186, 44.831121228024024], [-1.090320614413619, 44.831210192886914], [-1.090722559488483, 44.83132775719202], [-1.09110637723836, 44.83147278890944], [-1.091468371681138, 44.83164389151488], [-1.091805056884251, 44.83183941743088], [-1.092113190525676, 44.832057483884874], [-1.092389805113852, 44.83229599103169], [-1.092632236566102, 44.83255264216654], [-1.092838149870315, 44.832824965833915], [-1.093005561582547, 44.83311033962], [-1.093132858943514, 44.83340601539985], [-1.093218815429288, 44.833709145796355], [-1.093262602585702, 44.83401681159658], [-1.093263798031654, 44.8343260498616], [-1.093222389553255, 44.83463388245926], [-1.093138775248402, 44.83493734474519], [-1.093013759719334, 44.83523351411573], [-1.09284854634882, 44.83551953815798], [-1.09264472573342, 44.83579266212538], [-1.092404260384328, 44.83605025547438], [-1.092129465842421, 44.836289837206024], [-1.09182298838878, 44.836509099768406], [-1.091487779564968, 44.8367059312891], [-1.091127067748223, 44.83687843592356], [-1.090744327055309, 44.83702495212262], [-1.090343243874699, 44.83714406864317], [-1.08992768134979, 44.837234638147386], [-1.089501642155768, 44.83729578825917], [-1.089069229929331, 44.83732692997099], [-1.088634609723584, 44.837327763320275], [-1.088318842470409, 44.837306245047564], [-1.088354614125411, 44.837311236685395], [-1.088770859474237, 44.83740020754179], [-1.089172845591032, 44.83751777769918], [-1.089556701628211, 44.837662815071326], [-1.089918731235, 44.837833923079536], [-1.090255448140219, 44.83802945409425], [-1.090563609716538, 44.838247525293816], [-1.090840248203342, 44.838486036787366], [-1.091082699287744, 44.83874269182828], [-1.091288627768477, 44.8390150189234], [-1.091456050055331, 44.8393003956259], [-1.091583353287056, 44.83959607378277], [-1.091669310883041, 44.83989920599395], [-1.091713094378274, 44.84020687302906], [-1.091714281426756, 44.84051611193728], [-1.091672859895316, 44.84082394458023], [-1.09158922800741, 44.84112740631307], [-1.091464190534482, 44.8414235745375], [-1.091298951070516, 44.84170959685162], [-1.091095100463277, 44.841982718525536], [-1.090854601512733, 44.84224030903775], [-1.090579770083325, 44.84247988741664], [-1.090273252811379, 44.84269914614255], [-1.089938001621956, 44.842895973380024], [-1.089577245300355, 44.843068473325786], [-1.089194458392029, 44.84321498447576], [-1.088793327730639, 44.843334095635534], [-1.088377716916975, 44.84342465951889], [-1.087951629091415, 44.84348580380386], [-1.087519168359159, 44.84351693953904], [-1.087084500240605, 44.84351776681944], [-1.086651811528696, 44.84348827767649], [-1.086225269940865, 44.843428756155], [-1.085808983955162, 44.84333977557576], [-1.085406963218409, 44.843222193010355], [-1.085023079908618, 44.84307714102188], [-1.084661031424635, 44.84290601675078], [-1.084324304763079, 44.842710468451514], [-1.08401614292621, 44.842492379610015], [-1.083739513684656, 44.84225385079507], [-1.083497080996016, 44.841997179418996], [-1.083291179354616, 44.84172483760269], [-1.083123791319247, 44.841439448358706], [-1.082996528434891, 44.84114376032202], [-1.082910615731636, 44.840840621272335], [-1.082866879949288, 44.840532950702894], [-1.08286574160027, 44.8402237117003], [-1.082907210946258, 44.83991588240656], [-1.082990887926309, 44.83961242733777], [-1.083115966036116, 44.8393162688362], [-1.08328124012004, 44.83903025893007], [-1.083485117999891, 44.83875715187248], [-1.083725635827629, 44.83849957762318], [-1.083732848978342, 44.838493290425795], [-1.083485214954715, 44.83845872490102], [-1.083068970134921, 44.83836973418914], [-1.082666990696969, 44.83825214188984], [-1.082283148421014, 44.838107080659945], [-1.081921140310618, 44.83793594772887], [-1.081584452973487, 44.83774039143453], [-1.081276329033091, 44.8375222953398], [-1.080999735895046, 44.837283760083395], [-1.08075733716923, 44.83702708313963], [-1.08055146702289, 44.836754736682984], [-1.080384107711531, 44.83646934377068], [-1.080256870503561, 44.83617365307308], [-1.080170980181861, 44.83587051239545], [-1.080127263270791, 44.835562841246656], [-1.080126140101142, 44.83525360271895], [-1.080167620788531, 44.83494577494969], [-1.080251305162918, 44.834642322440295], [-1.080376386648922, 44.83434616750834], [-1.080541660058517, 44.83406016214769], [-1.080745533220132, 44.833787060567644], [-1.080986042331273, 44.8335294926752], [-1.081260870886102, 44.83328993875578], [-1.081567371995074, 44.83307070559573], [-1.081902593881334, 44.8328739042762], [-1.082263308308067, 44.83270142985209], [-1.082646041663063, 44.83255494311117], [-1.083047108401325, 44.832435854588915], [-1.083462646524029, 44.83234531099232], [-1.083888654752738, 44.83228418416349], [-1.084321031041576, 44.83225306268877], [-1.084755612057348, 44.832252246234084], [-1.08507170483467, 44.83227379883448], [-1.085035416635792, 44.83226873355663], [-1.084619215216707, 44.83217974883967], [-1.084217276818586, 44.832062162394294], [-1.083833472826261, 44.83191710682088], [-1.083471499874533, 44.83174597929443], [-1.083134844232478, 44.83155042810073], [-1.082826748218322, 44.83133233675361], [-1.082550178968763, 44.831093805845974], [-1.082307799863676, 44.830837132810316], [-1.082101944881434, 44.83056478978347], [-1.081934596131609, 44.830279399789646], [-1.081807364781024, 44.82998371147102], [-1.081721475556299, 44.82968057261006], [-1.081677754971377, 44.8293729026981], [-1.081676623392591, 44.829063664815465], [-1.081718091016693, 44.828755837093354], [-1.0818017577996, 44.82845238403273], [-1.081926817335474, 44.828156227956484]]]}}, {"type": "Feature", "properties": {"nb_detections_cluster": 6, "frp_max": 52.46, "frp_moyen": 30.0, "derniere_detection": "2026-07-23T12:32:00", "fetch_timestamp": "2026-07-23T12:14:00"}, "geometry": {"type": "Polygon", "coordinates": [[[-1.101876435889635, 44.82825697825508], [-1.102041581953231, 44.827970941457764], [-1.102245328522883, 44.82769780093651], [-1.102485713015016, 44.82744018697341], [-1.102760420123648, 44.82720058029762], [-1.103066804128485, 44.826981288203605], [-1.103401914380068, 44.82678442234006], [-1.103762523716278, 44.82661187838345], [-1.104145159536577, 44.826465317791175], [-1.104546137234879, 44.8263461518098], [-1.104961595669482, 44.82625552789228], [-1.105387534329049, 44.826194318654075], [-1.105819851837408, 44.826163113475054], [-1.106254385427227, 44.82616221282717], [-1.106686951003358, 44.826191625382656], [-1.107113383411034, 44.826251067930635], [-1.107529576522142, 44.8263399681027], [-1.107931522754543, 44.826457469881476], [-1.108315351644799, 44.82660244183917], [-1.108677367103695, 44.82677348802696], [-1.109014082996503, 44.82696896141066], [-1.109322256705916, 44.82718697972357], [-1.109598920354802, 44.827425443584154], [-1.109841409388325, 44.82768205670454], [-1.110047388240165, 44.827954347995316], [-1.110214872835437, 44.828239695354576], [-1.11034224971326, 44.82853535091192], [-1.110428291584183, 44.8288384674851], [-1.110472169171969, 44.8291461259944], [-1.110473459224789, 44.829455363571206], [-1.110432148617763, 44.82976320209014], [-1.110348634506295, 44.8300666768499], [-1.110223720527704, 44.83036286512679], [-1.110058609086703, 44.830648914325906], [-1.109854889798089, 44.83092206945853], [-1.109614524197041, 44.83117969968103], [-1.109339826863568, 44.83141932363938], [-1.109033443142309, 44.83163863337499], [-1.108698323671827, 44.83183551656122], [-1.108337695968516, 44.83200807685587], [-1.107955033338754, 44.83215465217369], [-1.107554021418898, 44.83227383070222], [-1.107138522665764, 44.832364464506355], [-1.106712539140107, 44.832425680590646], [-1.106280173942283, 44.83245688931216], [-1.105845591672299, 44.83245779006282], [-1.105412978296055, 44.832428374166405], [-1.10498650080525, 44.832368924962246], [-1.104570267060515, 44.83228001507448], [-1.104168286205519, 44.83216250089388], [-1.103784430034226, 44.832017514324825], [-1.103422395684245, 44.83184645187765], [-1.103085670016277, 44.83165096121137], [-1.102777496023285, 44.83143292525687], [-1.1025008415933, 44.83119444407359], [-1.102258370926877, 44.830937814615176], [-1.102052418884502, 44.83066550859884], [-1.101884968510784, 44.83038014869243], [-1.101757631951493, 44.83008448324846], [-1.101671634946656, 44.829781359829205], [-1.101627805048337, 44.82947369777742], [-1.101626563675682, 44.82916446009782], [-1.101667922082821, 44.828856624919794], [-1.101751481277418, 44.82855315681627], [-1.101876435889635, 44.82825697825508]]]}}, {"type": "Feature", "properties": {"nb_detections_cluster": 2, "frp_max": 57.6, "frp_moyen": 57.6, "derniere_detection": "2026-07-23T12:14:00", "fetch_timestamp": "2026-07-23T12:14:00"}, "geometry": {"type": "Polygon", "coordinates": [[[-1.075440656835157, 44.84067976115733], [-1.075747220972644, 44.840460543542896], [-1.076082507340958, 44.84026375932936], [-1.076443287082424, 44.840091303406815], [-1.076826085955982, 44.83994483638495], [-1.077227217785844, 44.839825768609295], [-1.077642819946521, 44.839735246587104], [-1.078068890543064, 44.839674141952706], [-1.078501326929171, 44.83964304307876], [-1.078935965193083, 44.839642249413565], [-1.079368620231921, 44.83967176859927], [-1.079795126029582, 44.8397313163982], [-1.080211375751295, 44.83982031942856], [-1.080613361269743, 44.83993792068253], [-1.08099721174304, 44.840082987774416], [-1.081359230873904, 44.840254123839316], [-1.081695932491923, 44.84044968097757], [-1.082004074116859, 44.84066777611589], [-1.082280688180086, 44.840906309132905], [-1.082523110603768, 44.841162983074646], [-1.082729006462493, 44.841435326265966], [-1.08289639248006, 44.841720716104994], [-1.083023656144361, 44.84201640431211], [-1.083109571255704, 44.842319543390495], [-1.083153309758116, 44.842627214043524], [-1.08315444973881, 44.8429364532855], [-1.083112979517844, 44.843244282974794], [-1.083029297787553, 44.84354773849496], [-1.082904209799386, 44.84384389730745], [-1.082738919633855, 44.844129907100964], [-1.082535018627068, 44.84440301326616], [-1.082294470064466, 44.84466058543084], [-1.082019590288394, 44.844900142800086], [-1.081713026400922, 44.84511937805655], [-1.081377730776193, 44.84531617959083], [-1.081016932627604, 44.84548865184714], [-1.08063410690359, 44.845635133588125], [-1.080232940811787, 44.84575421390263], [-1.07981729829435, 44.84584474580151], [-1.079391182797117, 44.84590585727088], [-1.078958698691898, 44.84593695967545], [-1.078524011724272, 44.845937753431194], [-1.078091308868772, 44.84590823089255], [-1.077980579346933, 44.84589277115388], [-1.077719500204855, 44.84612027108089], [-1.077412912876834, 44.846339494547], [-1.077077594904737, 44.84653628316887], [-1.076716775717259, 44.84670874151511], [-1.076333930465532, 44.846855208482346], [-1.075932746545337, 44.846974273301676], [-1.075517088070602, 44.84706478913324], [-1.075090958640909, 44.84712588411789], [-1.074658462762301, 44.84715696977913], [-1.074223766293789, 44.847157746694236], [-1.073791056301436, 44.847128207379775], [-1.073364500707662, 44.84706863636386], [-1.072948208125398, 44.84697960744394], [-1.072546188264946, 44.84686197815731], [-1.072162313295783, 44.84671688151701], [-1.07180028053629, 44.84654571509357], [-1.071463576831477, 44.84635012754743], [-1.071155444962312, 44.84613200274252], [-1.070878852410588, 44.845893441593965], [-1.070636462780321, 44.84563674182548], [-1.070430610150915, 44.84536437583135], [-1.070263276608907, 44.84507896685691], [-1.070136073174256, 44.84478326372713], [-1.070050224304308, 44.844480114366995], [-1.070006556123949, 44.844172438368936], [-1.070005488494424, 44.84386319887178], [-1.070047030996251, 44.843555374022216], [-1.070130782863907, 44.84325192829347], [-1.070255936871881, 44.84295578393776], [-1.070421287133643, 44.842669792847005], [-1.070625240737464, 44.842396709093045], [-1.070865833106182, 44.84213916241117], [-1.071140746932219, 44.84189963288253], [-1.07144733450496, 44.8416804270585], [-1.071782643215032, 44.84148365575701], [-1.072143443989676, 44.84131121374384], [-1.072526262385355, 44.8411647614947], [-1.072927412038351, 44.841045709212885], [-1.073343030151604, 44.840955203256435], [-1.073769114676603, 44.840894115105], [-1.074201562832965, 44.8408630329725], [-1.074636210595619, 44.84086225614605], [-1.075068872770242, 44.840891792105644], [-1.075179591633844, 44.84090725472389], [-1.075440656835157, 44.84067976115733]]]}}, {"type": "Feature", "properties": {"nb_detections_cluster": 9, "frp_max": 100.76, "frp_moyen": 31.5, "derniere_detection": "2026-07-23T12:32:00", "fetch_timestamp": "2026-07-23T12:14:00"}, "geometry": {"type": "Polygon", "coordinates": [[[-1.057365908378217, 44.84659529794211], [-1.057531334976007, 44.84630932572019], [-1.057735364454008, 44.84603626533338], [-1.057976031504481, 44.845778746291884], [-1.058251018100804, 44.84553924841061], [-1.058557675831746, 44.84532007793616], [-1.058893051412505, 44.84512334534599], [-1.05925391512656, 44.844950945033155], [-1.05963679192448, 44.8448045370717], [-1.060037994880342, 44.844685531238525], [-1.060453660683979, 44.84459507344436], [-1.060879786827795, 44.844534034705134], [-1.061312270130771, 44.844503002758934], [-1.061746946229489, 44.84450227640966], [-1.062179629656825, 44.844531862651245], [-1.062606154123339, 44.844591476600414], [-1.063022412614468, 44.84468054423834], [-1.063424396918371, 44.84479820793509], [-1.063808236204732, 44.84494333470372], [-1.064170234283817, 44.845114527104684], [-1.064506905187725, 44.84531013669577], [-1.064815006731733, 44.845528279898616], [-1.065091571732911, 44.84576685612895], [-1.065333936585597, 44.84602356801661], [-1.065539766918491, 44.84629594352096], [-1.065707080086116, 44.84658135972889], [-1.065834264277649, 44.84687706810676], [-1.065920094058494, 44.847180220963395], [-1.065963742194224, 44.84748789886938], [-1.065964787642156, 44.84779713876907], [-1.065923219632624, 44.84810496251436], [-1.065839437799661, 44.84840840554598], [-1.065714248358762, 44.848704545445514], [-1.065548856367551, 44.84899053008376], [-1.065365658740214, 44.849235756438674], [-1.06559718472801, 44.84907026426415], [-1.065932558043225, 44.848873510164935], [-1.066293424242511, 44.84870108675589], [-1.066676308252423, 44.84855465433355], [-1.067077523077531, 44.84843562291027], [-1.067493205293337, 44.84834513864327], [-1.067919352234194, 44.848284072803324], [-1.068351860518835, 44.848253013389524], [-1.06878656554332, 44.84825225947023], [-1.06921928156205, 44.84828181830484], [-1.069645841971825, 44.84834140527399], [-1.070062139412064, 44.84843044661863], [-1.070464165295972, 44.848548084962026], [-1.070848048392947, 44.84869318756138], [-1.071210092091496, 44.84886435720984], [-1.071546809984524, 44.849059945684346], [-1.07185495943492, 44.849278069609845], [-1.072131572798517, 44.84951662858775], [-1.072373986004, 44.84977332541408], [-1.072579864214483, 44.850045688193205], [-1.072747224323458, 44.850331094134646], [-1.072874454068053, 44.850626794803645], [-1.072960327574962, 44.8509299425833], [-1.073004017188617, 44.85123761809315], [-1.07300510146681, 44.851546858300644], [-1.072963569265827, 44.851854685054796], [-1.072879819874729, 44.852158133767375], [-1.072754659196446, 44.852454281965315], [-1.072589292011452, 44.8527402774395], [-1.072385310397573, 44.8530133657184], [-1.072144678416566, 44.8532709166021], [-1.071869713214225, 44.85351044950055], [-1.071563062715454, 44.85372965733208], [-1.07122768012869, 44.853926428751386], [-1.070866795505042, 44.85409886849269], [-1.070483884625993, 44.85424531563187], [-1.070082635519539, 44.85436435959096], [-1.06966691292759, 44.85445485373103], [-1.069240721067425, 44.854515926401874], [-1.068808165046538, 44.85454698934189], [-1.068373411303342, 44.85454774334721], [-1.067940647455672, 44.85451818115512], [-1.067514041944766, 44.854458587514046], [-1.067097703864416, 44.85436953643939], [-1.066695643363195, 44.854251885681855], [-1.066311733002025, 44.85410676846127], [-1.065949670440154, 44.853935582546356], [-1.065612942809576, 44.85373997678535], [-1.065304793121615, 44.85352183521755], [-1.065028189029567, 44.85328325891956], [-1.064785794248447, 44.85302654576098], [-1.064579942907102, 44.85275416826501], [-1.064412617079473, 44.85246874978776], [-1.06428542771102, 44.852173039245706], [-1.064199599123419, 44.85186988463515], [-1.064155957246011, 44.85156220559909], [-1.064154921686528, 44.851252965305555], [-1.064196501716451, 44.850945141908866], [-1.06428029620868, 44.85064169986823], [-1.064405497527073, 44.85034556140028], [-1.064570899329381, 44.85005957834027], [-1.064754103113271, 44.849814353231636], [-1.064522571574548, 44.849979843687514], [-1.064187186714951, 44.85017659359704], [-1.063826304570955, 44.85034901024089], [-1.06344340090024, 44.85049543291733], [-1.063042163661437, 44.85061445128405], [-1.062626457482187, 44.8507049189486], [-1.062200286421698, 44.8507659645158], [-1.061767755387113, 44.850796999985086], [-1.061333030576149, 44.85079772641726], [-1.060900299327911, 44.850768136815134], [-1.060473729769573, 44.85070851619117], [-1.060057430648551, 44.85061943882067], [-1.059655411738068, 44.850501762707616], [-1.059271545198354, 44.85035662131606], [-1.058909528266472, 44.850185412647534], [-1.058572847634826, 44.849989785769395], [-1.058264745861971, 44.849771624924344], [-1.057988190139631, 44.84953303137464], [-1.057745843716889, 44.84927630315599], [-1.05754004025679, 44.849003912936624], [-1.057372761372106, 44.84871848419519], [-1.057245617556185, 44.84842276594691], [-1.057159832692012, 44.848119606262316], [-1.05711623228789, 44.8478119248332], [-1.057115235552206, 44.847502684850646], [-1.057156851382638, 44.847194864465884], [-1.057240678307425, 44.846891428109075], [-1.057365908378217, 44.84659529794211]]]}}, {"type": "Feature", "properties": {"nb_detections_cluster": 3, "frp_max": 22.52, "frp_moyen": 16.84, "derniere_detection": "2026-07-23T12:32:00", "fetch_timestamp": "2026-07-23T12:14:00"}, "geometry": {"type": "Polygon", "coordinates": [[[-1.069573375011162, 44.877585746619935], [-1.06973883074002, 44.87729975337105], [-1.069942913463915, 44.877026667838635], [-1.070183657361708, 44.87676911977512], [-1.070458743666194, 44.87652958927494], [-1.070765523005532, 44.876310382898815], [-1.071101040923543, 44.876113611469954], [-1.071462066332855, 44.87594116975539], [-1.071845122626915, 44.875794718227915], [-1.072246521151402, 44.875675667083875], [-1.072662396713107, 44.87558516267035], [-1.073088744784867, 44.8755240764521], [-1.073521460049008, 44.8754929966245], [-1.073956375908912, 44.87549222245238], [-1.074389304589201, 44.87552176139021], [-1.074816077439314, 44.87558132901018], [-1.075232585053416, 44.87567035173959], [-1.075634816821245, 44.875787972380934], [-1.076018899529971, 44.875933058361895], [-1.076381134646186, 44.876104212635646], [-1.07671803391969, 44.87629978712718], [-1.077026352966803, 44.876517898596134], [-1.077303122510146, 44.876756446763885], [-1.077545676974265, 44.87701313453054], [-1.077751680161708, 44.87728549008782], [-1.07791914776207, 44.877570890714765], [-1.078046466476864, 44.87786658802783], [-1.07813240957544, 44.878169734442494], [-1.078176148731433, 44.878477410591465], [-1.078177262024866, 44.87878665343606], [-1.078135738031912, 44.87909448479995], [-1.078051975961898, 44.87939794005052], [-1.077926781839193, 44.879694096651775], [-1.077761360765742, 44.87998010231369], [-1.077557305337795, 44.880253202466655], [-1.077316580327524, 44.88051076679639], [-1.077041503776295, 44.880750314583366], [-1.076734724681138, 44.88096953860252], [-1.07639919748885, 44.88116632735261], [-1.076038153643204, 44.88133878540102], [-1.075655070459253, 44.88148525164722], [-1.075253637624683, 44.881604315329234], [-1.07483772165122, 44.88169482961814], [-1.074411328619024, 44.88175592266969], [-1.07397856557358, 44.881787006025945], [-1.073543600947708, 44.88178778028639], [-1.073110624390841, 44.88175823799322], [-1.072683806393406, 44.88169866370318], [-1.072267258096224, 44.88160963124528], [-1.071864991672989, 44.88149199819089], [-1.071480881668314, 44.88134689758938], [-1.071118627664577, 44.88117572704941], [-1.070781718637816, 44.880980135271095], [-1.070473399346521, 44.8807620061591], [-1.070196639077459, 44.88052344067012], [-1.069954103049672, 44.88026673656962], [-1.06974812675212, 44.879994366293616], [-1.069580693461842, 44.87970895312872], [-1.069453415158806, 44.87941324594026], [-1.069367517020664, 44.87911009269228], [-1.069323825645975, 44.87880241301468], [-1.069322761118509, 44.87849317008173], [-1.069364332988041, 44.87818534207318], [-1.069448140205378, 44.8778818934927], [-1.069573375011162, 44.877585746619935]]]}}, {"type": "Feature", "properties": {"nb_detections_cluster": 2, "frp_max": 28.77, "frp_moyen": 28.77, "derniere_detection": "2026-07-23T12:14:00", "fetch_timestamp": "2026-07-23T12:14:00"}, "geometry": {"type": "Polygon", "coordinates": [[[-1.007023671714155, 44.88940339066806], [-1.007189480917296, 44.889117489637854], [-1.007393910849128, 44.888844518123385], [-1.00763499234547, 44.88858710477875], [-1.007910403388771, 44.88834772840084], [-1.008217491480806, 44.88812869406602], [-1.008553299193053, 44.887932110940625], [-1.008914592648411, 44.887759871978275], [-1.009297892660039, 44.88761363569934], [-1.009699508227573, 44.88749481022738], [-1.010115572068557, 44.887404539736444], [-1.010542077843466, 44.887343693438815], [-1.01097491871656, 44.887312857219634], [-1.011409926882051, 44.88731232799809], [-1.011842913675904, 44.88734211087004], [-1.012269709887972, 44.887401919058824], [-1.012686205887287, 44.88749117667529], [-1.013088391175073, 44.88760902426027], [-1.013472392985557, 44.887754327056044], [-1.013834513563667, 44.88792568592803], [-1.014171265761356, 44.88812145083096], [-1.014479406610334, 44.888339736690796], [-1.014755968548254, 44.88857844154945], [-1.01499828799787, 44.88883526679793], [-1.015204031023905, 44.88910773930379], [-1.01537121582036, 44.88939323521956], [-1.015498231811304, 44.88968900524374], [-1.01558385518062, 44.88999220109124], [-1.015627260680403, 44.890299902918315], [-1.015628029603458, 44.890609147438624], [-1.01558615384213, 44.890916956459264], [-1.015502035993394, 44.89122036556239], [-1.015376485508106, 44.89151645265613], [-1.015210710920547, 44.89180236611943], [-1.015006308232075, 44.89207535227037], [-1.014766016639331, 44.89233195846503], [-1.014979656765653, 44.89236188824036], [-1.015396193878911, 44.89245113583332], [-1.015798420396496, 44.89256897378794], [-1.016182463155693, 44.89271426743932], [-1.016544624007178, 44.89288561774087], [-1.016881415415146, 44.89308137472991], [-1.01718959403376, 44.89329965340858], [-1.01746619193698, 44.89353835188795], [-1.017708545201216, 44.893795171620496], [-1.017914319565538, 44.89406763952688], [-1.018081532922112, 44.894353131803925], [-1.018208574419908, 44.894648899185235], [-1.018294219997082, 44.89495209341114], [-1.018337644191762, 44.89525979465357], [-1.018338428116599, 44.89556903963177], [-1.018296563519341, 44.8958768501485], [-1.018212452889311, 44.89618026177154], [-1.018086905607717, 44.896476352384695], [-1.017921130177851, 44.89676227033309], [-1.017716722609066, 44.897035261891595], [-1.017475651065484, 44.89729269779151], [-1.017200236926599, 44.89753209855002], [-1.016893132441555, 44.89775115835793], [-1.016557295191892, 44.89794776729546], [-1.016195959608533, 44.89812003166171], [-1.015812605817269, 44.89826629222157], [-1.015410926113, 44.89838514019418], [-1.014994789385995, 44.89847543082825], [-1.014568203843337, 44.898536294433754], [-1.014135278385287, 44.89856714476283], [-1.013700183009415, 44.898567684659504], [-1.013267108624769, 44.89853790892338], [-1.012840226664124, 44.8984781043598], [-1.012423648884284, 44.898388847015795], [-1.012021387742639, 44.89827099662884], [-1.011637317732488, 44.898125688341565], [-1.011275138050393, 44.89795432176302], [-1.01093833695581, 44.89775854748144], [-1.010630158166826, 44.89754025115917], [-1.010353569616029, 44.897301535363205], [-1.0101112348676, 44.89704469930653], [-1.009905487470916, 44.89677221669581], [-1.00973830849746, 44.8964867118993], [-1.009611307476942, 44.8961909346645], [-1.009525706915682, 44.89588773362978], [-1.009482330545618, 44.895580028884844], [-1.009481595416224, 44.89527078384502], [-1.009523507904573, 44.89496297670996], [-1.009607663680913, 44.89465957178193], [-1.009733251629089, 44.89436349091982], [-1.009899061683014, 44.89407758540377], [-1.010103496502753, 44.89380460848115], [-1.010343815715982, 44.89354801225511], [-1.010130173547312, 44.89351807355307], [-1.009713636890454, 44.8934288061846], [-1.009311416987086, 44.89331094616653], [-1.008927387933241, 44.89316562873431], [-1.00856524853094, 44.892994253584995], [-1.00822848665163, 44.8927984713894], [-1.007920345635661, 44.89258016788609], [-1.007643793051797, 44.89234144571122], [-1.007401492117814, 44.89208460413917], [-1.007195776057443, 44.89181211692977], [-1.007028625640406, 44.89152660849549], [-1.006901650121455, 44.891230828618895], [-1.006816071761391, 44.89092762596374], [-1.006772714078436, 44.89061992063535], [-1.006771993942215, 44.890310676054675], [-1.006813917585526, 44.89000287041687], [-1.006898080571325, 44.88969946800981], [-1.007023671714155, 44.88940339066806]]]}}, {"type": "Feature", "properties": {"nb_detections_cluster": 4, "frp_max": 161.66, "frp_moyen": 100.47, "derniere_detection": "2026-07-23T12:32:00", "fetch_timestamp": "2026-07-23T12:14:00"}, "geometry": {"type": "Polygon", "coordinates": [[[-1.040862462738391, 44.897094660518256], [-1.041028122271836, 44.89680870831905], [-1.041232415619672, 44.896535673899734], [-1.041473374932489, 44.89627818652039], [-1.041748679368799, 44.89603872569097], [-1.042055677456436, 44.89581959730117], [-1.042391412633064, 44.89562291142314], [-1.042752651719584, 44.895450562000036], [-1.043135916052274, 44.89530420861591], [-1.043537514973983, 44.89518526052199], [-1.04395358136227, 44.89509486307307], [-1.044380108852903, 44.895033886703985], [-1.044812990400951, 44.895002918552265], [-1.045248057808974, 44.89500225680754], [-1.045681121842591, 44.89503190784164], [-1.046108012548095, 44.89509158614741], [-1.046524619384902, 44.89518071708638], [-1.046926930787303, 44.89529844241907], [-1.047311072775534, 44.89544362856505], [-1.047673346245139, 44.89561487751297], [-1.048010262576275, 44.89581054027616], [-1.048318577220585, 44.89602873276418], [-1.04859532094258, 44.896267353918134], [-1.048837828414888, 44.89652410593525], [-1.049043763891957, 44.8967965163884], [-1.049211143714772, 44.89708196202781], [-1.049338355429486, 44.897377694036386], [-1.049424173335229, 44.89768086449527], [-1.049467770310663, 44.897988553805476], [-1.049468725804505, 44.89829779880139], [-1.049427029912137, 44.89860562128574], [-1.049343083497987, 44.89890905671127], [-1.0492176943615, 44.89920518273276], [-1.049052069482584, 44.89949114735449], [-1.048847803420264, 44.89976419640196], [-1.048618315238188, 44.90000946058084], [-1.048847957427335, 44.90004155512887], [-1.049264605360693, 44.900130675928985], [-1.049666957994912, 44.90024839151908], [-1.050051140953264, 44.9003935684125], [-1.050413454736841, 44.900564808687015], [-1.050750410337645, 44.90076046343946], [-1.051058762829204, 44.90097864865655], [-1.051335542611588, 44.90121726334944], [-1.051578084010169, 44.901474009777516], [-1.051784050952663, 44.901746415567544], [-1.051951459476998, 44.902031857514665], [-1.052078696852867, 44.902327586837345], [-1.05216453713219, 44.902630755642626], [-1.052208152978062, 44.90293844434743], [-1.052209123657361, 44.90324768979201], [-1.052167439119096, 44.903555513774805], [-1.052083500118221, 44.90385895173412], [-1.051958114382653, 44.90415508130037], [-1.051792488859416, 44.90444105044369], [-1.051588218113618, 44.90471410494607], [-1.051347268991094, 44.90497161493276], [-1.051071961691727, 44.9052111002075], [-1.050764947435107, 44.90543025414724], [-1.050429182933221, 44.90562696592564], [-1.050067901915839, 44.905799340851324], [-1.049684583982763, 44.905945718624366], [-1.049282921083165, 44.906064689334926], [-1.048866781945182, 44.9061551070496], [-1.048440174798939, 44.90621610085424], [-1.048007208752696, 44.90624708324693], [-1.047572054194978, 44.90624775579963], [-1.047138902604977, 44.90621811203422], [-1.046711926159301, 44.9061584374848], [-1.046295237525103, 44.90606930694615], [-1.045892850227856, 44.9059515789343], [-1.045508639976366, 44.90580638741329], [-1.045146307318403, 44.905635130867445], [-1.044809341987296, 44.905439458825235], [-1.044500989283449, 44.9052212559644], [-1.044224218814949, 44.90498262395183], [-1.043981695898495, 44.90472586119368], [-1.043775755896116, 44.90445344069078], [-1.043608381734587, 44.90416798621339], [-1.043481184823675, 44.903872247024545], [-1.043395389556413, 44.903569071396404], [-1.043351821539917, 44.90326137917422], [-1.043350899669255, 44.902952133652896], [-1.043392632119727, 44.90264431303696], [-1.043476616295142, 44.90234088175871], [-1.04360204273155, 44.90204476193101], [-1.043767702917815, 44.90175880520943], [-1.043972000956751, 44.901485765334655], [-1.044201515481371, 44.90124051064189], [-1.043971871043802, 44.90120840647789], [-1.043555223515205, 44.901119265799444], [-1.043152877458274, 44.90100152804423], [-1.042768708184528, 44.90085632727008], [-1.042406415846989, 44.90068506205047], [-1.042069489790586, 44.90048938199743], [-1.041761174937412, 44.90027117186579], [-1.041484440530982, 44.90003253339249], [-1.041241951540676, 44.899775765045916], [-1.041036043001794, 44.899503339880695], [-1.04086869753813, 44.899217881711955], [-1.040741526283128, 44.898922139838305], [-1.040655753382815, 44.89861896255774], [-1.040612204228997, 44.89831126973139], [-1.040611297535196, 44.89800202465995], [-1.040653041330675, 44.89769420554364], [-1.040737032910113, 44.89739077680024], [-1.040862462738391, 44.897094660518256]]]}}]}