{"type": "FeatureCollection", "name": "zone_active", "crs": {"type": "name", "properties": {"name": "urn:ogc:def:crs:OGC:1.3:CRS84"}}, "features": [{"type": "Feature", "properties": {"nb_detections_cluster": 4, "frp_max": 12.52, "frp_moyen": 7.5, "derniere_detection": "2026-07-26T13:16:00", "fetch_timestamp": "2026-07-27T12:57:00"}, "geometry": {"type": "Polygon", "coordinates": [[[-1.018604058810488, 44.746850384286624], [-1.018603275497684, 44.746541154583014], [-1.018645027319665, 44.7462333592157], [-1.018728911497592, 44.74592996237365], [-1.018854119534322, 44.74563388583799], [-1.019019445025523, 44.745347980847264], [-1.019223295300385, 44.745075000643865], [-1.019463706778965, 44.74481757396574], [-1.01973836389754, 44.744578179738184], [-1.0200446214191, 44.74435912320957], [-1.020379529913771, 44.74416251376003], [-1.020739864163516, 44.74399024459676], [-1.021122154217612, 44.74384397453096], [-1.021522718799986, 44.74372511201163], [-1.021937700747066, 44.74363480156955], [-1.02236310413547, 44.74357391280175], [-1.022794832742653, 44.7435430320023], [-1.023228729470999, 44.743542456519684], [-1.02366061635664, 44.74357219189522], [-1.024086334778667, 44.743631951809526], [-1.024501785482581, 44.743721160838355], [-1.024902968033501, 44.74383895999028], [-1.025286019320162, 44.74398421497395], [-1.025647250739729, 44.744155527115176], [-1.025983183706048, 44.74435124681862], [-1.026290583139965, 44.74456948944551], [-1.026566488619566, 44.74480815345402], [-1.026808242890545, 44.74506494062853], [-1.027013517462162, 44.74533737820326], [-1.02718033504204, 44.745622842667125], [-1.027307088593425, 44.74591858502158], [-1.027392556830719, 44.74622175724797], [-1.027435916003418, 44.74652943973015], [-1.027436747854032, 44.74683866936809], [-1.027395043672472, 44.74714646811232], [-1.027311204406775, 44.74744987164405], [-1.027186036828137, 44.74774595792512], [-1.027020745786105, 44.748031875342456], [-1.026816922627629, 44.7483048701761], [-1.026576529890583, 44.74856231312592], [-1.026301882418465, 44.74880172464125], [-1.025995625077575, 44.7490207988094], [-1.025660707290847, 44.74921742557233], [-1.025300354633404, 44.74938971105753], [-1.024918037763365, 44.74953599582654], [-1.024517438987329, 44.749654870865335], [-1.024102416782907, 44.749745191162006], [-1.023676968620551, 44.74980608674081], [-1.023245192443444, 44.74983697104598], [-1.022811247177285, 44.74983754659423], [-1.022379312651226, 44.749807807841805], [-1.021953549316968, 44.749748041237794], [-1.021538058154963, 44.74965882246356], [-1.021136841154873, 44.74954101088505], [-1.020753762751825, 44.74939574127112], [-1.020392512590724, 44.749224412858226], [-1.02005656997795, 44.749028675866995], [-1.019749170363361, 44.748810415600566], [-1.01947327417582, 44.74857173427867], [-1.019231538312538, 44.74831493078221], [-1.019026290556865, 44.748042478504274], [-1.018859507170649, 44.74775700152094], [-1.018732793876605, 44.74746124931192], [-1.018647370413261, 44.74715807027449], [-1.018604058810488, 44.746850384286624]]]}}, {"type": "Feature", "properties": {"nb_detections_cluster": 6, "frp_max": 222.37, "frp_moyen": 58.02, "derniere_detection": "2026-07-27T12:38:00", "fetch_timestamp": "2026-07-27T12:57:00"}, "geometry": {"type": "Polygon", "coordinates": [[[-0.9848, 44.7621], [-0.98562, 44.7657], [-0.97818, 44.75917], [-0.98124, 44.75686], [-0.9848, 44.7621]]]}}, {"type": "Feature", "properties": {"nb_detections_cluster": 7, "frp_max": 5.42, "frp_moyen": 4.14, "derniere_detection": "2026-07-26T13:16:00", "fetch_timestamp": "2026-07-27T12:57:00"}, "geometry": {"type": "Polygon", "coordinates": [[[-1.051613006433775, 44.76146170066496], [-1.051612041477489, 44.76115246963198], [-1.051653623543069, 44.76084466027056], [-1.051737351486059, 44.760541236904636], [-1.051862418313383, 44.76024512157101], [-1.052027618980009, 44.759959165882], [-1.052231362016587, 44.75968612356844], [-1.05247168487525, 44.75942862396652], [-1.052746272845051, 44.75918914670394], [-1.053052481354279, 44.75896999782874], [-1.053387361444486, 44.758773287610424], [-1.053747688170684, 44.75860091022659], [-1.054129991654205, 44.75845452553055], [-1.054530590489351, 44.75833554307518], [-1.054945627182522, 44.75824510854612], [-1.055371105283073, 44.75818409273527], [-1.055802927849049, 44.75815308315999], [-1.056236936878202, 44.758152378408745], [-1.056668953325503, 44.75818198526753], [-1.057094817322763, 44.7582416186545], [-1.057510428214071, 44.75833070436369], [-1.057911784022479, 44.75844838459115], [-1.058295019968828, 44.75859352619071], [-1.058656445672593, 44.75876473157999], [-1.058992580677241, 44.75896035219167], [-1.059300187958521, 44.75917850434124], [-1.059576305093421, 44.75941708735824], [-1.059818272789784, 44.7596738038071], [-1.06002376050187, 44.759946181603205], [-1.060190788884932, 44.760231597811334], [-1.060317748872221, 44.760527303897796], [-1.060403417190078, 44.760830452193424], [-1.060446968161002, 44.761138123312705], [-1.060447981680147, 44.76144735426529], [-1.06040644728749, 44.76175516698924], [-1.060322764295445, 44.762058597031334], [-1.060197737969647, 44.7623547220983], [-1.060032571798676, 44.7626406902037], [-1.059828855926238, 44.7629137471396], [-1.059588551856294, 44.76317126300787], [-1.059313973577749, 44.76341075755569], [-1.05900776528989, 44.76362992407075], [-1.058672875942653, 44.76382665160568], [-1.058312530836771, 44.763999045317405], [-1.057930200557232, 44.76414544472511], [-1.057529567539491, 44.76426443971064], [-1.057114490590765, 44.76435488410672], [-1.056688967708696, 44.764415906742336], [-1.056257097556171, 44.764446919837866], [-1.05582303996416, 44.764447624669515], [-1.055390975843936, 44.764418014448225], [-1.054965066895732, 44.76435837438506], [-1.054549415502897, 44.76426927894254], [-1.054148025198833, 44.76415158629868], [-1.053764762088345, 44.76400643007676], [-1.053403317595861, 44.76383520842116], [-1.053067172899957, 44.76363957052423], [-1.052759565397309, 44.76342140073479], [-1.052483457519439, 44.76318280040119], [-1.052241508202759, 44.76292606762445], [-1.052036047286692, 44.762653675116646], [-1.051869053086226, 44.762368246378394], [-1.051742133354492, 44.76207253042489], [-1.051656509818151, 44.76176937530448], [-1.051613006433775, 44.76146170066496]]]}}, {"type": "Feature", "properties": {"nb_detections_cluster": 2, "frp_max": 44.61, "frp_moyen": 23.48, "derniere_detection": "2026-07-26T13:16:00", "fetch_timestamp": "2026-07-27T12:57:00"}, "geometry": {"type": "Polygon", "coordinates": [[[-1.036306575767591, 44.76595523914491], [-1.036173260468684, 44.766071445073045], [-1.035866947551957, 44.766290547850126], [-1.035531961450977, 44.766487205638946], [-1.03517152839868, 44.76665952426814], [-1.034789119827436, 44.766805843980045], [-1.034388418927063, 44.76692475542409], [-1.033973285158866, 44.7670151132377], [-1.033547717067976, 44.76707604708376], [-1.033115813752882, 44.76710697003789], [-1.032681735364075, 44.767107584244584], [-1.03224966301318, 44.76707788378767], [-1.031823758479683, 44.767018154747376], [-1.031408124104326, 44.7669289724433], [-1.031006763256445, 44.766811195890064], [-1.030623541756931, 44.76666595951917], [-1.030262150629168, 44.76649466224691], [-1.029926070537451, 44.76629895399399], [-1.029618538255892, 44.76608071978679], [-1.029342515491185, 44.76584206159406], [-1.02910066035964, 44.765585278073985], [-1.02889530179322, 44.765312842427306], [-1.028728417120853, 44.765027378569954], [-1.028601613040516, 44.76473163585527], [-1.0285161101648, 44.76442846258923], [-1.028472731288032, 44.764120778594204], [-1.02847189348711, 44.763811547085794], [-1.028513604131171, 44.763503746133445], [-1.028597460837487, 44.76320033998003], [-1.02872265537302, 44.762904250496376], [-1.028887981463005, 44.76261832904576], [-1.02909184643044, 44.762345329029166], [-1.0293322865535, 44.762087879375336], [-1.02960698599227, 44.76184845923089], [-1.029913299101919, 44.7616293740938], [-1.030248275917053, 44.76143273361969], [-1.030608690561581, 44.76126043131452], [-1.030991072310539, 44.761114126308655], [-1.031391739004869, 44.76099522738752], [-1.031806832497787, 44.760904879432424], [-1.03223235579192, 44.76084395240162], [-1.032664211510292, 44.76081303295761], [-1.033098241331527, 44.76081241882099], [-1.033530266010424, 44.76084211590523], [-1.033956125599507, 44.76090183825972], [-1.034371719485222, 44.760991010821826], [-1.034773045854226, 44.76110877495125], [-1.035156240210634, 44.76125399669398], [-1.035263501310701, 44.761304835866845], [-1.035396807193242, 44.76118863122626], [-1.035703094162077, 44.76096953013864], [-1.036038046810113, 44.76077287221138], [-1.036398439493899, 44.76060055111855], [-1.036780801699863, 44.760454226171426], [-1.037181451457063, 44.760335306347436], [-1.037596530781744, 44.76024493672922], [-1.038022042812909, 44.760183987483586], [-1.038453890281997, 44.76015304548695], [-1.03888791494704, 44.76015240867707], [-1.039319937612478, 44.76018208318574], [-1.039745798350227, 44.76024178327972], [-1.040161396535698, 44.760330934110726], [-1.040562730314179, 44.76044867724772], [-1.040945935118488, 44.760593878938806], [-1.041307320867792, 44.76076514102289], [-1.041643407490072, 44.76096081438676], [-1.041950958426739, 44.761179014837865], [-1.042227011797101, 44.761417641240556], [-1.04246890892278, 44.761674395741444], [-1.042674319937362, 44.7619468058894], [-1.042841266234459, 44.76223224843758], [-1.042968139537601, 44.76252797459855], [-1.043053717407733, 44.7628311365097], [-1.043097175038247, 44.76313881465433], [-1.043098093223106, 44.76344804597427], [-1.04305646242036, 44.76375585240397], [-1.042972682870914, 44.76405926955072], [-1.042847560770372, 44.764355375245295], [-1.042682300529808, 44.7646413176878], [-1.042478493199049, 44.76491434291728], [-1.042238101163076, 44.765171821340935], [-1.041963439258222, 44.765411273066555], [-1.041657152489428, 44.76563039179415], [-1.041322190562753, 44.765827067036575], [-1.040961779478223, 44.76599940445439], [-1.040579390456539, 44.76614574410899], [-1.040178706499156, 44.76626467645768], [-1.039763586904122, 44.766355055936536], [-1.039338030080003, 44.766416011999816], [-1.038906135016728, 44.766446957509096], [-1.038472061785281, 44.76644759439163], [-1.038039991447602, 44.76641791651285], [-1.037614085763794, 44.76635820973547], [-1.037198447085698, 44.76626904916466], [-1.036797078824134, 44.766151293605695], [-1.036413846871449, 44.7660060772879], [-1.036306575767591, 44.76595523914491]]]}}, {"type": "Feature", "properties": {"nb_detections_cluster": 6, "frp_max": 12.77, "frp_moyen": 8.47, "derniere_detection": "2026-07-26T13:16:00", "fetch_timestamp": "2026-07-27T12:57:00"}, "geometry": {"type": "Polygon", "coordinates": [[[-0.977001832019965, 44.77370872778385], [-0.977001277057752, 44.77339949492174], [-0.977043276472325, 44.7730917123789], [-0.977127425099885, 44.77278834422054], [-0.977252911896153, 44.77249231195126], [-0.977418527772043, 44.77220646638309], [-0.977622677260227, 44.771933560185964], [-0.977863393899414, 44.77167622138491], [-0.978138359187439, 44.771436928058854], [-0.978444924920041, 44.771217984484345], [-0.978780138699839, 44.771021498953694], [-0.979140772369587, 44.770849363480735], [-0.97952335309592, 44.770703235589245], [-0.979924196804411, 44.77058452235915], [-0.980339443644348, 44.77049436688367], [-0.980765095142247, 44.770433637267644], [-0.981197052687035, 44.770402918272666], [-0.981631156977103, 44.77040250568922], [-0.982063228050318, 44.77043240349006], [-0.982489105512459, 44.77049232379188], [-0.982904688577722, 44.77058168962598], [-0.983305975536662, 44.7706996404911], [-0.983689102272464, 44.77084504063501], [-0.984050379455435, 44.77101648998567], [-0.984386328058273, 44.771212337626494], [-0.98469371285065, 44.771430697686625], [-0.984969573550917, 44.771669467493304], [-0.985211253335173, 44.77192634781205], [-0.985416424429085, 44.77219886497985], [-0.985583110535846, 44.77248439471905], [-0.985709705883861, 44.77278018740222], [-0.985794990710157, 44.77308339452582], [-0.985838143029672, 44.7733910961374], [-0.985838746576231, 44.77370032895243], [-0.985796794837763, 44.77400811489056], [-0.985712691145902, 44.7743114897561], [-0.98558724481807, 44.77460753178667], [-0.985421663388177, 44.77489338979514], [-0.985217540999812, 44.775166310633516], [-0.984976843072831, 44.77542366571408], [-0.984701887390303, 44.77566297633233], [-0.984395321787352, 44.77588193754714], [-0.984060098656379, 44.77607844038833], [-0.983699446513989, 44.77625059217684], [-0.983316838903442, 44.77639673476189], [-0.982915960932309, 44.77651546049886], [-0.982500673767996, 44.7766056258139], [-0.98207497743363, 44.77666636222408], [-0.981642972263325, 44.7766970847067], [-0.98120881938891, 44.776697497337196], [-0.98077670063959, 44.77666759614108], [-0.980350778241752, 44.7766076691321], [-0.97993515470805, 44.77651829353668], [-0.979533833303113, 44.77640033023128], [-0.979150679467493, 44.77625491544613], [-0.978789383572315, 44.77608344981596], [-0.978453425363981, 44.775887584882945], [-0.978146040441954, 44.7756692071825], [-0.977870189092862, 44.77543042006527], [-0.977628527781248, 44.775173523430986], [-0.97742338357155, 44.774900991569616], [-0.977256731727432, 44.774615449323555], [-0.977130176703792, 44.774319646800805], [-0.977044936713964, 44.774016432883045], [-0.977001832019965, 44.77370872778385]]]}}, {"type": "Feature", "properties": {"nb_detections_cluster": 4, "frp_max": 6.07, "frp_moyen": 4.3, "derniere_detection": "2026-07-27T12:57:00", "fetch_timestamp": "2026-07-27T12:57:00"}, "geometry": {"type": "Polygon", "coordinates": [[[-1.209382651086416, 44.77187798861119], [-1.20938081858247, 44.7715687584476], [-1.209421544891613, 44.771260889391186], [-1.209504437110011, 44.7709573463418], [-1.20962869629178, 44.77066105248976], [-1.2097931251682, 44.77037486116747], [-1.209996139700535, 44.77010152837575], [-1.210235784354354, 44.76984368624883], [-1.210509750947518, 44.769603817713474], [-1.210815400889723, 44.76938423258616], [-1.211149790599031, 44.76918704533768], [-1.211509699850396, 44.76901415473953], [-1.211891662783166, 44.76886722558718], [-1.212292001269144, 44.768747672676284], [-1.21270686032023, 44.768656647185665], [-1.213132245195214, 44.7685950255976], [-1.213564059849107, 44.76856340126249], [-1.21399814635555, 44.768562078688284], [-1.214430324923604, 44.768591070609915], [-1.21485643412455, 44.76865009786674], [-1.215272370942325, 44.76873859208925], [-1.215674130262883, 44.768855701168924], [-1.21605784342317, 44.7690002974594], [-1.216419815449289, 44.76917098862931], [-1.216756560625996, 44.769366131063215], [-1.217064836055542, 44.76958384568145], [-1.217341672883076, 44.76982203602725], [-1.217584404888106, 44.77007840844688], [-1.217790694166669, 44.7703504941693], [-1.217958553656689, 44.77063567307267], [-1.21808636628921, 44.770931198909395], [-1.21817290058049, 44.77123422574707], [-1.218217322514075, 44.771541835370805], [-1.218219203597583, 44.77185106538347], [-1.218178525015634, 44.77215893773324], [-1.218095677837936, 44.772462487393604], [-1.217971459279481, 44.772758790920285], [-1.217807065047859, 44.773044994609], [-1.217604077850425, 44.77331834198374], [-1.217364452171145, 44.77357620034988], [-1.217090495462977, 44.77381608615652], [-1.216784845936353, 44.77403568892352], [-1.216450447157237, 44.77423289350218], [-1.216090519699226, 44.77440580045504], [-1.215708530122639, 44.7745527443581], [-1.21530815757958, 44.774672309848825], [-1.214893258366949, 44.77476334526501], [-1.214467828769338, 44.77482497374291], [-1.2140359665504, 44.77485660166736], [-1.213601831464395, 44.77485792439247], [-1.213169605169145, 44.77482892917749], [-1.2127434509275, 44.77476989530965], [-1.212327473486411, 44.77468139141255], [-1.211925679521056, 44.77456426996642], [-1.211541939025868, 44.77441965909293], [-1.21117994802521, 44.7742489516838], [-1.210843192963505, 44.77405379197859], [-1.21053491711838, 44.77383605972067], [-1.210258089360654, 44.773597852044695], [-1.210015375562273, 44.773341463270384], [-1.209809112927526, 44.77306936279725], [-1.209641287494584, 44.77278417131402], [-1.209513515023608, 44.77248863555175], [-1.209427025454957, 44.77218560182425], [-1.209382651086416, 44.77187798861119]]]}}, {"type": "Feature", "properties": {"nb_detections_cluster": 3, "frp_max": 5.95, "frp_moyen": 5.95, "derniere_detection": "2026-07-26T13:16:00", "fetch_timestamp": "2026-07-27T12:57:00"}, "geometry": {"type": "Polygon", "coordinates": [[[-1.19518, 44.82023], [-1.18944, 44.82088], [-1.18862, 44.81731], [-1.19518, 44.82023]]]}}, {"type": "Feature", "properties": {"nb_detections_cluster": 1, "frp_max": 8.56, "frp_moyen": 8.56, "derniere_detection": "2026-07-26T13:16:00", "fetch_timestamp": "2026-07-27T12:57:00"}, "geometry": {"type": "Polygon", "coordinates": [[[-0.982266306859686, 44.84414894147016], [-0.982265722221765, 44.84383970132229], [-0.982307745456358, 44.84353190950505], [-0.982391971168524, 44.843228530173015], [-0.982517587569959, 44.842932484938416], [-0.982683384321896, 44.84264662473813], [-0.982887764213757, 44.842373702383014], [-0.983128758564286, 44.84211634605375], [-0.98340404619604, 44.84187703399801], [-0.983710975799975, 44.84165807067269], [-0.984046591474334, 44.84146156456033], [-0.98440766119165, 44.84128940787292], [-0.984790707919762, 44.84114325833849], [-0.985192043097287, 44.841024523245366], [-0.985607802141568, 44.840934345897324], [-0.986033981647719, 44.84087359460975], [-0.986466477921239, 44.84084285435289], [-0.986901126473975, 44.84084242112203], [-0.987333742103995, 44.840872299088645], [-0.987760159174443, 44.84093220056048], [-0.988176271704451, 44.84102154875013], [-0.988578072887051, 44.84113948332625], [-0.988961693654484, 44.841284868693485], [-0.98932343992032, 44.841456304922104], [-0.989659828140496, 44.84165214122193], [-0.989967618851364, 44.84187049183129], [-0.990243847862161, 44.842109254168506], [-0.990485854801706, 44.84236612907104], [-0.990691308744402, 44.842638642928144], [-0.99085823066856, 44.842924171494], [-0.990985012530365, 44.843219965152585], [-0.991070432769208, 44.843523175391006], [-0.991113668094346, 44.843830882226804], [-0.991114301438513, 44.844140122325214], [-0.991072326000914, 44.8444479175358], [-0.990988145339681, 44.84475130357357], [-0.990862569511832, 44.84504735856856], [-0.990696807296917, 44.84533323120883], [-0.990492454578273, 44.84560616820544], [-0.990251478992908, 44.8458635408151], [-0.989976200997128, 44.846102870164444], [-0.989669271529671, 44.846321851131975], [-0.989333646487051, 44.84651837455723], [-0.988972558256752, 44.84669054756285], [-0.988589484582376, 44.84683671179372], [-0.988188115060839, 44.84695545939674], [-0.987772315594618, 44.8470456465874], [-0.987346091141992, 44.847106404672054], [-0.986913547124727, 44.847137148419186], [-0.986478849865746, 44.84713758169949], [-0.986046186438729, 44.847107700339535], [-0.985619724317349, 44.847047792161995], [-0.985203571213755, 44.846958434211935], [-0.984801735494133, 44.846840487195834], [-0.984418087553481, 44.84669508718708], [-0.984056322522483, 44.84652363467808], [-0.983719924666334, 44.84632778108469], [-0.983412133818988, 44.84610941283308], [-0.983135914176452, 44.84587063318297], [-0.982893925749892, 44.84561374196222], [-0.982688498753458, 44.84534121340869], [-0.982521611173312, 44.845055672332926], [-0.982394869733448, 44.84475986883174], [-0.982309494441081, 44.84445665179626], [-0.982266306859686, 44.84414894147016]]]}}, {"type": "Feature", "properties": {"nb_detections_cluster": 1, "frp_max": 3.56, "frp_moyen": 3.56, "derniere_detection": "2026-07-26T13:16:00", "fetch_timestamp": "2026-07-27T12:57:00"}, "geometry": {"type": "Polygon", "coordinates": [[[-1.112496978753405, 44.84037413154857], [-1.112495677311598, 44.840064892887696], [-1.112536984186609, 44.839757052560266], [-1.112620500882079, 44.839453575188884], [-1.112745422437137, 44.83915738333072], [-1.112910545203565, 44.83887132933543], [-1.113114278460076, 44.838598167880825], [-1.113354659750998, 44.838340529450655], [-1.113629373800893, 44.83810089500977], [-1.113935774822375, 44.837881572119976], [-1.11427091200191, 44.83768467272659], [-1.114631557917913, 44.837512092828945], [-1.115014239617484, 44.83736549423055], [-1.115415272052683, 44.83724628854398], [-1.115830793554718, 44.83715562360445], [-1.116256803004994, 44.8370943724225], [-1.116689198345761, 44.837063124781835], [-1.117123816060345, 44.83706218156325], [-1.117556471243705, 44.83709155184892], [-1.117982997878407, 44.83715095283497], [-1.118399288929206, 44.837239812553186], [-1.118801335871086, 44.83735727537573], [-1.119185267271048, 44.83750221024996], [-1.119547386052965, 44.83767322158414], [-1.119884205087339, 44.837868662679675], [-1.12019248076379, 44.838086651580866], [-1.120469244223389, 44.83832508918942], [-1.120711829950203, 44.83858167947027], [-1.12091790144678, 44.83885395155405], [-1.121085473746026, 44.83913928352382], [-1.121212932542369, 44.83943492765745], [-1.121299049757324, 44.839738036882764], [-1.121342995388871, 44.84004569219092], [-1.121344345529654, 44.840354930744155], [-1.121303086475844, 44.840662774407775], [-1.121219614886055, 44.84096625843099], [-1.121094733987775, 44.84126246000097], [-1.120929645866803, 44.841548526394845], [-1.120725939913019, 44.841821702458326], [-1.12048557753287, 44.84207935714626], [-1.120210873275064, 44.84231900886905], [-1.119904472550678, 44.842538349400705], [-1.119569326161831, 44.842735266117984], [-1.119208661884018, 44.84290786235578], [-1.118825953375771, 44.843054475682635], [-1.118424886715274, 44.84317369391999], [-1.118009324886577, 44.8432643687503], [-1.117583270558007, 44.84332562678295], [-1.117150827511961, 44.843356877970926], [-1.116716161098399, 44.84335782129713], [-1.11628345809384, 44.84332844767527], [-1.115856886353456, 44.84326904003742], [-1.115440554645878, 44.84318017060739], [-1.115038473058544, 44.84306269538626], [-1.114654514355853, 44.84291774590315], [-1.114292376663162, 44.84274671831119], [-1.113955547836703, 44.84255125993375], [-1.113647271863154, 44.8423332533907], [-1.113370517612868, 44.842094798458255], [-1.113127950247863, 44.84183819183727], [-1.112921905559964, 44.84156590502502], [-1.112754367486014, 44.84128056050446], [-1.112626949016333, 44.840984906480045], [-1.112540876679672, 44.84068179040403], [-1.112496978753405, 44.84037413154857]]]}}, {"type": "Feature", "properties": {"nb_detections_cluster": 2, "frp_max": 5.64, "frp_moyen": 5.15, "derniere_detection": "2026-07-26T13:16:00", "fetch_timestamp": "2026-07-27T12:57:00"}, "geometry": {"type": "Polygon", "coordinates": [[[-0.996365601740538, 44.853609503916125], [-0.996364939377428, 44.85330026289975], [-0.996406892427206, 44.852992464805624], [-0.996491056170574, 44.852689073848865], [-0.996616619415704, 44.85239301175372], [-0.996782372335417, 44.85210712961956], [-0.996986718140924, 44.851834180468515], [-0.997227688478895, 44.851576792739365], [-0.997502962402821, 44.851337444982214], [-0.99780988873538, 44.85111844199783], [-0.998145511606065, 44.850921892650646], [-0.998506598917909, 44.85074968956901], [-0.998889673469163, 44.850603490927746], [-0.999291046430412, 44.850484704488025], [-0.999706852855111, 44.850394474048045], [-1.000133088882133, 44.85033366843443], [-1.00056565027277, 44.850302873140585], [-1.001000371911934, 44.850302384691645], [-1.001433067894074, 44.85033220779085], [-1.001859571808773, 44.850392055274206], [-1.002275776839119, 44.85048135087421], [-1.002677675287654, 44.85059923476589], [-1.003061397150236, 44.85074457184196], [-1.003423247367176, 44.85091596263767], [-1.003759741393623, 44.85111175680038], [-1.004067638747253, 44.851330068974235], [-1.004343974210525, 44.8515687969477], [-1.004586086387262, 44.85182564188918], [-1.004791643338519, 44.85209813047651], [-1.004958665050653, 44.8523836387073], [-1.005085542518852, 44.852679417161426], [-1.005171053261705, 44.85298261747252], [-1.005214373116748, 44.85329031975377], [-1.005215084202461, 44.85359956071439], [-1.005173178969122, 44.853907362195734], [-1.005089060298474, 44.854210759852485], [-1.004963537650223, 44.854506831702906], [-1.004797819291434, 44.854792726272784], [-1.004593500682739, 44.85506569006203], [-1.004352549132309, 44.85532309406938], [-1.004077284864658, 44.85556245911912], [-1.003770358686024, 44.85578147974597], [-1.003434726460998, 44.855978046407515], [-1.003073620646029, 44.85615026581001], [-1.002690519153932, 44.8562964791514], [-1.002289111849441, 44.85641527810564], [-1.001873264998894, 44.856505518393604], [-1.001446984016962, 44.856566330810196], [-1.001014374869942, 44.85659712960058], [-1.000579604508176, 44.85659761810526], [-1.000146860709595, 44.85656779161884], [-0.999720311722177, 44.8565079374355], [-0.999304066094951, 44.8564186320802], [-0.998902133085492, 44.856300735752825], [-0.998518384026099, 44.85615538403856], [-0.99815651502162, 44.85598397696465], [-0.997820011338896, 44.85578816550933], [-0.997512113831343, 44.85556983569301], [-0.997235787722411, 44.8553310904052], [-0.996993694048799, 44.85507422914286], [-0.996788164038387, 44.854801725855395], [-0.996621176669492, 44.85451620511007], [-0.996494339627142, 44.854220416807976], [-0.996408873839199, 44.853917209693925], [-0.996365601740538, 44.853609503916125]]]}}, {"type": "Feature", "properties": {"nb_detections_cluster": 2, "frp_max": 4.12, "frp_moyen": 3.18, "derniere_detection": "2026-07-26T13:16:00", "fetch_timestamp": "2026-07-27T12:57:00"}, "geometry": {"type": "Polygon", "coordinates": [[[-1.138036417346154, 44.84845514980522], [-1.138034975117678, 44.848145910647204], [-1.138076147970741, 44.84783806002103], [-1.138159538699406, 44.84753456264864], [-1.138284343555573, 44.84723834127996], [-1.138449360014479, 44.84695224854901], [-1.138652998378174, 44.84667903950676], [-1.138893297104368, 44.84642134509533], [-1.13916794171227, 44.84618164681876], [-1.139474287082773, 44.845962252853674], [-1.139809382937838, 44.84576527582987], [-1.14017000225345, 44.845592612494286], [-1.14055267233254, 44.84544592545389], [-1.140953708238813, 44.84532662717294], [-1.141369248269867, 44.845235866378246], [-1.141795291128575, 44.845174517003336], [-1.142227734435455, 44.84514316977744], [-1.142662414212, 44.845142126540246], [-1.143095144955676, 44.845171397337], [-1.143521759921648, 44.84523070032179], [-1.143938151224349, 44.845319464470066], [-1.144340309373698, 44.84543683507425], [-1.144724361866173, 44.84558168196968], [-1.145086610459947, 44.845752610411814], [-1.145423566775859, 44.84594797450034], [-1.14573198588192, 44.84616589302108], [-1.146008897538345, 44.84640426755359], [-1.146251634802399, 44.84666080267027], [-1.146457859717582, 44.846933028033085], [-1.146625585839566, 44.847218322175145], [-1.146753197381563, 44.84751393773873], [-1.146839464794149, 44.84781702792697], [-1.14688355662881, 44.84812467391448], [-1.146885047570072, 44.848433912953446], [-1.146843922557918, 44.84874176690465], [-1.146760576959783, 44.84904527091837], [-1.146635812789431, 44.84934150198945], [-1.146470831008088, 44.849627607111024], [-1.146267219981064, 44.849900830755935], [-1.146026940200118, 44.850158541420896], [-1.145752305417989, 44.85039825697728], [-1.145445960376179, 44.85061766858438], [-1.145110855340099, 44.85081466293444], [-1.144750217686586, 44.85098734261467], [-1.144367520817421, 44.85113404439], [-1.143966450698429, 44.85125335522993], [-1.143550870346786, 44.851344125924975], [-1.143124782609117, 44.85140548216118], [-1.142692291589579, 44.85143683294561], [-1.142257563100248, 44.85143787630183], [-1.141824784515663, 44.85140860218005], [-1.14139812441916, 44.851349292553934], [-1.140981692430646, 44.85126051870325], [-1.140579499603734, 44.851143135708455], [-1.140195419774586, 44.85099827421035], [-1.139833152235563, 44.85082732951469], [-1.139496186093881, 44.85063194814636], [-1.139187766659126, 44.8504140119836], [-1.138910864183716, 44.850175620124844], [-1.138668145257566, 44.84991906866351], [-1.138461947132458, 44.84964682856576], [-1.138294255223192, 44.849361521864736], [-1.138166684001784, 44.84906589640079], [-1.138080461468158, 44.848762799351256], [-1.138036417346154, 44.84845514980522]]]}}, {"type": "Feature", "properties": {"nb_detections_cluster": 2, "frp_max": 6.24, "frp_moyen": 5.33, "derniere_detection": "2026-07-26T13:16:00", "fetch_timestamp": "2026-07-27T12:57:00"}, "geometry": {"type": "Polygon", "coordinates": [[[-1.171815090415837, 44.866566496943506], [-1.171813461704474, 44.86625725645263], [-1.171854462652485, 44.86594939153263], [-1.171937697708917, 44.86564586704329], [-1.172062364624232, 44.865349605995945], [-1.172227262201406, 44.86506346140685], [-1.172430801886643, 44.86479018882658], [-1.172671023087225, 44.86453241980929], [-1.17294561206825, 44.86429263657759], [-1.173251924245649, 44.864073148126266], [-1.173587009660445, 44.8638760679951], [-1.173947641388664, 44.86370329392398], [-1.174330346613313, 44.86355648958619], [-1.174731440059373, 44.863437068575486], [-1.175147059470191, 44.86334618080052], [-1.175573202784208, 44.86328470141752], [-1.176005766654685, 44.863253222407565], [-1.176440585942345, 44.86325204687925], [-1.176873473801532, 44.863281186151674], [-1.17730026197486, 44.86334035964532], [-1.177716840909327, 44.86342899758256], [-1.178119199308562, 44.863546246471095], [-1.17850346274127, 44.86369097731829], [-1.178865930934907, 44.863861796497105], [-1.179203113396171, 44.86405705915942], [-1.179511763015852, 44.864274885067815], [-1.179788907334797, 44.86451317669377], [-1.180031877170106, 44.86476963940813], [-1.180238332325878, 44.865041803570236], [-1.180406284140696, 44.86532704830274], [-1.180534114654334, 44.86562262672393], [-1.180620592208518, 44.86592569239477], [-1.18066488333077, 44.86623332672622], [-1.180666560786044, 44.86654256708296], [-1.180625607717646, 44.86685043531325], [-1.180542417836544, 44.867153966430116], [-1.18041779165621, 44.867450237167525], [-1.180252928808247, 44.86773639413683], [-1.180049416511828, 44.8680096813117], [-1.179809214307132, 44.8682674665771], [-1.179534635199064, 44.86850726708605], [-1.179228323392276, 44.86872677317977], [-1.178893228831505, 44.86892387064051], [-1.178532578792199, 44.86909666106244], [-1.178149846795034, 44.86924348014388], [-1.177748719143886, 44.86936291372447], [-1.177333059409887, 44.86945381141256], [-1.176906871204194, 44.86951529767096], [-1.176474259598707, 44.86954678025434], [-1.176039391567136, 44.86954795591678], [-1.175606455828335, 44.86951881333407], [-1.175179622479679, 44.86945963321289], [-1.17476300281023, 44.8693709855856], [-1.174360609681784, 44.86925372431685], [-1.173976318860257, 44.869108978875055], [-1.173613831670733, 44.86893814344811], [-1.173276639336513, 44.86874286350855], [-1.17296798934622, 44.86852501995775], [-1.172690854173251, 44.86828671100224], [-1.17244790264903, 44.86803023193709], [-1.172241474265774, 44.867758053031324], [-1.172073556656045, 44.867472795728915], [-1.171945766465588, 44.867177207394604], [-1.17185933380308, 44.866874134848366], [-1.171815090415837, 44.866566496943506]]]}}, {"type": "Feature", "properties": {"nb_detections_cluster": 2, "frp_max": 6.03, "frp_moyen": 5.11, "derniere_detection": "2026-07-27T12:57:00", "fetch_timestamp": "2026-07-27T12:57:00"}, "geometry": {"type": "Polygon", "coordinates": [[[-1.176030126633866, 44.87635815574638], [-1.175808596286095, 44.876516870966476], [-1.175473443225598, 44.87671395859336], [-1.175112732620969, 44.87688673833415], [-1.174729938576293, 44.87703354599008], [-1.17432874799315, 44.87715296751083], [-1.173913025048923, 44.877243852620865], [-1.173486773963715, 44.87730532590416], [-1.173054100415194, 44.87733679524039], [-1.172619171973815, 44.877337957511216], [-1.172186177940409, 44.87730880152141], [-1.17175928897394, 44.87724960810679], [-1.171342616899257, 44.877160947427775], [-1.170940175082975, 44.87704367347472], [-1.170555839760001, 44.87689891583821], [-1.170193312684047, 44.87672806882363], [-1.169856085462564, 44.87653277801508], [-1.169547405920137, 44.87631492441865], [-1.169270246814708, 44.876076606337584], [-1.169027277208088, 44.87582011915486], [-1.168820836766505, 44.87554793321767], [-1.168652913238494, 44.87526267003768], [-1.168525123326614, 44.874967077036224], [-1.168438697136668, 44.87466400107825], [-1.168394466353431, 44.87435636104985], [-1.168392856255931, 44.87404711974406], [-1.168433881648208, 44.87373925532563], [-1.168517146743716, 44.87343573264948], [-1.168641849003466, 44.87313947470943], [-1.168806786889919, 44.87285333449185], [-1.169010371460982, 44.872580067505154], [-1.169250641691607, 44.87232230524962], [-1.169525283374678, 44.872082529882725], [-1.169831651418602, 44.87186305032354], [-1.170166795326436, 44.871665980026144], [-1.170527487610982, 44.87149321663575], [-1.170910254872185, 44.87134642372282], [-1.171311411237738, 44.87122701477106], [-1.17172709384522, 44.87113613957301], [-1.17215330002465, 44.871074673163776], [-1.172585925824059, 44.87104320739952], [-1.173020805507968, 44.871042045261305], [-1.173453751649266, 44.87107119793927], [-1.173880595429457, 44.87113038472485], [-1.174297226760174, 44.87121903571243], [-1.174409979951238, 44.871251892229886], [-1.174631493480215, 44.87109318006429], [-1.174966615946184, 44.870896095329066], [-1.175327288516365, 44.87072331639054], [-1.175710037980478, 44.87057650696895], [-1.176111178637529, 44.87045708070696], [-1.176526847776306, 44.87036618756382], [-1.176953042856471, 44.87030470274738], [-1.177385660032903, 44.87027321829107], [-1.177820533653123, 44.870272037355946], [-1.1782534763484, 44.87030117131314], [-1.178680319333424, 44.87036033963434], [-1.179096952527498, 44.87044897259171], [-1.179499364111862, 44.87056621674091], [-1.17988367914316, 44.87071094313494], [-1.180246196852046, 44.870881758189654], [-1.180583426268448, 44.871077017096646], [-1.180892119831015, 44.87129483965463], [-1.18116930465742, 44.87153312836736], [-1.181412311174651, 44.87178958863382], [-1.181618798833496, 44.87206175083685], [-1.181786778659436, 44.872346994117976], [-1.181914632422382, 44.87264257160952], [-1.182001128240022, 44.87294563688138], [-1.18204543246384, 44.87325327134837], [-1.182047117732448, 44.87356251237386], [-1.182006167113729, 44.873870381799726], [-1.181922974294882, 44.87417391462742], [-1.1817983398175, 44.87447018757449], [-1.181633463392932, 44.874756347231006], [-1.181429932370958, 44.875029637544735], [-1.181189706471974, 44.87528742637047], [-1.180915098928982, 44.87552723082689], [-1.180608754220424, 44.87574674121723], [-1.180273622607866, 44.87594384328233], [-1.179912931723598, 44.87611663857204], [-1.179530155481699, 44.876263462737775], [-1.179128980612219, 44.87638290157023], [-1.178713271141136, 44.876473804627146], [-1.178287031158733, 44.87653529631962], [-1.177854366235701, 44.87656678434997], [-1.177419443859393, 44.876567965419866], [-1.176986453272208, 44.876538828152945], [-1.176559565099918, 44.87647965320472], [-1.176142891159739, 44.876391010557676], [-1.176030126633866, 44.87635815574638]]]}}, {"type": "Feature", "properties": {"nb_detections_cluster": 3, "frp_max": 13.53, "frp_moyen": 9.36, "derniere_detection": "2026-07-26T13:16:00", "fetch_timestamp": "2026-07-27T12:57:00"}, "geometry": {"type": "Polygon", "coordinates": [[[-0.997783000831858, 44.88665956213499], [-0.997782330270381, 44.88635031788039], [-0.997824300248649, 44.88604251601813], [-0.997908505883511, 44.8857391207996], [-0.998034135578934, 44.88544305399014], [-0.998199978867082, 44.88515716673448], [-0.998404438088264, 44.88488421210412], [-0.998645543796411, 44.884626818590526], [-0.998920973740988, 44.884387464799566], [-0.999228075241918, 44.88416845559009], [-0.999563890741699, 44.88397189988647], [-0.999925186288374, 44.88379969037825], [-1.000308482675071, 44.88365348530211], [-1.000710088936412, 44.88353469248123], [-1.001126137879612, 44.88344445577518], [-1.001552623308626, 44.883383644070975], [-1.001985438583624, 44.883352842920615], [-1.002420416145277, 44.88335234890566], [-1.002853367624185, 44.88338216678293], [-1.003280124150176, 44.88344200943872], [-1.003696576474325, 44.88353130065202], [-1.004098714518302, 44.883649180640035], [-1.004482665971135, 44.88379451433318], [-1.004844733562536, 44.883965902299245], [-1.005181430654562, 44.88416169421286], [-1.005489514809445, 44.88438000473982], [-1.005766019010674, 44.88461873168447], [-1.0060082802369, 44.88487557622514], [-1.006213965113458, 44.88514806504354], [-1.006381092394282, 44.885433574135085], [-1.006508052057307, 44.88572935407138], [-1.006593620828871, 44.88603255647174], [-1.006636973986911, 44.88634026142932], [-1.006637693328374, 44.886649505627545], [-1.006595771223207, 44.88695731087657], [-1.00651161071482, 44.887260712794834], [-1.006386021665064, 44.88755678935955], [-1.006220212979785, 44.887842689051084], [-1.006015780988906, 44.88811565832007], [-1.005774694092046, 44.88837306811243], [-1.005499273816839, 44.888612439196756], [-1.005192172471769, 44.888831466049595], [-1.004856347608351, 44.889028039068585], [-1.004495033538379, 44.88920026489873], [-1.004111710180569, 44.889346484676096], [-1.003710069536778, 44.889465290012595], [-1.003293980121093, 44.889555536567656], [-1.002867449684894, 44.88961635507575], [-1.00243458659761, 44.88964715972347], [-1.00199956025597, 44.88964765379479], [-1.001566560903963, 44.88961783253077], [-1.001139759251496, 44.88955798317524], [-1.000723266281679, 44.8894686822067], [-1.000321093634833, 44.88935078978275], [-0.999937114951699, 44.88920544145101], [-0.999575028549011, 44.88903403720617], [-0.999238321787614, 44.88883822799922], [-0.998930237476871, 44.88861989982888], [-0.998653742639279, 44.88838115556887], [-0.99841149993635, 44.88812429470627], [-0.998205842030906, 44.88785179118662], [-0.998038749132532, 44.887566269579466], [-0.997911829941992, 44.887270479794196], [-0.997826306177613, 44.886967270589906], [-0.997783000831858, 44.88665956213499]]]}}, {"type": "Feature", "properties": {"nb_detections_cluster": 3, "frp_max": 7.17, "frp_moyen": 6.27, "derniere_detection": "2026-07-26T13:16:00", "fetch_timestamp": "2026-07-27T12:57:00"}, "geometry": {"type": "Polygon", "coordinates": [[[-1.163523832318265, 44.88221616737023], [-1.163522248825184, 44.88190692522814], [-1.163563306671237, 44.88159906184658], [-1.163646609757155, 44.88129554207046], [-1.163771355177933, 44.88099928886567], [-1.163936340980249, 44.880713155172884], [-1.164139977760477, 44.880439896437714], [-1.164380303990723, 44.88018214408093], [-1.164655004924573, 44.87994238016466], [-1.164961434899858, 44.87972291349769], [-1.165296642823288, 44.87952585740995], [-1.165657400591282, 44.879353109409806], [-1.166040234173298, 44.87920633291947], [-1.166441457058504, 44.87908694126458], [-1.166857205744057, 44.878996084071055], [-1.167283476923818, 44.87893463620067], [-1.167716166020049, 44.87890318933102], [-1.168151106687893, 44.878902046261324], [-1.16858411091313, 44.87893121799804], [-1.16901100931806, 44.87899042364911], [-1.1694276912884, 44.879079093127245], [-1.169830144535732, 44.87919637263645], [-1.170214493715498, 44.87934113288923], [-1.170577037729459, 44.8795119799754], [-1.170914285354142, 44.87970726877808], [-1.17122298885271, 44.879925118808146], [-1.171500175246983, 44.880163432304734], [-1.171743174948634, 44.880419914428124], [-1.171949647473851, 44.880692095350696], [-1.172117603993599, 44.88097735403365], [-1.172245426501964, 44.88127294346088], [-1.172331883417357, 44.88157601708737], [-1.172376141465649, 44.88188365624737], [-1.1723777737299, 44.88219289825901], [-1.172336763788238, 44.88250076495457], [-1.172253505898991, 44.88280429136181], [-1.172128801230285, 44.883100554260004], [-1.171963850169358, 44.88338670033594], [-1.17176024078475, 44.88365997366813], [-1.171519933551552, 44.883917742274875], [-1.171245242486133, 44.884157523469554], [-1.170938812871426, 44.884377007779385], [-1.170603595786861, 44.884574081196426], [-1.170242819688078, 44.884746845546346], [-1.16985995931006, 44.88489363677865], [-1.169458702193398, 44.885013041001166], [-1.169042913156425, 44.885103908104995], [-1.168616597055966, 44.88516536284753], [-1.168183860196035, 44.885196813287045], [-1.167748870757021, 44.885197956487175], [-1.167315818627396, 44.88516878143645], [-1.166888875025792, 44.88510956915426], [-1.166472152303381, 44.885020889982734], [-1.166069664314659, 44.88490359809038], [-1.165685287739275, 44.88475882324056], [-1.165322724728265, 44.88458795990444], [-1.164985467235151, 44.88439265382335], [-1.164676763376005, 44.88417478615042], [-1.164399586142866, 44.88393645532455], [-1.164156604772005, 44.88367995685136], [-1.16395015904279, 44.883407761186824], [-1.1637822367545, 44.88312248993626], [-1.163654454597554, 44.8828268905987], [-1.163568042602858, 44.88252381010009], [-1.163523832318265, 44.88221616737023]]]}}, {"type": "Feature", "properties": {"nb_detections_cluster": 7, "frp_max": 6.85, "frp_moyen": 5.66, "derniere_detection": "2026-07-26T13:16:00", "fetch_timestamp": "2026-07-27T12:57:00"}, "geometry": {"type": "Polygon", "coordinates": [[[-1.097219835672324, 44.93039352745946], [-1.097218616368348, 44.93008427990727], [-1.097260073379491, 44.92977643659067], [-1.097343806761346, 44.92947296216092], [-1.097469009464246, 44.9291767791468], [-1.097634475130636, 44.92889073981266], [-1.097838609735504, 44.928617598695034], [-1.098079446956938, 44.92835998608174], [-1.098354667128014, 44.92812038268891], [-1.098661619586938, 44.92790109577928], [-1.098997348209793, 44.927704236951634], [-1.09935861987976, 44.92753170181463], [-1.09974195561869, 44.92738515174071], [-1.100143664081354, 44.92726599787511], [-1.100559877090225, 44.92717538755411], [-1.10098658686913, 44.92711419326221], [-1.101419684617957, 44.927083004235385], [-1.101855000057719, 44.927082120790004], [-1.102288341566152, 44.927111551432695], [-1.102715536518297, 44.92717101277838], [-1.103132471444634, 44.927259932277735], [-1.103535131620999, 44.927377453727246], [-1.103919639710023, 44.92752244550975], [-1.104282293082785, 44.92769351148552], [-1.104619599462008, 44.927889004429886], [-1.104928310544107, 44.92810704188779], [-1.105205453276692, 44.92834552429337], [-1.105448358490538, 44.92860215518017], [-1.105654686610253, 44.928874463287734], [-1.10582245019586, 44.92915982635219], [-1.105950033097815, 44.92945549635192], [-1.106036206040411, 44.92975862596557], [-1.106080138482758, 44.930066295987814], [-1.106081406642261, 44.93037554343918], [-1.10603999760236, 44.930683390099155], [-1.105956309463956, 44.930986871187955], [-1.105831147538032, 44.931283063920944], [-1.10566571661511, 44.93156911566024], [-1.105461609385027, 44.93184227139262], [-1.105220791117701, 44.9320999002686], [-1.104945580751656, 44.9323395209471], [-1.104638628571887, 44.9325588255011], [-1.104302890691583, 44.93275570165374], [-1.103941600583321, 44.932928253130584], [-1.103558237933822, 44.933074817931285], [-1.103156495122476, 44.9331939843446], [-1.102740241646811, 44.93328460455212], [-1.10231348683811, 44.933345805689385], [-1.101880341226962, 44.93337699825733], [-1.101444976931673, 44.93337788180354], [-1.101011587451997, 44.93334844781748], [-1.1005843472564, 44.93328897981271], [-1.100167371553086, 44.93320005059452], [-1.099764676633255, 44.93308251673983], [-1.099380141169446, 44.932937510342605], [-1.099017468842576, 44.93276642810413], [-1.098680152658321, 44.93257091787411], [-1.098371441297068, 44.93235286277182], [-1.098094307821933, 44.932114363041244], [-1.097851421046381, 44.93185771581461], [-1.097645119837234, 44.931585392980274], [-1.097477390600309, 44.93130001736807], [-1.097349848165151, 44.93100433748184], [-1.097263720252349, 44.93070120102284], [-1.097219835672324, 44.93039352745946]]]}}, {"type": "Feature", "properties": {"nb_detections_cluster": 1, "frp_max": 5.22, "frp_moyen": 5.22, "derniere_detection": "2026-07-27T12:57:00", "fetch_timestamp": "2026-07-27T12:57:00"}, "geometry": {"type": "Polygon", "coordinates": [[[-1.100009367499243, 44.93642363893882], [-1.10000813268317, 44.93611439085984], [-1.100049578840551, 44.93580654594788], [-1.100133306131345, 44.935503068869544], [-1.10025850756439, 44.93520688217912], [-1.100423976794206, 44.93492083817641], [-1.10062811976132, 44.9346476914429], [-1.100868970063162, 44.9343900723205], [-1.101144207906731, 44.93415046158805], [-1.10145118245996, 44.933931166578965], [-1.101786937386098, 44.93373429897002], [-1.102148239314995, 44.93356175445444], [-1.102531608977101, 44.93341519449498], [-1.102933354700529, 44.933296030332095], [-1.10334960794898, 44.93320540940115], [-1.103776360558855, 44.933144204288865], [-1.104209503317672, 44.93311300433538], [-1.104644865513113, 44.93311210996229], [-1.105078255072781, 44.933141529781444], [-1.105505498909118, 44.933200980512], [-1.105922483081979, 44.933289889706785], [-1.106325192393082, 44.933407401261576], [-1.106709749032007, 44.933552383654465], [-1.107072449902398, 44.93372344083615], [-1.107409802269653, 44.93391892566662], [-1.107718557387377, 44.934136955768984], [-1.107995741779143, 44.934375431648235], [-1.108238685874545, 44.93463205690074], [-1.108445049723732, 44.934904360320346], [-1.108612845542586, 44.9351897196883], [-1.108740456871073, 44.93548538701864], [-1.108826654159621, 44.935788515015695], [-1.10887060663276, 44.936096184489784], [-1.108871890314847, 44.936405432466685], [-1.108830492139679, 44.936713280720824], [-1.108746810103367, 44.93701676445713], [-1.108621649457969, 44.937312960865455], [-1.10845621498152, 44.937599017272575], [-1.108252099397938, 44.937872178620246], [-1.108011268057462, 44.938129814004995], [-1.107736040024416, 44.93836944202304], [-1.107429065753855, 44.93858875467665], [-1.107093301571668, 44.938785639610984], [-1.106731981203709, 44.93895820046705], [-1.106348584628131, 44.9391047751541], [-1.10594680455109, 44.939223951865706], [-1.105530510829075, 44.93931458268429], [-1.105103713181063, 44.93937579464314], [-1.104670522550325, 44.939406998139], [-1.10423511148887, 44.93940789261415], [-1.103801673946988, 44.93937846945283], [-1.103374384856169, 44.93931901206431], [-1.102957359895662, 44.93923009315162], [-1.102554615831193, 44.93911256919244], [-1.102170031808734, 44.93896757218537], [-1.101807311976978, 44.93879649874134], [-1.101469949799199, 44.93860099662527], [-1.101161194398808, 44.938382948878385], [-1.100884019263091, 44.93814445567373], [-1.100641093606753, 44.93788781408076], [-1.100434756671038, 44.93761549593357], [-1.100266995205796, 44.937330124016874], [-1.100139424350874, 44.93703444679891], [-1.100053272100461, 44.936731311955285], [-1.100009367499243, 44.93642363893882]]]}}, {"type": "Feature", "properties": {"nb_detections_cluster": 3, "frp_max": 8.97, "frp_moyen": 8.52, "derniere_detection": "2026-07-26T13:16:00", "fetch_timestamp": "2026-07-27T12:57:00"}, "geometry": {"type": "Polygon", "coordinates": [[[-0.949662958280716, 44.75838763730647], [-0.94966255373502, 44.75807840597644], [-0.949704691268738, 44.75777063545292], [-0.949788964388374, 44.7574672896852], [-0.94991456085126, 44.757171289962095], [-0.950080270512745, 44.756885486782046], [-0.950284497002906, 44.756612632406664], [-0.950525273119496, 44.75635535436179], [-0.950800279788143, 44.75611613014117], [-0.951106868406617, 44.755897263355806], [-0.951442086357622, 44.75570086155852], [-0.951802705444138, 44.75552881595674], [-0.952185252973551, 44.75538278320885], [-0.952586045191329, 44.75526416947855], [-0.953001222742717, 44.755174116901], [-0.953426787821476, 44.755113492590205], [-0.953858642648626, 44.755082880293784], [-0.95429262891151, 44.755082574774804], [-0.954724567784281, 44.755112578975094], [-0.955150300145414, 44.75517260398687], [-0.95556572660597, 44.7552620718332], [-0.955966846964107, 44.75538012103047], [-0.956349798706856, 44.75552561487964], [-0.956710894189188, 44.75569715240628], [-0.957046656133086, 44.755893081844704], [-0.957353851105296, 44.75611151653632], [-0.957629520651759, 44.756350353089665], [-0.957871009789087, 44.75660729162734], [-0.958075992578677, 44.75687985792564], [-0.958242494537003, 44.75716542723361], [-0.958368911665848, 44.757461249542644], [-0.958454025918632, 44.75776447606377], [-0.958497016953173, 44.75807218665749], [-0.958497470056836, 44.75838141795266], [-0.958455380166778, 44.75868919188338], [-0.958371151945576, 44.7589925443694], [-0.958245595910474, 44.75928855386374], [-0.958079920652509, 44.759574369492455], [-0.957875721219493, 44.759847238515555], [-0.957634963773885, 44.76010453284425], [-0.95735996667254, 44.760343774359065], [-0.957053378150021, 44.76056265878435], [-0.956718150819938, 44.76075907788943], [-0.956357513239743, 44.76093113980171], [-0.955974938812754, 44.76107718723603], [-0.95557411232716, 44.7611958134643], [-0.955158894454605, 44.76128587587106], [-0.954733284550855, 44.76134650696457], [-0.954301382117484, 44.76137712273657], [-0.953867347296632, 44.761377428290416], [-0.9534353607802, 44.76134742068292], [-0.953009583520634, 44.76128738895283], [-0.952594116632294, 44.76119791133527], [-0.952192961870637, 44.76107984968933], [-0.951809983070743, 44.76093434119246], [-0.95144886891743, 44.760762787382006], [-0.951113097406231, 44.760566840649396], [-0.950805902338065, 44.760348388317816], [-0.950530242170679, 44.76010953445671], [-0.950288771527031, 44.75985257960852], [-0.950083815635018, 44.75957999862378], [-0.949917347944509, 44.75929441681785], [-0.949790971136828, 44.7589985846796], [-0.949705901709037, 44.758695351375756], [-0.949662958280716, 44.75838763730647]]]}}, {"type": "Feature", "properties": {"nb_detections_cluster": 11, "frp_max": 18.6, "frp_moyen": 14.64, "derniere_detection": "2026-07-27T12:57:00", "fetch_timestamp": "2026-07-27T12:57:00"}, "geometry": {"type": "Polygon", "coordinates": [[[-0.90735, 44.76353], [-0.914, 44.76647], [-0.90815, 44.76713], [-0.9023, 44.7678], [-0.89663, 44.7704], [-0.89059, 44.76912], [-0.88393, 44.76618], [-0.90149, 44.76419], [-0.90735, 44.76353]]]}}, {"type": "Feature", "properties": {"nb_detections_cluster": 2, "frp_max": 12.3, "frp_moyen": 12.3, "derniere_detection": "2026-07-26T13:16:00", "fetch_timestamp": "2026-07-27T12:57:00"}, "geometry": {"type": "Polygon", "coordinates": [[[-0.961273101708089, 44.77401492347733], [-0.961394746075161, 44.77410138390525], [-0.961670520953638, 44.77434021190385], [-0.961912105791816, 44.774597143246126], [-0.962117173729338, 44.774869703777654], [-0.962283749462467, 44.775155268803005], [-0.962410228282229, 44.775451088354906], [-0.962495391547596, 44.775754313670895], [-0.962538418443984, 44.77606202462319], [-0.962538893912963, 44.776371257837134], [-0.962496812675851, 44.776679035228405], [-0.962412579311444, 44.776982392683486], [-0.962287004386074, 44.777278408607515], [-0.962121296672289, 44.77756423206468], [-0.961917051530102, 44.77783711023956], [-0.961676235561866, 44.778094414955305], [-0.961401167687805, 44.778333667992364], [-0.9610944968239, 44.77855256496414], [-0.960759176376686, 44.778748997519095], [-0.960398435800394, 44.778921073655134], [-0.960015749490361, 44.77906713595008], [-0.959614803312453, 44.77918577753268], [-0.959199459091288, 44.77927585563961], [-0.958773717399764, 44.779336502627906], [-0.958341679009033, 44.779367134336205], [-0.957907505370998, 44.77936745571432], [-0.957475378514899, 44.77933746366668], [-0.957049460745179, 44.779277447082166], [-0.956633854529829, 44.779187984050004], [-0.956232562966514, 44.77906993628879], [-0.955849451208155, 44.778924440842275], [-0.955488209220343, 44.77875289912207], [-0.955152316229967, 44.7785569634032], [-0.954845007208012, 44.7783385209028], [-0.954569241709734, 44.77809967559557], [-0.954327675372472, 44.77784272794167], [-0.954122634345597, 44.77757015272229], [-0.953956092898688, 44.77728457519734], [-0.953829654423118, 44.77698874581447], [-0.953744536009512, 44.7766855137139], [-0.953701556748824, 44.776377799284184], [-0.953701129868871, 44.776068566033565], [-0.953743258781086, 44.775760792047805], [-0.953827537074547, 44.775457441309555], [-0.953953152456323, 44.77516143515553], [-0.954118894599149, 44.77487562414611], [-0.954156821124892, 44.774824962733256], [-0.954035186319743, 44.77473849434172], [-0.953759441911231, 44.77449964731704], [-0.953517894735224, 44.77424269821807], [-0.953312870756586, 44.77397012183998], [-0.953146344080745, 44.77368454345378], [-0.953019917956877, 44.77338871351544], [-0.952934809356716, 44.7730854811705], [-0.952891837276788, 44.77277776680991], [-0.952891414875839, 44.77246853394119], [-0.952933545522255, 44.772160760646436], [-0.953017822788506, 44.77185741090166], [-0.953143434391639, 44.771561406033975], [-0.953309170040864, 44.77127559659139], [-0.953513433115687, 44.7710027348958], [-0.953754256061285, 44.770745448543614], [-0.954029319352106, 44.77050621510856], [-0.954335973840492, 44.770287338290395], [-0.954671266274724, 44.770090925738515], [-0.955031967740483, 44.769918868763945], [-0.95541460475188, 44.76977282413456], [-0.955815492692771, 44.7696541981285], [-0.956230771286753, 44.76956413299908], [-0.956656441754751, 44.7695034959812], [-0.95708840530314, 44.76947287094483], [-0.957522502572557, 44.76947255277571], [-0.957954553668459, 44.76950254453749], [-0.958380398388912, 44.769562557442136], [-0.958795936263249, 44.769652013629276], [-0.959197166016982, 44.769770051727605], [-0.959580224083896, 44.76991553514493], [-0.959941421795249, 44.77008706300731], [-0.960277280888694, 44.77028298364211], [-0.960584566995498, 44.770501410475546], [-0.960860320783988, 44.77074024019178], [-0.961101886459462, 44.770997172979335], [-0.961306937346133, 44.77126973466987], [-0.961473498304511, 44.771555300556805], [-0.961599964767964, 44.77185112066453], [-0.961685118214526, 44.772154346225264], [-0.961728137924253, 44.7724620571088], [-0.961728608908011, 44.772771289941204], [-0.961686525930403, 44.77307906664182], [-0.961602293587075, 44.77338242310371], [-0.961476722434618, 44.77367843774164], [-0.961311021209323, 44.77396425963217], [-0.961273101708089, 44.77401492347733]]]}}, {"type": "Feature", "properties": {"nb_detections_cluster": 4, "frp_max": 6.6, "frp_moyen": 5.58, "derniere_detection": "2026-07-26T13:16:00", "fetch_timestamp": "2026-07-27T12:57:00"}, "geometry": {"type": "Polygon", "coordinates": [[[-0.968206501826289, 44.841168380938214], [-0.968205994611558, 44.840859141021475], [-0.968248092644846, 44.84055135483134], [-0.968332389810982, 44.84024798646812], [-0.968458073633684, 44.83995195743835], [-0.968623933125081, 44.83966611852274], [-0.968828370470611, 44.83939322232715], [-0.969069416435953, 44.8391358967802], [-0.969344749346848, 44.838896619833136], [-0.969651717458448, 44.83867769560473], [-0.969987364498392, 44.83848123220096], [-0.97034845813738, 44.838309121422554], [-0.970731521113073, 44.83816302055546], [-0.971132864707784, 44.83804433641932], [-0.971548624257915, 44.83795421182725], [-0.97197479635379, 44.83789351458664], [-0.972407277372298, 44.83786282914737], [-0.972841902972175, 44.837862450976786], [-0.973274488172467, 44.8378923837163], [-0.97370086762925, 44.837952339146184], [-0.974116935723734, 44.8380417399595], [-0.974518686076687, 44.83815972531817], [-0.97490225010964, 44.83830515913786], [-0.975263934282298, 44.838476641022226], [-0.975600255648329, 44.83867251974146], [-0.975907975387671, 44.838890909125396], [-0.976184129992801, 44.83912970621892], [-0.976426059808879, 44.839386611524745], [-0.976631434652843, 44.83965915113931], [-0.976798276264602, 44.839944700568644], [-0.97692497737367, 44.84024050999578], [-0.977010317197051, 44.840543730755876], [-0.977053473218423, 44.84085144276504], [-0.977054029134278, 44.841160682638645], [-0.977011978889575, 44.84146847222826], [-0.976927726762997, 44.84177184730298], [-0.97680208349998, 44.842067886098334], [-0.97663625852971, 44.84235373745833], [-0.97643184834012, 44.842626648298875], [-0.976190821121943, 44.84288399012855], [-0.975915497828999, 44.84312328437037], [-0.975608529836521, 44.84334222624094], [-0.97527287341229, 44.84353870695628], [-0.974911761246242, 44.843710834050455], [-0.974528671312697, 44.843856949610455], [-0.974127293365323, 44.843975646252], [-0.973711493387866, 44.844065780681404], [-0.973285276343606, 44.84412648471324], [-0.97285274758299, 44.84415717363666], [-0.972418073281989, 44.84415755185041], [-0.97198544029311, 44.84412761571139], [-0.971559015796768, 44.84406765357002], [-0.971142907142602, 44.843978242991106], [-0.970741122268521, 44.84386024518806], [-0.970357531079627, 44.84371479672342], [-0.969995828159803, 44.84354329855632], [-0.969659497175822, 44.84334740254234], [-0.969351777317361, 44.84312899551624], [-0.969075632096516, 44.8428901811111], [-0.9688337208075, 44.84263325948953], [-0.968628372921385, 44.84236070518208], [-0.968461565662291, 44.84207514324733], [-0.968334904980548, 44.84177932398285], [-0.968249610105554, 44.84147609643152], [-0.968206501826289, 44.841168380938214]]]}}, {"type": "Feature", "properties": {"nb_detections_cluster": 8, "frp_max": 56.96, "frp_moyen": 24.47, "derniere_detection": "2026-07-27T02:53:00", "fetch_timestamp": "2026-07-27T12:57:00"}, "geometry": {"type": "Polygon", "coordinates": [[[-0.94067, 44.85287], [-0.95322, 44.85515], [-0.94691, 44.85671], [-0.94148, 44.85648], [-0.94069, 44.85514], [-0.9348, 44.85353], [-0.94067, 44.85287]]]}}, {"type": "Feature", "properties": {"nb_detections_cluster": 1, "frp_max": 9.77, "frp_moyen": 9.77, "derniere_detection": "2026-07-26T13:16:00", "fetch_timestamp": "2026-07-27T12:57:00"}, "geometry": {"type": "Polygon", "coordinates": [[[-0.960515471298777, 44.85397807507624], [-0.960515006313294, 44.85366883384108], [-0.960557156092834, 44.853361049290655], [-0.96064151402359, 44.853057685509434], [-0.960767267043843, 44.85276166395977], [-0.960933203499119, 44.85247583535029], [-0.961137724833524, 44.85220295218757], [-0.961378861003811, 44.85194564227469], [-0.961654289467001, 44.8517063834123], [-0.961961357558098, 44.85148747954501], [-0.962297108042019, 44.85129103858266], [-0.962658307593436, 44.851118952109886], [-0.963041477930267, 44.85097287717857], [-0.963442929301164, 44.85085422035863], [-0.963858796004914, 44.85076412420009], [-0.964285073600229, 44.8507034562366], [-0.964717657448333, 44.8506728006361], [-0.965152382217995, 44.85067245257862], [-0.965585061973524, 44.850702415415626], [-0.966011530460664, 44.85076240063756], [-0.966427681203453, 44.85085183065067], [-0.966829507026909, 44.850969844335644], [-0.967213138625867, 44.851115305335455], [-0.967574881809401, 44.85128681299199], [-0.967911253062867, 44.85148271582726], [-0.96821901308569, 44.851701127438886], [-0.968495197982261, 44.8519399446577], [-0.968737147805818, 44.85219686779258], [-0.968942532180372, 44.85246942276823], [-0.969109372753753, 44.85275498494275], [-0.969236062265153, 44.85305080437638], [-0.969321380042928, 44.85335403230787], [-0.969364503782718, 44.85366174858425], [-0.969365017491564, 44.8539709897797], [-0.969322915520582, 44.85427877773306], [-0.969238602646318, 44.85458214822907], [-0.969112890199, 44.8548781795474], [-0.968946988273904, 44.85516402060392], [-0.96874249409995, 44.8554369184138], [-0.968501376676622, 44.855694244611044], [-0.968225957826465, 44.855933520769206], [-0.967918889845054, 44.85615244227905], [-0.967583129963254, 44.85634890055265], [-0.967221911867548, 44.8565210033402], [-0.966838714552666, 44.85666709296279], [-0.966437228806705, 44.856785762285966], [-0.966021321651898, 44.85687586827919], [-0.965594999084037, 44.85693654303088], [-0.965162367470173, 44.85696720211222], [-0.964727593977147, 44.85696755020942], [-0.964294866413061, 44.85693758396948], [-0.963868352869429, 44.856877592032724], [-0.963452161553705, 44.856788152251], [-0.963050301200069, 44.85667012611893], [-0.962666642440661, 44.85652465047198], [-0.962304880510167, 44.85635312653107], [-0.961968499643667, 44.85615720640003], [-0.96166073951116, 44.85593877714587], [-0.961384564012468, 44.85569994261578], [-0.961142632733201, 44.85544300316614], [-0.960937275336698, 44.85517043349922], [-0.960770469138379, 44.85488485882144], [-0.960643820078039, 44.85458902955314], [-0.960558547272807, 44.854285794833444], [-0.960515471298777, 44.85397807507624]]]}}, {"type": "Feature", "properties": {"nb_detections_cluster": 11, "frp_max": 118.93, "frp_moyen": 65.46, "derniere_detection": "2026-07-26T13:16:00", "fetch_timestamp": "2026-07-27T12:57:00"}, "geometry": {"type": "Polygon", "coordinates": [[[-0.915184358012231, 44.866496268938484], [-0.915184142560789, 44.86618702632334], [-0.915226550188532, 44.86587925780003], [-0.915311171798286, 44.865575927298366], [-0.915437191788977, 44.86527995595991], [-0.915603395935245, 44.864994194009554], [-0.915808183103531, 44.86472139331161], [-0.916049580690961, 44.864464180874855], [-0.916325263637587, 44.86422503356108], [-0.916632576828325, 44.86400625424052], [-0.916968560668458, 44.863809949623615], [-0.917329979586161, 44.86363800998191], [-0.917713353187595, 44.86349209095338], [-0.918114989764709, 44.86337359760667], [-0.918531021833443, 44.863283670917625], [-0.918957443360663, 44.86322317678809], [-0.919390148322049, 44.86319269771211], [-0.919824970220447, 44.86319252717006], [-0.920257722185077, 44.863222666804035], [-0.920684237266422, 44.86328282640219], [-0.921100408539775, 44.86337242669162], [-0.921502228632245, 44.86349060491349], [-0.921885828293516, 44.86363622312633], [-0.922247513639742, 44.8638078791582], [-0.922583801712662, 44.86400392010226], [-0.922891454012046, 44.86422245822616], [-0.923167507678916, 44.86446138914232], [-0.923409304029472, 44.86471841206464], [-0.92361451416489, 44.86499105195666], [-0.923781161410176, 44.86527668335859], [-0.923907640365584, 44.86557255566368], [-0.923992732386531, 44.86587581960137], [-0.924035617342221, 44.86618355467159], [-0.924035881538849, 44.86649279726727], [-0.923993521730157, 44.866800569213446], [-0.923908945175659, 44.86710390644878], [-0.923782965744981, 44.8673998875729], [-0.923616796104786, 44.867685661984936], [-0.92341203606258, 44.8679584773416], [-0.923170657178801, 44.868215706070814], [-0.922894983794623, 44.86845487068469], [-0.922587670657651, 44.86867366764815], [-0.922251677360538, 44.86886998957275], [-0.921890239838535, 44.8690419455218], [-0.921506839200433, 44.86918787923068], [-0.921105168193285, 44.86930638506658], [-0.920689095624282, 44.86939632157366], [-0.920262629082957, 44.86945682247285], [-0.919829876323499, 44.869487305009834], [-0.919395005679915, 44.869487475571376], [-0.918962205896232, 44.8694573325145], [-0.918535645759632, 44.869397166182715], [-0.918119433926266, 44.869307556107586], [-0.917717579327723, 44.86918936542405], [-0.917333952540371, 44.8690437325525], [-0.916972248490497, 44.86887206022817], [-0.916635950855129, 44.868676001983985], [-0.916328298501978, 44.8684574462172], [-0.916052254292087, 44.86821849799334], [-0.915810476545832, 44.867961458763666], [-0.915605293447082, 44.867688804191296], [-0.915438680631829, 44.867403160300206], [-0.915312242176691, 44.867107278177045], [-0.915227195169849, 44.866804007469746], [-0.915184358012231, 44.866496268938484]]]}}, {"type": "Feature", "properties": {"nb_detections_cluster": 5, "frp_max": 69.33, "frp_moyen": 29.13, "derniere_detection": "2026-07-27T01:32:00", "fetch_timestamp": "2026-07-27T12:57:00"}, "geometry": {"type": "Polygon", "coordinates": [[[-0.98004, 44.87758], [-0.98308, 44.88131], [-0.96976, 44.87544], [-0.96895, 44.87184], [-0.97561, 44.87477], [-0.98004, 44.87758]]]}}, {"type": "Feature", "properties": {"nb_detections_cluster": 1, "frp_max": 44.37, "frp_moyen": 44.37, "derniere_detection": "2026-07-26T13:16:00", "fetch_timestamp": "2026-07-27T12:57:00"}, "geometry": {"type": "Polygon", "coordinates": [[[-0.964312021093898, 44.897878228658364], [-0.964311534825479, 44.89756898315004], [-0.964353696754211, 44.89726119288799], [-0.964438100148199, 44.89695782201168], [-0.964563931506845, 44.896661792051816], [-0.964729978420282, 44.89637595379807], [-0.964934641268017, 44.896103059849835], [-0.965175948643286, 44.89584573811413], [-0.965451576353827, 44.8956064665054], [-0.965758869815498, 44.89538754909101], [-0.966094869622708, 44.895191093911286], [-0.966456340049153, 44.89501899268774], [-0.966839800204432, 44.89487290261428], [-0.96724155754664, 44.894754230406626], [-0.967657743428618, 44.894664118762975], [-0.968084350336091, 44.894603435366065], [-0.968517270459815, 44.89457276453242], [-0.968952335231102, 44.89457240158881], [-0.96938535544096, 44.894602350029984], [-0.969812161557458, 44.89466232148501], [-0.970228643854125, 44.89475173849271], [-0.97063079196388, 44.89486974005902], [-0.971014733478595, 44.895015189943585], [-0.97137677122335, 44.895186687595384], [-0.971713418847204, 44.89538258163277], [-0.972021434388265, 44.89560098573808], [-0.972297851490214, 44.895839796814464], [-0.97254000796988, 44.89609671522998], [-0.972745571460705, 44.896369266954814], [-0.972912561884984, 44.89665482737841], [-0.973039370538035, 44.89695064657788], [-0.97312477559994, 44.89725387579428], [-0.973167953924758, 44.89756159486225], [-0.973168488992785, 44.89787084032917], [-0.973126374948335, 44.89817863399272], [-0.973042016683142, 44.89848201158271], [-0.972916225963529, 44.89877805131045], [-0.972750213637627, 44.899063902010916], [-0.972545577996747, 44.89933681060634], [-0.972304289402113, 44.89959414862689], [-0.972028671324256, 44.89983343753223], [-0.971721377977138, 44.90005237259033], [-0.97138536876195, 44.90024884508283], [-0.971023879766536, 44.9004209626229], [-0.970640392594897, 44.90056706738959], [-0.970238600827156, 44.90068575210251], [-0.969822374433432, 44.90077587358294], [-0.969395722484838, 44.90083656377007], [-0.968962754521527, 44.90086723808644], [-0.968527640950632, 44.90086760107147], [-0.96809457285649, 44.90083764922883], [-0.967667721611196, 44.90077767106008], [-0.967251198675497, 44.900688244284495], [-0.966849015978207, 44.90057023027147], [-0.966465047256637, 44.9004247657397], [-0.966102990731249, 44.9002532518031], [-0.965766333474711, 44.9000573404691], [-0.965458317819098, 44.899838918720064], [-0.965181910125127, 44.89960009033089], [-0.964939772214429, 44.899343155598864], [-0.964734235739964, 44.8990705891808], [-0.964567279741216, 44.89878501625192], [-0.964440511599913, 44.8984891872157], [-0.96435515157913, 44.898185951209086], [-0.964312021093898, 44.897878228658364]]]}}, {"type": "Feature", "properties": {"nb_detections_cluster": 5, "frp_max": 29.74, "frp_moyen": 12.64, "derniere_detection": "2026-07-26T13:16:00", "fetch_timestamp": "2026-07-27T12:57:00"}, "geometry": {"type": "Polygon", "coordinates": [[[-0.97278, 44.91573], [-0.96692, 44.91641], [-0.9661, 44.91281], [-0.97278, 44.91573]]]}}, {"type": "Feature", "properties": {"nb_detections_cluster": 9, "frp_max": 20.04, "frp_moyen": 12.39, "derniere_detection": "2026-07-26T13:16:00", "fetch_timestamp": "2026-07-27T12:57:00"}, "geometry": {"type": "Polygon", "coordinates": [[[-0.89505, 44.73534], [-0.89967, 44.73799], [-0.88919, 44.736], [-0.88131, 44.73643], [-0.87466, 44.7335], [-0.87386, 44.72989], [-0.88716, 44.73574], [-0.89221, 44.73146], [-0.89505, 44.73534]]]}}, {"type": "Feature", "properties": {"nb_detections_cluster": 12, "frp_max": 14.41, "frp_moyen": 6.39, "derniere_detection": "2026-07-27T12:57:00", "fetch_timestamp": "2026-07-27T12:57:00"}, "geometry": {"type": "Polygon", "coordinates": [[[-0.88832, 44.77559], [-0.88806, 44.77764], [-0.88187, 44.77715], [-0.87369, 44.7774], [-0.87848, 44.77665], [-0.88806, 44.77516], [-0.88832, 44.77559]]]}}, {"type": "Feature", "properties": {"nb_detections_cluster": 1, "frp_max": 5.51, "frp_moyen": 5.51, "derniere_detection": "2026-07-26T13:16:00", "fetch_timestamp": "2026-07-27T12:57:00"}, "geometry": {"type": "Polygon", "coordinates": [[[-0.894295281074825, 44.854045435691575], [-0.894295180681475, 44.85373619428106], [-0.894337693367911, 44.85342843497551], [-0.894422409025562, 44.85312512161578], [-0.89454851114805, 44.852829175178286], [-0.894714784719507, 44.852543445647946], [-0.894919627938255, 44.8522706845768], [-0.895161067662103, 44.85201351859193], [-0.89543677842577, 44.85177442410768], [-0.895744104846704, 44.851555703485545], [-0.896080087203143, 44.85135946287061], [-0.896441489937855, 44.85118759191814], [-0.896824832813078, 44.8510417456046], [-0.897226424416808, 44.85092332829843], [-0.897642397698143, 44.850833480243296], [-0.898068747190054, 44.85077306658385], [-0.898501367561814, 44.850742669039306], [-0.898936093130682, 44.85074258030495], [-0.899368737953276, 44.85077280123518], [-0.899795136111532, 44.85083304083534], [-0.900211181806352, 44.85092271906222], [-0.900612868873769, 44.85104097240648], [-0.900996329344087, 44.85118666220327], [-0.901357870673464, 44.851358385591354], [-0.901694011290139, 44.85155448901524], [-0.902001514113541, 44.851773084140895], [-0.902277417723855, 44.85201206603177], [-0.902519064882104, 44.852269133410815], [-0.902724128126044, 44.85254181081338], [-0.902890632195188, 44.85282747241835], [-0.903016973068615, 44.853123367328024], [-0.903101933431595, 44.85342664605399], [-0.903144694421416, 44.85373438795366], [-0.903144843538366, 44.85404362935404], [-0.903102378644777, 44.85435139209158], [-0.903017708012565, 44.85465471219345], [-0.902891646417806, 44.854950668424216], [-0.902725407318911, 44.85523641042258], [-0.902520591192795, 44.85550918615736], [-0.902279170140496, 44.85576636843796], [-0.902003468909759, 44.85600548022381], [-0.901696142516789, 44.856224218488514], [-0.901360150682272, 44.856420476408985], [-0.90099872932768, 44.85659236366493], [-0.900615359406325, 44.856738224653355], [-0.900213733369581, 44.85685665444188], [-0.899797719591587, 44.856946512307104], [-0.899371325095639, 44.85700693272743], [-0.898938656941944, 44.8570373337238], [-0.898503882649474, 44.857037422468295], [-0.898071190034035, 44.857007198106096], [-0.89764474685034, 44.856946951763774], [-0.897228660627791, 44.85685726374361], [-0.896826939087812, 44.85673899793133], [-0.896443451524862, 44.85659329347091], [-0.896081891523935, 44.8564215537871], [-0.89574574137433, 44.856225433061624], [-0.895438238522965, 44.856006820293395], [-0.895162344390729, 44.855767821096975], [-0.89492071585236, 44.85551073741445], [-0.894715679654552, 44.855238045337], [-0.894549210018423, 44.8549523712497], [-0.894422909641655, 44.8546564665299], [-0.89433799428271, 44.854353181043074], [-0.894295281074825, 44.854045435691575]]]}}, {"type": "Feature", "properties": {"nb_detections_cluster": 1, "frp_max": 28.72, "frp_moyen": 28.72, "derniere_detection": "2026-07-26T13:16:00", "fetch_timestamp": "2026-07-27T12:57:00"}, "geometry": {"type": "Polygon", "coordinates": [[[-0.895904716675621, 44.86126550021349], [-0.895904607407051, 44.86095625808699], [-0.895947116739269, 44.86064849745088], [-0.896031834595824, 44.860345182158866], [-0.896157944448984, 44.86004923320594], [-0.896324231208264, 44.859763500601275], [-0.896529092944832, 44.859490735926514], [-0.896770556338037, 44.85923356584343], [-0.897046295694553, 44.85899446680589], [-0.897353655356402, 44.85877574121919], [-0.897689675281661, 44.858579495276246], [-0.898051119551301, 44.858407618683614], [-0.898434507527594, 44.85826176647209], [-0.898836147364268, 44.858143343066885], [-0.899252171546018, 44.85805348877041], [-0.89967857411575, 44.8579930687874], [-0.900111249231724, 44.85796266489799], [-0.900546030684153, 44.85796256985849], [-0.900978731991646, 44.857992784584084], [-0.901405186692342, 44.85805301813983], [-0.901821288442786, 44.85814269054073], [-0.902223030539331, 44.85826093833351], [-0.902606544482465, 44.85840662290683], [-0.902968137213503, 44.85857834144971], [-0.903304326665748, 44.858774440453374], [-0.903611875288384, 44.858993031626284], [-0.903887821220549, 44.85923201007002], [-0.904129506815679, 44.85948907454072], [-0.90433460424132, 44.85976174960173], [-0.904501137907719, 44.86004740945451], [-0.904627503508807, 44.860343303218265], [-0.904712483491583, 44.86064658141557], [-0.904755258804231, 44.860954323409], [-0.904755416808929, 44.86126356552464], [-0.904712955282234, 44.86157132959205], [-0.904628282463454, 44.86187465162563], [-0.904502213149549, 44.86217061037136], [-0.904335960873098, 44.862456355443655], [-0.904131126237782, 44.86272913478182], [-0.903889681522762, 44.86298632116052], [-0.903613951703575, 44.863225437499715], [-0.903306592071687, 44.863444180729196], [-0.902970562667861, 44.863640443978014], [-0.902609099775391, 44.863812336874574], [-0.902225684747664, 44.86395820376156], [-0.901824010470527, 44.864076639649745], [-0.901407945782811, 44.86416650375703], [-0.90098149819823, 44.864226930501644], [-0.900548775288424, 44.86425733784366], [-0.900113945099866, 44.86425743289398], [-0.899681195986852, 44.864227214737085], [-0.899254696248378, 44.86416697443977], [-0.898838553958681, 44.8640772922461], [-0.898436777379307, 44.86395903198566], [-0.89805323633492, 44.86381333274895], [-0.897691624925696, 44.86364159791041], [-0.897355425936121, 44.86344548160512], [-0.897047877283528, 44.86322687278943], [-0.896771940829927, 44.86298787703982], [-0.896530273857629, 44.8627307962652], [-0.896325203483423, 44.86245810652873], [-0.896158704257487, 44.86217243419296], [-0.896032379162365, 44.861876530618396], [-0.895947444194434, 44.86157324565947], [-0.895904716675621, 44.86126550021349]]]}}, {"type": "Feature", "properties": {"nb_detections_cluster": 9, "frp_max": 26.86, "frp_moyen": 10.99, "derniere_detection": "2026-07-27T12:57:00", "fetch_timestamp": "2026-07-27T12:57:00"}, "geometry": {"type": "Polygon", "coordinates": [[[-0.89767, 44.87982], [-0.896, 44.88251], [-0.89224, 44.88209], [-0.89721, 44.88014], [-0.89769, 44.87621], [-0.89767, 44.87982]]]}}, {"type": "Feature", "properties": {"nb_detections_cluster": 1, "frp_max": 6.8, "frp_moyen": 6.8, "derniere_detection": "2026-07-26T13:16:00", "fetch_timestamp": "2026-07-27T12:57:00"}, "geometry": {"type": "Polygon", "coordinates": [[[-0.836905738411806, 44.71898314089305], [-0.836905953474592, 44.718673913809546], [-0.836948677865798, 44.718366190794704], [-0.837033499441517, 44.718062935339574], [-0.837159600678817, 44.71776706786257], [-0.837325766573714, 44.717481437587914], [-0.837530396364611, 44.717208795111546], [-0.837771518967457, 44.716951765918225], [-0.838046811973244, 44.71671282510485], [-0.838353624024311, 44.71649427355293], [-0.838689000353574, 44.71629821577943], [-0.839049711240516, 44.7161265396788], [-0.839432283109899, 44.71598089835119], [-0.839833031973905, 44.71586269419119], [-0.840248098896017, 44.715773065390024], [-0.840673487135713, 44.71571287498114], [-0.84110510061693, 44.715682702534124], [-0.841538783350738, 44.715682838576775], [-0.841970359433462, 44.71571328179916], [-0.842395673236096, 44.71577373906618], [-0.842810629398981, 44.715863628238694], [-0.843211232247581, 44.715982083776126], [-0.843593624250721, 44.7161279650666], [-0.84395412315177, 44.71629986740486], [-0.844289257415897, 44.71649613551213], [-0.844595799652599, 44.71671487946839], [-0.844870797692022, 44.71695399290372], [-0.845111603015989, 44.717211173274116], [-0.845315896269924, 44.717483944026554], [-0.84548170960979, 44.71776967844066], [-0.845607445668419, 44.71806562491726], [-0.845691892958015, 44.71836893347096], [-0.845734237559753, 44.71867668317157], [-0.845734070987069, 44.718985910270604], [-0.845691394145919, 44.71929363674185], [-0.845606617352885, 44.7195968989614], [-0.845480556409928, 44.71989277625097], [-0.84531442477254, 44.72017841900918], [-0.845109821885823, 44.72045107616037], [-0.844868717799916, 44.72070812165584], [-0.844593434212231, 44.720947079772216], [-0.844286622118495, 44.72116564896301], [-0.843951236287434, 44.721361724033464], [-0.843590506804713, 44.72153341642436], [-0.843207907960194, 44.72167907240954], [-0.842807124778337, 44.72179728903115], [-0.842392017514473, 44.72188692761905], [-0.841966584459434, 44.721947124763695], [-0.841534923411513, 44.72197730063668], [-0.841101192187602, 44.721977164578504], [-0.840669568554823, 44.72194671789972], [-0.840244209969504, 44.72188625386824], [-0.839829213512275, 44.72179635488318], [-0.839428576406167, 44.7216778868622], [-0.839046157498846, 44.7215319908969], [-0.838685640080859, 44.72136007225648], [-0.838350496398631, 44.721163786846226], [-0.838043954204596, 44.720945025251076], [-0.837768965666972, 44.72070589451881], [-0.837528178938786, 44.72044869785815], [-0.837323912659986, 44.720175912448134], [-0.837158133637971, 44.71989016557243], [-0.837032437921094, 44.719594209309086], [-0.836948035446841, 44.719290894019615], [-0.836905738411806, 44.71898314089305]]]}}, {"type": "Feature", "properties": {"nb_detections_cluster": 41, "frp_max": 137.14, "frp_moyen": 24.55, "derniere_detection": "2026-07-27T12:57:00", "fetch_timestamp": "2026-07-27T12:57:00"}, "geometry": {"type": "Polygon", "coordinates": [[[-0.86118, 44.7224], [-0.86437, 44.72418], [-0.859, 44.72678], [-0.85467, 44.7247], [-0.86118, 44.7224]]]}}, {"type": "Feature", "properties": {"nb_detections_cluster": 3, "frp_max": 8.77, "frp_moyen": 8.77, "derniere_detection": "2026-07-26T13:16:00", "fetch_timestamp": "2026-07-27T12:57:00"}, "geometry": {"type": "Polygon", "coordinates": [[[-0.79152, 44.7394], [-0.78481, 44.73645], [-0.79072, 44.73577], [-0.79152, 44.7394]]]}}, {"type": "Feature", "properties": {"nb_detections_cluster": 27, "frp_max": 135.95, "frp_moyen": 51.49, "derniere_detection": "2026-07-27T01:32:00", "fetch_timestamp": "2026-07-27T12:57:00"}, "geometry": {"type": "Polygon", "coordinates": [[[-0.81002, 44.74097], [-0.80922, 44.73736], [-0.81347, 44.73571], [-0.81002, 44.74097]]]}}, {"type": "Feature", "properties": {"nb_detections_cluster": 5, "frp_max": 36.81, "frp_moyen": 27.98, "derniere_detection": "2026-07-26T13:16:00", "fetch_timestamp": "2026-07-27T12:57:00"}, "geometry": {"type": "Polygon", "coordinates": [[[-0.84889, 44.74421], [-0.8497, 44.74782], [-0.84771, 44.74773], [-0.84691, 44.74412], [-0.85279, 44.74344], [-0.84889, 44.74421]]]}}, {"type": "Feature", "properties": {"nb_detections_cluster": 1, "frp_max": 9.68, "frp_moyen": 9.68, "derniere_detection": "2026-07-26T13:16:00", "fetch_timestamp": "2026-07-27T12:57:00"}, "geometry": {"type": "Polygon", "coordinates": [[[-0.79652351036885, 44.74599153281982], [-0.796523947442918, 44.7456823028633], [-0.796566913160621, 44.745374592489256], [-0.796651993053427, 44.74507136506677], [-0.796778367110327, 44.744775540743994], [-0.796944817699778, 44.744489968329354], [-0.797149741318447, 44.74421739786139], [-0.797391164052786, 44.743960454131205], [-0.797666760603763, 44.74372161141254], [-0.79797387669098, 44.743503169642146], [-0.798309554620035, 44.7433072322797], [-0.798670561766672, 44.743135686060086], [-0.799053421703428, 44.74299018283274], [-0.799454447669203, 44.74287212366236], [-0.79986977805982, 44.74278264534405], [-0.800295413598363, 44.74272260946221], [-0.800727255828041, 44.7426925940985], [-0.801161146557745, 44.742692888268195], [-0.801592907881356, 44.742723489138754], [-0.802018382386412, 44.742784102057065], [-0.802433473165949, 44.74287414338528], [-0.802834183249156, 44.742992746117615], [-0.803216654072102, 44.74313876822493], [-0.80357720261885, 44.7433108036459], [-0.803912356876051, 44.743507195820236], [-0.804218889260088, 44.74372605363311], [-0.804493847695279, 44.74396526961815], [-0.804734584044022, 44.74422254024366], [-0.804938779615098, 44.74449538808737], [-0.805104467504239, 44.744781185686314], [-0.805230051551458, 44.745077180832624], [-0.805314321731957, 44.74538052307198], [-0.805356465831679, 44.74568829114957], [-0.805356077294204, 44.74599752113967], [-0.805313159162462, 44.746305234987936], [-0.805228124076281, 44.74660846919181], [-0.805101790324776, 44.74690430334253], [-0.80493537399058, 44.74718988825398], [-0.804730477260611, 44.74746247340739], [-0.8044890730151, 44.74771943344729], [-0.804213485842567, 44.74795829347314], [-0.803906369663, 44.74817675288315], [-0.803570682174348, 44.748372707539694], [-0.80320965636824, 44.74854427004333], [-0.802826769389211, 44.74868978791881], [-0.802425709037579, 44.74880785953854], [-0.802010338238951, 44.748897347629], [-0.801584657823101, 44.7489573902302], [-0.801152767971427, 44.74898740900232], [-0.80071882870513, 44.74898711479906], [-0.800287019795559, 44.74895651045428], [-0.799861500483877, 44.74889589075457], [-0.799446369398944, 44.74880583959842], [-0.799045625060483, 44.74868722436925], [-0.798663127348838, 44.74854118757651], [-0.798302560313261, 44.74836913584583], [-0.797967396677616, 44.74817272636429], [-0.79766086438593, 44.747953850911806], [-0.797385915510335, 44.74771461763266], [-0.797145197821065, 44.74745733072313], [-0.796941029292262, 44.74718446823129], [-0.796775375788978, 44.746898658183], [-0.79664983214977, 44.746602653264546], [-0.796565606846577, 44.74629930430581], [-0.79652351036885, 44.74599153281982]]]}}, {"type": "Feature", "properties": {"nb_detections_cluster": 4, "frp_max": 1.83, "frp_moyen": 1.18, "derniere_detection": "2026-07-27T02:53:00", "fetch_timestamp": "2026-07-27T12:57:00"}, "geometry": {"type": "Polygon", "coordinates": [[[-0.87526, 44.89452], [-0.87721, 44.89791], [-0.87455, 44.89899], [-0.87097, 44.89635], [-0.87526, 44.89452]]]}}]}