{
"type": "FeatureCollection",
"name": "zone_active_points",
"crs": { "type": "name", "properties": { "name": "urn:ogc:def:crs:OGC:1.3:CRS84" } },
"features": [
{ "type": "Feature", "properties": { "lat": 44.71883, "lon": -0.84132, "frp": 6.8, "fetch_timestamp": "2026-07-27T12:57:00" }, "geometry": { "type": "Point", "coordinates": [ -0.84132, 44.71883 ] } },
{ "type": "Feature", "properties": { "lat": 44.7247, "lon": -0.85467, "frp": 137.14, "fetch_timestamp": "2026-07-27T12:57:00" }, "geometry": { "type": "Point", "coordinates": [ -0.85467, 44.7247 ] } },
{ "type": "Feature", "properties": { "lat": 44.72989, "lon": -0.87386, "frp": 17.44, "fetch_timestamp": "2026-07-27T12:57:00" }, "geometry": { "type": "Point", "coordinates": [ -0.87386, 44.72989 ] } },
{ "type": "Feature", "properties": { "lat": 44.73146, "lon": -0.89221, "frp": 20.04, "fetch_timestamp": "2026-07-27T12:57:00" }, "geometry": { "type": "Point", "coordinates": [ -0.89221, 44.73146 ] } },
{ "type": "Feature", "properties": { "lat": 44.7335, "lon": -0.87466, "frp": 6.73, "fetch_timestamp": "2026-07-27T12:57:00" }, "geometry": { "type": "Point", "coordinates": [ -0.87466, 44.7335 ] } },
{ "type": "Feature", "properties": { "lat": 44.73507, "lon": -0.89302, "frp": 20.04, "fetch_timestamp": "2026-07-27T12:57:00" }, "geometry": { "type": "Point", "coordinates": [ -0.89302, 44.73507 ] } },
{ "type": "Feature", "properties": { "lat": 44.73534, "lon": -0.89505, "frp": 6.98, "fetch_timestamp": "2026-07-27T12:57:00" }, "geometry": { "type": "Point", "coordinates": [ -0.89505, 44.73534 ] } },
{ "type": "Feature", "properties": { "lat": 44.73574, "lon": -0.88716, "frp": 13.79, "fetch_timestamp": "2026-07-27T12:57:00" }, "geometry": { "type": "Point", "coordinates": [ -0.88716, 44.73574 ] } },
{ "type": "Feature", "properties": { "lat": 44.73577, "lon": -0.79072, "frp": 8.77, "fetch_timestamp": "2026-07-27T12:57:00" }, "geometry": { "type": "Point", "coordinates": [ -0.79072, 44.73577 ] } },
{ "type": "Feature", "properties": { "lat": 44.736, "lon": -0.88919, "frp": 6.98, "fetch_timestamp": "2026-07-27T12:57:00" }, "geometry": { "type": "Point", "coordinates": [ -0.88919, 44.736 ] } },
{ "type": "Feature", "properties": { "lat": 44.73643, "lon": -0.88131, "frp": 13.79, "fetch_timestamp": "2026-07-27T12:57:00" }, "geometry": { "type": "Point", "coordinates": [ -0.88131, 44.73643 ] } },
{ "type": "Feature", "properties": { "lat": 44.73645, "lon": -0.78481, "frp": 8.77, "fetch_timestamp": "2026-07-27T12:57:00" }, "geometry": { "type": "Point", "coordinates": [ -0.78481, 44.73645 ] } },
{ "type": "Feature", "properties": { "lat": 44.73736, "lon": -0.80922, "frp": 125.64, "fetch_timestamp": "2026-07-27T12:57:00" }, "geometry": { "type": "Point", "coordinates": [ -0.80922, 44.73736 ] } },
{ "type": "Feature", "properties": { "lat": 44.73799, "lon": -0.89967, "frp": 5.76, "fetch_timestamp": "2026-07-27T12:57:00" }, "geometry": { "type": "Point", "coordinates": [ -0.89967, 44.73799 ] } },
{ "type": "Feature", "properties": { "lat": 44.7394, "lon": -0.79152, "frp": 8.77, "fetch_timestamp": "2026-07-27T12:57:00" }, "geometry": { "type": "Point", "coordinates": [ -0.79152, 44.7394 ] } },
{ "type": "Feature", "properties": { "lat": 44.74097, "lon": -0.81002, "frp": 94.27, "fetch_timestamp": "2026-07-27T12:57:00" }, "geometry": { "type": "Point", "coordinates": [ -0.81002, 44.74097 ] } },
{ "type": "Feature", "properties": { "lat": 44.74344, "lon": -0.85279, "frp": 25.0, "fetch_timestamp": "2026-07-27T12:57:00" }, "geometry": { "type": "Point", "coordinates": [ -0.85279, 44.74344 ] } },
{ "type": "Feature", "properties": { "lat": 44.74412, "lon": -0.84691, "frp": 25.0, "fetch_timestamp": "2026-07-27T12:57:00" }, "geometry": { "type": "Point", "coordinates": [ -0.84691, 44.74412 ] } },
{ "type": "Feature", "properties": { "lat": 44.74421, "lon": -0.84889, "frp": 28.09, "fetch_timestamp": "2026-07-27T12:57:00" }, "geometry": { "type": "Point", "coordinates": [ -0.84889, 44.74421 ] } },
{ "type": "Feature", "properties": { "lat": 44.74584, "lon": -0.80094, "frp": 9.68, "fetch_timestamp": "2026-07-27T12:57:00" }, "geometry": { "type": "Point", "coordinates": [ -0.80094, 44.74584 ] } },
{ "type": "Feature", "properties": { "lat": 44.74669, "lon": -1.02302, "frp": 7.17, "fetch_timestamp": "2026-07-27T12:57:00" }, "geometry": { "type": "Point", "coordinates": [ -1.02302, 44.74669 ] } },
{ "type": "Feature", "properties": { "lat": 44.74773, "lon": -0.84771, "frp": 25.0, "fetch_timestamp": "2026-07-27T12:57:00" }, "geometry": { "type": "Point", "coordinates": [ -0.84771, 44.74773 ] } },
{ "type": "Feature", "properties": { "lat": 44.74782, "lon": -0.8497, "frp": 36.81, "fetch_timestamp": "2026-07-27T12:57:00" }, "geometry": { "type": "Point", "coordinates": [ -0.8497, 44.74782 ] } },
{ "type": "Feature", "properties": { "lat": 44.75823, "lon": -0.95408, "frp": 8.29, "fetch_timestamp": "2026-07-27T12:57:00" }, "geometry": { "type": "Point", "coordinates": [ -0.95408, 44.75823 ] } },
{ "type": "Feature", "properties": { "lat": 44.75917, "lon": -0.97818, "frp": 63.73, "fetch_timestamp": "2026-07-27T12:57:00" }, "geometry": { "type": "Point", "coordinates": [ -0.97818, 44.75917 ] } },
{ "type": "Feature", "properties": { "lat": 44.7613, "lon": -1.05603, "frp": 3.24, "fetch_timestamp": "2026-07-27T12:57:00" }, "geometry": { "type": "Point", "coordinates": [ -1.05603, 44.7613 ] } },
{ "type": "Feature", "properties": { "lat": 44.7621, "lon": -0.9848, "frp": 19.76, "fetch_timestamp": "2026-07-27T12:57:00" }, "geometry": { "type": "Point", "coordinates": [ -0.9848, 44.7621 ] } },
{ "type": "Feature", "properties": { "lat": 44.7633, "lon": -1.03868, "frp": 44.61, "fetch_timestamp": "2026-07-27T12:57:00" }, "geometry": { "type": "Point", "coordinates": [ -1.03868, 44.7633 ] } },
{ "type": "Feature", "properties": { "lat": 44.76353, "lon": -0.90735, "frp": 18.6, "fetch_timestamp": "2026-07-27T12:57:00" }, "geometry": { "type": "Point", "coordinates": [ -0.90735, 44.76353 ] } },
{ "type": "Feature", "properties": { "lat": 44.76396, "lon": -1.03289, "frp": 2.35, "fetch_timestamp": "2026-07-27T12:57:00" }, "geometry": { "type": "Point", "coordinates": [ -1.03289, 44.76396 ] } },
{ "type": "Feature", "properties": { "lat": 44.76419, "lon": -0.90149, "frp": 16.35, "fetch_timestamp": "2026-07-27T12:57:00" }, "geometry": { "type": "Point", "coordinates": [ -0.90149, 44.76419 ] } },
{ "type": "Feature", "properties": { "lat": 44.7657, "lon": -0.98562, "frp": 19.76, "fetch_timestamp": "2026-07-27T12:57:00" }, "geometry": { "type": "Point", "coordinates": [ -0.98562, 44.7657 ] } },
{ "type": "Feature", "properties": { "lat": 44.76618, "lon": -0.88393, "frp": 17.3, "fetch_timestamp": "2026-07-27T12:57:00" }, "geometry": { "type": "Point", "coordinates": [ -0.88393, 44.76618 ] } },
{ "type": "Feature", "properties": { "lat": 44.76647, "lon": -0.914, "frp": 18.6, "fetch_timestamp": "2026-07-27T12:57:00" }, "geometry": { "type": "Point", "coordinates": [ -0.914, 44.76647 ] } },
{ "type": "Feature", "properties": { "lat": 44.76713, "lon": -0.90815, "frp": 18.6, "fetch_timestamp": "2026-07-27T12:57:00" }, "geometry": { "type": "Point", "coordinates": [ -0.90815, 44.76713 ] } },
{ "type": "Feature", "properties": { "lat": 44.7678, "lon": -0.9023, "frp": 16.35, "fetch_timestamp": "2026-07-27T12:57:00" }, "geometry": { "type": "Point", "coordinates": [ -0.9023, 44.7678 ] } },
{ "type": "Feature", "properties": { "lat": 44.76912, "lon": -0.89059, "frp": 17.3, "fetch_timestamp": "2026-07-27T12:57:00" }, "geometry": { "type": "Point", "coordinates": [ -0.89059, 44.76912 ] } },
{ "type": "Feature", "properties": { "lat": 44.77262, "lon": -0.95731, "frp": 12.3, "fetch_timestamp": "2026-07-27T12:57:00" }, "geometry": { "type": "Point", "coordinates": [ -0.95731, 44.77262 ] } },
{ "type": "Feature", "properties": { "lat": 44.77355, "lon": -0.98142, "frp": 9.02, "fetch_timestamp": "2026-07-27T12:57:00" }, "geometry": { "type": "Point", "coordinates": [ -0.98142, 44.77355 ] } },
{ "type": "Feature", "properties": { "lat": 44.77622, "lon": -0.95812, "frp": 12.3, "fetch_timestamp": "2026-07-27T12:57:00" }, "geometry": { "type": "Point", "coordinates": [ -0.95812, 44.77622 ] } },
{ "type": "Feature", "properties": { "lat": 44.81731, "lon": -1.18862, "frp": 5.95, "fetch_timestamp": "2026-07-27T12:57:00" }, "geometry": { "type": "Point", "coordinates": [ -1.18862, 44.81731 ] } },
{ "type": "Feature", "properties": { "lat": 44.82023, "lon": -1.19518, "frp": 5.95, "fetch_timestamp": "2026-07-27T12:57:00" }, "geometry": { "type": "Point", "coordinates": [ -1.19518, 44.82023 ] } },
{ "type": "Feature", "properties": { "lat": 44.82088, "lon": -1.18944, "frp": 5.95, "fetch_timestamp": "2026-07-27T12:57:00" }, "geometry": { "type": "Point", "coordinates": [ -1.18944, 44.82088 ] } },
{ "type": "Feature", "properties": { "lat": 44.84021, "lon": -1.11692, "frp": 3.56, "fetch_timestamp": "2026-07-27T12:57:00" }, "geometry": { "type": "Point", "coordinates": [ -1.11692, 44.84021 ] } },
{ "type": "Feature", "properties": { "lat": 44.84101, "lon": -0.97263, "frp": 3.34, "fetch_timestamp": "2026-07-27T12:57:00" }, "geometry": { "type": "Point", "coordinates": [ -0.97263, 44.84101 ] } },
{ "type": "Feature", "properties": { "lat": 44.84399, "lon": -0.98669, "frp": 8.56, "fetch_timestamp": "2026-07-27T12:57:00" }, "geometry": { "type": "Point", "coordinates": [ -0.98669, 44.84399 ] } },
{ "type": "Feature", "properties": { "lat": 44.84829, "lon": -1.14246, "frp": 2.24, "fetch_timestamp": "2026-07-27T12:57:00" }, "geometry": { "type": "Point", "coordinates": [ -1.14246, 44.84829 ] } },
{ "type": "Feature", "properties": { "lat": 44.85287, "lon": -0.94067, "frp": 28.3, "fetch_timestamp": "2026-07-27T12:57:00" }, "geometry": { "type": "Point", "coordinates": [ -0.94067, 44.85287 ] } },
{ "type": "Feature", "properties": { "lat": 44.85345, "lon": -1.00079, "frp": 4.66, "fetch_timestamp": "2026-07-27T12:57:00" }, "geometry": { "type": "Point", "coordinates": [ -1.00079, 44.85345 ] } },
{ "type": "Feature", "properties": { "lat": 44.85353, "lon": -0.9348, "frp": 28.3, "fetch_timestamp": "2026-07-27T12:57:00" }, "geometry": { "type": "Point", "coordinates": [ -0.9348, 44.85353 ] } },
{ "type": "Feature", "properties": { "lat": 44.85382, "lon": -0.96494, "frp": 9.77, "fetch_timestamp": "2026-07-27T12:57:00" }, "geometry": { "type": "Point", "coordinates": [ -0.96494, 44.85382 ] } },
{ "type": "Feature", "properties": { "lat": 44.85389, "lon": -0.89872, "frp": 5.51, "fetch_timestamp": "2026-07-27T12:57:00" }, "geometry": { "type": "Point", "coordinates": [ -0.89872, 44.85389 ] } },
{ "type": "Feature", "properties": { "lat": 44.85515, "lon": -0.95322, "frp": 23.67, "fetch_timestamp": "2026-07-27T12:57:00" }, "geometry": { "type": "Point", "coordinates": [ -0.95322, 44.85515 ] } },
{ "type": "Feature", "properties": { "lat": 44.85648, "lon": -0.94148, "frp": 28.3, "fetch_timestamp": "2026-07-27T12:57:00" }, "geometry": { "type": "Point", "coordinates": [ -0.94148, 44.85648 ] } },
{ "type": "Feature", "properties": { "lat": 44.86111, "lon": -0.90033, "frp": 28.72, "fetch_timestamp": "2026-07-27T12:57:00" }, "geometry": { "type": "Point", "coordinates": [ -0.90033, 44.86111 ] } },
{ "type": "Feature", "properties": { "lat": 44.86634, "lon": -0.91961, "frp": 115.83, "fetch_timestamp": "2026-07-27T12:57:00" }, "geometry": { "type": "Point", "coordinates": [ -0.91961, 44.86634 ] } },
{ "type": "Feature", "properties": { "lat": 44.8664, "lon": -1.17624, "frp": 4.43, "fetch_timestamp": "2026-07-27T12:57:00" }, "geometry": { "type": "Point", "coordinates": [ -1.17624, 44.8664 ] } },
{ "type": "Feature", "properties": { "lat": 44.87184, "lon": -0.96895, "frp": 14.3, "fetch_timestamp": "2026-07-27T12:57:00" }, "geometry": { "type": "Point", "coordinates": [ -0.96895, 44.87184 ] } },
{ "type": "Feature", "properties": { "lat": 44.87477, "lon": -0.97561, "frp": 69.33, "fetch_timestamp": "2026-07-27T12:57:00" }, "geometry": { "type": "Point", "coordinates": [ -0.97561, 44.87477 ] } },
{ "type": "Feature", "properties": { "lat": 44.87544, "lon": -0.96976, "frp": 14.3, "fetch_timestamp": "2026-07-27T12:57:00" }, "geometry": { "type": "Point", "coordinates": [ -0.96976, 44.87544 ] } },
{ "type": "Feature", "properties": { "lat": 44.87621, "lon": -0.89769, "frp": 26.86, "fetch_timestamp": "2026-07-27T12:57:00" }, "geometry": { "type": "Point", "coordinates": [ -0.89769, 44.87621 ] } },
{ "type": "Feature", "properties": { "lat": 44.88131, "lon": -0.98308, "frp": 46.76, "fetch_timestamp": "2026-07-27T12:57:00" }, "geometry": { "type": "Point", "coordinates": [ -0.98308, 44.88131 ] } },
{ "type": "Feature", "properties": { "lat": 44.88205, "lon": -1.16795, "frp": 7.17, "fetch_timestamp": "2026-07-27T12:57:00" }, "geometry": { "type": "Point", "coordinates": [ -1.16795, 44.88205 ] } },
{ "type": "Feature", "properties": { "lat": 44.8865, "lon": -1.00221, "frp": 13.53, "fetch_timestamp": "2026-07-27T12:57:00" }, "geometry": { "type": "Point", "coordinates": [ -1.00221, 44.8865 ] } },
{ "type": "Feature", "properties": { "lat": 44.89772, "lon": -0.96874, "frp": 44.37, "fetch_timestamp": "2026-07-27T12:57:00" }, "geometry": { "type": "Point", "coordinates": [ -0.96874, 44.89772 ] } },
{ "type": "Feature", "properties": { "lat": 44.91281, "lon": -0.9661, "frp": 29.74, "fetch_timestamp": "2026-07-27T12:57:00" }, "geometry": { "type": "Point", "coordinates": [ -0.9661, 44.91281 ] } },
{ "type": "Feature", "properties": { "lat": 44.91573, "lon": -0.97278, "frp": 9.75, "fetch_timestamp": "2026-07-27T12:57:00" }, "geometry": { "type": "Point", "coordinates": [ -0.97278, 44.91573 ] } },
{ "type": "Feature", "properties": { "lat": 44.91641, "lon": -0.96692, "frp": 7.84, "fetch_timestamp": "2026-07-27T12:57:00" }, "geometry": { "type": "Point", "coordinates": [ -0.96692, 44.91641 ] } },
{ "type": "Feature", "properties": { "lat": 44.93023, "lon": -1.10165, "frp": 5.46, "fetch_timestamp": "2026-07-27T12:57:00" }, "geometry": { "type": "Point", "coordinates": [ -1.10165, 44.93023 ] } },
{ "type": "Feature", "properties": { "lat": 44.73571, "lon": -0.81347, "frp": 1.52, "fetch_timestamp": "2026-07-27T12:57:00" }, "geometry": { "type": "Point", "coordinates": [ -0.81347, 44.73571 ] } },
{ "type": "Feature", "properties": { "lat": 44.77559, "lon": -0.88832, "frp": 1.21, "fetch_timestamp": "2026-07-27T12:57:00" }, "geometry": { "type": "Point", "coordinates": [ -0.88832, 44.77559 ] } },
{ "type": "Feature", "properties": { "lat": 44.77715, "lon": -0.88187, "frp": 1.16, "fetch_timestamp": "2026-07-27T12:57:00" }, "geometry": { "type": "Point", "coordinates": [ -0.88187, 44.77715 ] } },
{ "type": "Feature", "properties": { "lat": 44.77764, "lon": -0.88806, "frp": 1.79, "fetch_timestamp": "2026-07-27T12:57:00" }, "geometry": { "type": "Point", "coordinates": [ -0.88806, 44.77764 ] } },
{ "type": "Feature", "properties": { "lat": 44.87758, "lon": -0.98004, "frp": 0.98, "fetch_timestamp": "2026-07-27T12:57:00" }, "geometry": { "type": "Point", "coordinates": [ -0.98004, 44.87758 ] } },
{ "type": "Feature", "properties": { "lat": 44.88014, "lon": -0.89721, "frp": 1.11, "fetch_timestamp": "2026-07-27T12:57:00" }, "geometry": { "type": "Point", "coordinates": [ -0.89721, 44.88014 ] } },
{ "type": "Feature", "properties": { "lat": 44.88251, "lon": -0.896, "frp": 0.8, "fetch_timestamp": "2026-07-27T12:57:00" }, "geometry": { "type": "Point", "coordinates": [ -0.896, 44.88251 ] } },
{ "type": "Feature", "properties": { "lat": 44.89452, "lon": -0.87526, "frp": 0.62, "fetch_timestamp": "2026-07-27T12:57:00" }, "geometry": { "type": "Point", "coordinates": [ -0.87526, 44.89452 ] } },
{ "type": "Feature", "properties": { "lat": 44.89899, "lon": -0.87455, "frp": 0.62, "fetch_timestamp": "2026-07-27T12:57:00" }, "geometry": { "type": "Point", "coordinates": [ -0.87455, 44.89899 ] } },
{ "type": "Feature", "properties": { "lat": 44.72418, "lon": -0.86437, "frp": 5.13, "fetch_timestamp": "2026-07-27T12:57:00" }, "geometry": { "type": "Point", "coordinates": [ -0.86437, 44.72418 ] } },
{ "type": "Feature", "properties": { "lat": 44.7704, "lon": -0.89663, "frp": 7.57, "fetch_timestamp": "2026-07-27T12:57:00" }, "geometry": { "type": "Point", "coordinates": [ -0.89663, 44.7704 ] } },
{ "type": "Feature", "properties": { "lat": 44.77171, "lon": -1.2138, "frp": 4.22, "fetch_timestamp": "2026-07-27T12:57:00" }, "geometry": { "type": "Point", "coordinates": [ -1.2138, 44.77171 ] } },
{ "type": "Feature", "properties": { "lat": 44.77516, "lon": -0.88806, "frp": 2.47, "fetch_timestamp": "2026-07-27T12:57:00" }, "geometry": { "type": "Point", "coordinates": [ -0.88806, 44.77516 ] } },
{ "type": "Feature", "properties": { "lat": 44.77665, "lon": -0.87848, "frp": 5.36, "fetch_timestamp": "2026-07-27T12:57:00" }, "geometry": { "type": "Point", "coordinates": [ -0.87848, 44.77665 ] } },
{ "type": "Feature", "properties": { "lat": 44.7774, "lon": -0.87369, "frp": 11.61, "fetch_timestamp": "2026-07-27T12:57:00" }, "geometry": { "type": "Point", "coordinates": [ -0.87369, 44.7774 ] } },
{ "type": "Feature", "properties": { "lat": 44.87342, "lon": -1.17762, "frp": 4.19, "fetch_timestamp": "2026-07-27T12:57:00" }, "geometry": { "type": "Point", "coordinates": [ -1.17762, 44.87342 ] } },
{ "type": "Feature", "properties": { "lat": 44.87419, "lon": -1.17282, "frp": 6.03, "fetch_timestamp": "2026-07-27T12:57:00" }, "geometry": { "type": "Point", "coordinates": [ -1.17282, 44.87419 ] } },
{ "type": "Feature", "properties": { "lat": 44.87982, "lon": -0.89767, "frp": 6.9, "fetch_timestamp": "2026-07-27T12:57:00" }, "geometry": { "type": "Point", "coordinates": [ -0.89767, 44.87982 ] } },
{ "type": "Feature", "properties": { "lat": 44.93626, "lon": -1.10444, "frp": 5.22, "fetch_timestamp": "2026-07-27T12:57:00" }, "geometry": { "type": "Point", "coordinates": [ -1.10444, 44.93626 ] } },
{ "type": "Feature", "properties": { "lat": 44.7224, "lon": -0.86118, "frp": 1.04, "fetch_timestamp": "2026-07-27T12:57:00" }, "geometry": { "type": "Point", "coordinates": [ -0.86118, 44.7224 ] } },
{ "type": "Feature", "properties": { "lat": 44.72678, "lon": -0.859, "frp": 1.12, "fetch_timestamp": "2026-07-27T12:57:00" }, "geometry": { "type": "Point", "coordinates": [ -0.859, 44.72678 ] } },
{ "type": "Feature", "properties": { "lat": 44.85514, "lon": -0.94069, "frp": 1.1, "fetch_timestamp": "2026-07-27T12:57:00" }, "geometry": { "type": "Point", "coordinates": [ -0.94069, 44.85514 ] } },
{ "type": "Feature", "properties": { "lat": 44.85671, "lon": -0.94691, "frp": 1.1, "fetch_timestamp": "2026-07-27T12:57:00" }, "geometry": { "type": "Point", "coordinates": [ -0.94691, 44.85671 ] } },
{ "type": "Feature", "properties": { "lat": 44.88209, "lon": -0.89224, "frp": 1.09, "fetch_timestamp": "2026-07-27T12:57:00" }, "geometry": { "type": "Point", "coordinates": [ -0.89224, 44.88209 ] } },
{ "type": "Feature", "properties": { "lat": 44.89635, "lon": -0.87097, "frp": 1.66, "fetch_timestamp": "2026-07-27T12:57:00" }, "geometry": { "type": "Point", "coordinates": [ -0.87097, 44.89635 ] } },
{ "type": "Feature", "properties": { "lat": 44.89791, "lon": -0.87721, "frp": 1.83, "fetch_timestamp": "2026-07-27T12:57:00" }, "geometry": { "type": "Point", "coordinates": [ -0.87721, 44.89791 ] } },
{ "type": "Feature", "properties": { "lat": 44.75686, "lon": -0.98124, "frp": 18.25, "fetch_timestamp": "2026-07-27T12:57:00" }, "geometry": { "type": "Point", "coordinates": [ -0.98124, 44.75686 ] } }
]
}
