{"type": "FeatureCollection", "name": "zone_active", "crs": {"type": "name", "properties": {"name": "urn:ogc:def:crs:OGC:1.3:CRS84"}}, "features": [{"type": "Feature", "properties": {"nb_detections_cluster": 1, "frp_max": 18.25, "frp_moyen": 18.25, "derniere_detection": "2026-07-27T12:38:00", "fetch_timestamp": "2026-07-27T14:18:00"}, "geometry": {"type": "Polygon", "coordinates": [[[-0.976823142154963, 44.7570187197127], [-0.976822588339504, 44.7567094886486], [-0.976864576272659, 44.756401707964386], [-0.976948700901604, 44.75609834170739], [-0.977074151413571, 44.75580231136391], [-0.977239719069254, 44.755516467727375], [-0.97744380886601, 44.755243563449184], [-0.977684454917645, 44.75498622653586], [-0.97795933940195, 44.75474693504815], [-0.978265814892936, 44.75452799324492], [-0.978600929862301, 44.754331509401425], [-0.978961457104322, 44.75415937551526], [-0.979343924810432, 44.7540132490949], [-0.979744649994429, 44.75389453720613], [-0.980159773946763, 44.75380438292928], [-0.980585299377085, 44.75374365435761], [-0.981017128888037, 44.7537129362427], [-0.981451104410641, 44.75371252436652], [-0.981883047222451, 44.753742422695034], [-0.982308798164064, 44.75380234333985], [-0.982724257667753, 44.75389170932901], [-0.983125425213693, 44.75400966015965], [-0.983508437834783, 44.75415506007997], [-0.983869607300084, 44.754326509020025], [-0.984205455619511, 44.75452235606719], [-0.984512748528435, 44.754740715356334], [-0.98478852663009, 44.754979484222126], [-0.985030133896123, 44.75523636343909], [-0.985235243250744, 44.75550887935487], [-0.985401878991956, 44.75579440770382], [-0.985528435833504, 44.756090198871924], [-0.985613694383594, 44.75639340437023], [-0.985656832910602, 44.75670110426189], [-0.985657435281586, 44.75701033527899], [-0.985615494996213, 44.75731811935848], [-0.985531415276224, 44.757621492322556], [-0.985406005208567, 44.75791753242715], [-0.985240471978291, 44.75820338850371], [-0.985036409265093, 44.75847630742281], [-0.98479578191436, 44.75873366061526], [-0.984520907029635, 44.758972969394726], [-0.984214431668003, 44.75919192883782], [-0.983879307352793, 44.75938842999142], [-0.983518761648886, 44.75956058019268], [-0.983136267074323, 44.759706721306145], [-0.982735507647852, 44.759825445701416], [-0.982320343394939, 44.759915609817526], [-0.981894773154662, 44.75997634518309], [-0.981462896046401, 44.760007066785484], [-0.981028871968271, 44.76000747870863], [-0.980596881508681, 44.75997757698483], [-0.980171085658111, 44.75991764963295], [-0.979755585710111, 44.75982827388271], [-0.979354383738764, 44.75971031061201], [-0.978971344034116, 44.7595648960508], [-0.978610155867912, 44.75939343083161], [-0.978274297948904, 44.75919756649269], [-0.977967004910628, 44.758979189563654], [-0.977691236154818, 44.75874040338778], [-0.977449647350674, 44.758483507855736], [-0.977244564864504, 44.758210977246826], [-0.977077963365766, 44.757925436391396], [-0.976951446824797, 44.75762963538403], [-0.976866233084661, 44.75732642309181], [-0.976823142154963, 44.7570187197127]]]}}, {"type": "Feature", "properties": {"nb_detections_cluster": 2, "frp_max": 7.57, "frp_moyen": 7.27, "derniere_detection": "2026-07-27T12:57:00", "fetch_timestamp": "2026-07-27T14:18:00"}, "geometry": {"type": "Polygon", "coordinates": [[[-0.892211842854808, 44.770555348176636], [-0.892211754064363, 44.770246115406266], [-0.892254215049282, 44.7699383655015], [-0.892338816200956, 44.76963506221273], [-0.8924647421177, 44.76933912641932], [-0.892630779482354, 44.76905340800369], [-0.892835328769537, 44.76878065841087], [-0.893076419668971, 44.768523504157386], [-0.893351730075574, 44.76828442154468], [-0.893658608462894, 44.7680657128199], [-0.893994099424018, 44.76786948401363], [-0.894354972133747, 44.76769762466739], [-0.894737751457992, 44.76755178964596], [-0.895138751410923, 44.76743338320903], [-0.895554110638121, 44.76734354549564], [-0.895979829584521, 44.767283141550855], [-0.896411808989989, 44.76725275300039], [-0.896845889342603, 44.767252672452905], [-0.897277890910686, 44.76728290068397], [-0.897703653969022, 44.76734314662863], [-0.898119078832933, 44.76743283018258], [-0.898520165315641, 44.76755108778515], [-0.898903051229911, 44.76769678073052], [-0.899264049564003, 44.76786850612702], [-0.899599683974664, 44.76806461039987], [-0.899906722255921, 44.76828320520681], [-0.900182207461716, 44.768522185614316], [-0.900423486382902, 44.768779250359586], [-0.900628235104323, 44.76905192400333], [-0.900794481395638, 44.76933758076055], [-0.900920623719909, 44.76963346978025], [-0.901005446676258, 44.76993674163067], [-0.901048132727176, 44.77024447573544], [-0.90104827009669, 44.77055370849661], [-0.901005856762346, 44.7708614618338], [-0.900921300501566, 44.77116477186475], [-0.900795414990904, 44.771460717450935], [-0.900629411994737, 44.77174644833363], [-0.900424889717682, 44.77201921258873], [-0.900183817432036, 44.772276383136195], [-0.899908516527561, 44.77251548304845], [-0.89960163816555, 44.77273420941352], [-0.899266137751944, 44.772930455522925], [-0.898905246475191, 44.773102331170186], [-0.898522440182905, 44.773248180864094], [-0.898121405897278, 44.773366599781106], [-0.897706006292121, 44.77345644730256], [-0.897280242474195, 44.77351685800648], [-0.89684821542803, 44.773547250007404], [-0.896414086496343, 44.77354733056409], [-0.895982037277686, 44.77351709890059], [-0.895556229328456, 44.77345684621377], [-0.895140764058464, 44.773367152867046], [-0.89473964320727, 44.77324888279738], [-0.89435673028287, 44.77310317518978], [-0.89399571333499, 44.77293143349927], [-0.8936600694222, 44.77273531192686], [-0.893353031115634, 44.77251669947964], [-0.893077555362324, 44.77227770176899], [-0.892836295008161, 44.77202062072269], [-0.892631573254783, 44.77174793240648], [-0.892465361296162, 44.77146226316919], [-0.89233925934985, 44.77116636434141], [-0.892254481265026, 44.770863085731854], [-0.892211842854808, 44.770555348176636]]]}}, {"type": "Feature", "properties": {"nb_detections_cluster": 13, "frp_max": 25.09, "frp_moyen": 7.83, "derniere_detection": "2026-07-27T14:18:00", "fetch_timestamp": "2026-07-27T14:18:00"}, "geometry": {"type": "Polygon", "coordinates": [[[-0.88832, 44.77559], [-0.88806, 44.77764], [-0.88187, 44.77715], [-0.87849, 44.7795], [-0.87369, 44.7774], [-0.87848, 44.77665], [-0.88806, 44.77516], [-0.88832, 44.77559]]]}}, {"type": "Feature", "properties": {"nb_detections_cluster": 4, "frp_max": 6.07, "frp_moyen": 4.3, "derniere_detection": "2026-07-27T12:57:00", "fetch_timestamp": "2026-07-27T14:18:00"}, "geometry": {"type": "Polygon", "coordinates": [[[-1.209382651086416, 44.77187798861119], [-1.20938081858247, 44.7715687584476], [-1.209421544891613, 44.771260889391186], [-1.209504437110011, 44.7709573463418], [-1.20962869629178, 44.77066105248976], [-1.2097931251682, 44.77037486116747], [-1.209996139700535, 44.77010152837575], [-1.210235784354354, 44.76984368624883], [-1.210509750947518, 44.769603817713474], [-1.210815400889723, 44.76938423258616], [-1.211149790599031, 44.76918704533768], [-1.211509699850396, 44.76901415473953], [-1.211891662783166, 44.76886722558718], [-1.212292001269144, 44.768747672676284], [-1.21270686032023, 44.768656647185665], [-1.213132245195214, 44.7685950255976], [-1.213564059849107, 44.76856340126249], [-1.21399814635555, 44.768562078688284], [-1.214430324923604, 44.768591070609915], [-1.21485643412455, 44.76865009786674], [-1.215272370942325, 44.76873859208925], [-1.215674130262883, 44.768855701168924], [-1.21605784342317, 44.7690002974594], [-1.216419815449289, 44.76917098862931], [-1.216756560625996, 44.769366131063215], [-1.217064836055542, 44.76958384568145], [-1.217341672883076, 44.76982203602725], [-1.217584404888106, 44.77007840844688], [-1.217790694166669, 44.7703504941693], [-1.217958553656689, 44.77063567307267], [-1.21808636628921, 44.770931198909395], [-1.21817290058049, 44.77123422574707], [-1.218217322514075, 44.771541835370805], [-1.218219203597583, 44.77185106538347], [-1.218178525015634, 44.77215893773324], [-1.218095677837936, 44.772462487393604], [-1.217971459279481, 44.772758790920285], [-1.217807065047859, 44.773044994609], [-1.217604077850425, 44.77331834198374], [-1.217364452171145, 44.77357620034988], [-1.217090495462977, 44.77381608615652], [-1.216784845936353, 44.77403568892352], [-1.216450447157237, 44.77423289350218], [-1.216090519699226, 44.77440580045504], [-1.215708530122639, 44.7745527443581], [-1.21530815757958, 44.774672309848825], [-1.214893258366949, 44.77476334526501], [-1.214467828769338, 44.77482497374291], [-1.2140359665504, 44.77485660166736], [-1.213601831464395, 44.77485792439247], [-1.213169605169145, 44.77482892917749], [-1.2127434509275, 44.77476989530965], [-1.212327473486411, 44.77468139141255], [-1.211925679521056, 44.77456426996642], [-1.211541939025868, 44.77441965909293], [-1.21117994802521, 44.7742489516838], [-1.210843192963505, 44.77405379197859], [-1.21053491711838, 44.77383605972067], [-1.210258089360654, 44.773597852044695], [-1.210015375562273, 44.773341463270384], [-1.209809112927526, 44.77306936279725], [-1.209641287494584, 44.77278417131402], [-1.209513515023608, 44.77248863555175], [-1.209427025454957, 44.77218560182425], [-1.209382651086416, 44.77187798861119]]]}}, {"type": "Feature", "properties": {"nb_detections_cluster": 2, "frp_max": 1.1, "frp_moyen": 1.1, "derniere_detection": "2026-07-27T02:53:00", "fetch_timestamp": "2026-07-27T14:18:00"}, "geometry": {"type": "Polygon", "coordinates": [[[-0.944785777346786, 44.85394886917571], [-0.945012294249914, 44.85386256624512], [-0.945413804352679, 44.85374397452074], [-0.945829721362099, 44.85365394582489], [-0.946256040352653, 44.85359334704161], [-0.946688656287097, 44.85356276167269], [-0.947123403525326, 44.853562484221946], [-0.947556095915337, 44.853592517360944], [-0.947982567081201, 44.85365257190321], [-0.948398710521111, 44.85374206958748], [-0.948800519130295, 44.85386014864289], [-0.949184123769193, 44.854005672082856], [-0.949545830506298, 44.85417723864807], [-0.949882156177695, 44.85437319629324], [-0.950189861921489, 44.85459165808816], [-0.950465984364489, 44.854830520380354], [-0.950707864161065, 44.85508748304463], [-0.950913171609302, 44.85536007162493], [-0.951079929097569, 44.8556456611557], [-0.951206530164933, 44.855941501433605], [-0.951291754991275, 44.85624474349658], [-0.95133478216722, 44.85655246705542], [-0.951335196629636, 44.856861708614105], [-0.951292993685364, 44.85716949000781], [-0.95120857908337, 44.8574728470844], [-0.951082765133629, 44.85776885825261], [-0.950916762909059, 44.85805467262232], [-0.950712170604694, 44.85832753746559], [-0.950470958165293, 44.858584824733846], [-0.950195448328727, 44.858824056375525], [-0.949888294267118, 44.85904292821005], [-0.94955245404065, 44.85923933212794], [-0.949191162109898, 44.85941137640285], [-0.94880789818099, 44.85955740391946], [-0.948406353683858, 44.85967600814144], [-0.947990396206816, 44.85976604666534], [-0.947564032230531, 44.85982665222941], [-0.947131368521025, 44.85985724107128], [-0.946696572554373, 44.85985751855368], [-0.946263832355184, 44.859827482003844], [-0.945837316136662, 44.85976742073928], [-0.945421132131968, 44.859677913279604], [-0.945019289004755, 44.85955982177138], [-0.944635657221087, 44.859414283679705], [-0.944273931755637, 44.85924270082695], [-0.943937596492033, 44.859046725884355], [-0.943629890660796, 44.85882824644681], [-0.943353777638477, 44.858589366844804], [-0.943111916408674, 44.858332387868764], [-0.942906635959793, 44.858059784601565], [-0.942814066342604, 44.85790121025291], [-0.942587529772851, 44.8579875088101], [-0.942185983365112, 44.85810609047395], [-0.941770027544399, 44.858196105646726], [-0.941343668775455, 44.85825668729158], [-0.94091101377416, 44.85828725187654], [-0.940476229932704, 44.85828750499797], [-0.940043505158887, 44.85825744421774], [-0.9396170075173, 44.85819735908678], [-0.939200845062118, 44.85810782835461], [-0.938799026249366, 44.857989714391884], [-0.938415421310841, 44.85784415488002], [-0.938053724962567, 44.857672551847685], [-0.937717420807644, 44.85747655816048], [-0.937409747776883, 44.857258061593846], [-0.937133668930836, 44.857019166643205], [-0.936891842923865, 44.856762174246796], [-0.936686598405071, 44.85648955961672], [-0.936519911602419, 44.856203948392384], [-0.936393387305533, 44.855908091345896], [-0.936308243429735, 44.855604837883874], [-0.936265299309259, 44.855297108600475], [-0.936264967831514, 44.85498786714686], [-0.936307251487186, 44.85468009168772], [-0.936391742373222, 44.85437674621975], [-0.936517626147604, 44.854080752028814], [-0.936683689896836, 44.85379495955997], [-0.936888333839392, 44.853522120971554], [-0.937129586751584, 44.85326486363735], [-0.937405124966529, 44.85302566485154], [-0.937712294762674, 44.85280682798015], [-0.938048137925897, 44.852610460287835], [-0.938409420238745, 44.8524384526536], [-0.938792662622507, 44.85229246137013], [-0.939194174632363, 44.852173892201876], [-0.93961008998344, 44.85208388685481], [-0.940036403766219, 44.85202331198815], [-0.940469010993615, 44.85199275087342], [-0.940903746109357, 44.851992497780884], [-0.941336423078151, 44.85202255514753], [-0.941762875672526, 44.85208263355363], [-0.942178997569446, 44.85217215450815], [-0.942580781871516, 44.852290256016104], [-0.942964359673167, 44.85243580087474], [-0.943326037301227, 44.85260738761849], [-0.943662331872005, 44.85280336400775], [-0.943970004823005, 44.8530218429318], [-0.944246093096739, 44.853260720573246], [-0.944487937676543, 44.85351769665898], [-0.944693209199572, 44.853790296603734], [-0.944785777346786, 44.85394886917571]]]}}, {"type": "Feature", "properties": {"nb_detections_cluster": 6, "frp_max": 20.59, "frp_moyen": 8.32, "derniere_detection": "2026-07-27T12:57:00", "fetch_timestamp": "2026-07-27T14:18:00"}, "geometry": {"type": "Polygon", "coordinates": [[[-0.89721, 44.88014], [-0.89767, 44.87982], [-0.896, 44.88251], [-0.89224, 44.88209], [-0.89721, 44.88014]]]}}, {"type": "Feature", "properties": {"nb_detections_cluster": 1, "frp_max": 0.98, "frp_moyen": 0.98, "derniere_detection": "2026-07-27T01:32:00", "fetch_timestamp": "2026-07-27T14:18:00"}, "geometry": {"type": "Polygon", "coordinates": [[[-0.975613641390349, 44.877738678079595], [-0.975613093046084, 44.87742943456989], [-0.975655177893724, 44.87712164195933], [-0.975739489944156, 44.87681826441007], [-0.975865216576865, 44.876522223517156], [-0.97603114639086, 44.87623637017562], [-0.976235680893591, 44.875963457130204], [-0.976476849914446, 44.87570611247188], [-0.976752330593596, 44.87546681433592], [-0.977059469762797, 44.87524786704518], [-0.977395309502177, 44.87505137892771], [-0.977756615626679, 44.87487924202218], [-0.978139908827842, 44.87473311386617], [-0.978541498171174, 44.874614401542104], [-0.978957516626938, 44.874524248134485], [-0.979383958292736, 44.874463521728174], [-0.979816716950149, 44.8744328070539], [-0.980251625584964, 44.87443239986049], [-0.980684496491363, 44.874462304068814], [-0.981111161574835, 44.87452223173389], [-0.981527512466743, 44.87461160581613], [-0.981929540065199, 44.87472956573482], [-0.982313373122446, 44.87487497565063], [-0.982675315507958, 44.87504643539742], [-0.983011881789144, 44.875242293958564], [-0.983319830787586, 44.875460665358034], [-0.983596196788007, 44.87569944681394], [-0.983838318099662, 44.875956338979606], [-0.984043862695063, 44.87622886807801], [-0.984210850678922, 44.87651440971659], [-0.984337673370556, 44.87681021415337], [-0.98442310881538, 44.87711343277166], [-0.984466333575391, 44.87742114550822], [-0.984466930684223, 44.87773038897146], [-0.984424893689209, 44.87803818497846], [-0.984340626740508, 44.87834156923653], [-0.984214940725405, 44.87863761989281], [-0.984049045483979, 44.87892348567711], [-0.983844538180173, 44.87919641336643], [-0.983603387939363, 44.879453774307116], [-0.983327916899668, 44.87969308973815], [-0.983020777858896, 44.87991205467206], [-0.982684928731982, 44.88010856010276], [-0.982323604064739, 44.88028071332621], [-0.981940283878219, 44.880426856177785], [-0.981538660143943, 44.8805455810103], [-0.981122601213274, 44.88063574425857], [-0.980696114544038, 44.88069647745954], [-0.980263308084111, 44.88072719562141], [-0.979828350684728, 44.88072760286126], [-0.979395431925704, 44.880697695256515], [-0.9789687217405, 44.88063776088264], [-0.978552330230986, 44.88054837703703], [-0.978150268059961, 44.88043040467558], [-0.977766407803788, 44.88028498011584], [-0.977404446638232, 44.88011350408667], [-0.97706787071759, 44.87991762823046], [-0.976759921590721, 44.87969923918783], [-0.976483564977835, 44.87946044041871], [-0.97624146220892, 44.879203531935126], [-0.976035944598877, 44.87893098814115], [-0.975868991005961, 44.87864543399412], [-0.975742208789233, 44.878349619716694], [-0.975656818347846, 44.87804639430374], [-0.975613641390349, 44.877738678079595]]]}}, {"type": "Feature", "properties": {"nb_detections_cluster": 2, "frp_max": 6.03, "frp_moyen": 5.11, "derniere_detection": "2026-07-27T12:57:00", "fetch_timestamp": "2026-07-27T14:18:00"}, "geometry": {"type": "Polygon", "coordinates": [[[-1.176030126633866, 44.87635815574638], [-1.175808596286095, 44.876516870966476], [-1.175473443225598, 44.87671395859336], [-1.175112732620969, 44.87688673833415], [-1.174729938576293, 44.87703354599008], [-1.17432874799315, 44.87715296751083], [-1.173913025048923, 44.877243852620865], [-1.173486773963715, 44.87730532590416], [-1.173054100415194, 44.87733679524039], [-1.172619171973815, 44.877337957511216], [-1.172186177940409, 44.87730880152141], [-1.17175928897394, 44.87724960810679], [-1.171342616899257, 44.877160947427775], [-1.170940175082975, 44.87704367347472], [-1.170555839760001, 44.87689891583821], [-1.170193312684047, 44.87672806882363], [-1.169856085462564, 44.87653277801508], [-1.169547405920137, 44.87631492441865], [-1.169270246814708, 44.876076606337584], [-1.169027277208088, 44.87582011915486], [-1.168820836766505, 44.87554793321767], [-1.168652913238494, 44.87526267003768], [-1.168525123326614, 44.874967077036224], [-1.168438697136668, 44.87466400107825], [-1.168394466353431, 44.87435636104985], [-1.168392856255931, 44.87404711974406], [-1.168433881648208, 44.87373925532563], [-1.168517146743716, 44.87343573264948], [-1.168641849003466, 44.87313947470943], [-1.168806786889919, 44.87285333449185], [-1.169010371460982, 44.872580067505154], [-1.169250641691607, 44.87232230524962], [-1.169525283374678, 44.872082529882725], [-1.169831651418602, 44.87186305032354], [-1.170166795326436, 44.871665980026144], [-1.170527487610982, 44.87149321663575], [-1.170910254872185, 44.87134642372282], [-1.171311411237738, 44.87122701477106], [-1.17172709384522, 44.87113613957301], [-1.17215330002465, 44.871074673163776], [-1.172585925824059, 44.87104320739952], [-1.173020805507968, 44.871042045261305], [-1.173453751649266, 44.87107119793927], [-1.173880595429457, 44.87113038472485], [-1.174297226760174, 44.87121903571243], [-1.174409979951238, 44.871251892229886], [-1.174631493480215, 44.87109318006429], [-1.174966615946184, 44.870896095329066], [-1.175327288516365, 44.87072331639054], [-1.175710037980478, 44.87057650696895], [-1.176111178637529, 44.87045708070696], [-1.176526847776306, 44.87036618756382], [-1.176953042856471, 44.87030470274738], [-1.177385660032903, 44.87027321829107], [-1.177820533653123, 44.870272037355946], [-1.1782534763484, 44.87030117131314], [-1.178680319333424, 44.87036033963434], [-1.179096952527498, 44.87044897259171], [-1.179499364111862, 44.87056621674091], [-1.17988367914316, 44.87071094313494], [-1.180246196852046, 44.870881758189654], [-1.180583426268448, 44.871077017096646], [-1.180892119831015, 44.87129483965463], [-1.18116930465742, 44.87153312836736], [-1.181412311174651, 44.87178958863382], [-1.181618798833496, 44.87206175083685], [-1.181786778659436, 44.872346994117976], [-1.181914632422382, 44.87264257160952], [-1.182001128240022, 44.87294563688138], [-1.18204543246384, 44.87325327134837], [-1.182047117732448, 44.87356251237386], [-1.182006167113729, 44.873870381799726], [-1.181922974294882, 44.87417391462742], [-1.1817983398175, 44.87447018757449], [-1.181633463392932, 44.874756347231006], [-1.181429932370958, 44.875029637544735], [-1.181189706471974, 44.87528742637047], [-1.180915098928982, 44.87552723082689], [-1.180608754220424, 44.87574674121723], [-1.180273622607866, 44.87594384328233], [-1.179912931723598, 44.87611663857204], [-1.179530155481699, 44.876263462737775], [-1.179128980612219, 44.87638290157023], [-1.178713271141136, 44.876473804627146], [-1.178287031158733, 44.87653529631962], [-1.177854366235701, 44.87656678434997], [-1.177419443859393, 44.876567965419866], [-1.176986453272208, 44.876538828152945], [-1.176559565099918, 44.87647965320472], [-1.176142891159739, 44.876391010557676], [-1.176030126633866, 44.87635815574638]]]}}, {"type": "Feature", "properties": {"nb_detections_cluster": 1, "frp_max": 5.22, "frp_moyen": 5.22, "derniere_detection": "2026-07-27T12:57:00", "fetch_timestamp": "2026-07-27T14:18:00"}, "geometry": {"type": "Polygon", "coordinates": [[[-1.100009367499243, 44.93642363893882], [-1.10000813268317, 44.93611439085984], [-1.100049578840551, 44.93580654594788], [-1.100133306131345, 44.935503068869544], [-1.10025850756439, 44.93520688217912], [-1.100423976794206, 44.93492083817641], [-1.10062811976132, 44.9346476914429], [-1.100868970063162, 44.9343900723205], [-1.101144207906731, 44.93415046158805], [-1.10145118245996, 44.933931166578965], [-1.101786937386098, 44.93373429897002], [-1.102148239314995, 44.93356175445444], [-1.102531608977101, 44.93341519449498], [-1.102933354700529, 44.933296030332095], [-1.10334960794898, 44.93320540940115], [-1.103776360558855, 44.933144204288865], [-1.104209503317672, 44.93311300433538], [-1.104644865513113, 44.93311210996229], [-1.105078255072781, 44.933141529781444], [-1.105505498909118, 44.933200980512], [-1.105922483081979, 44.933289889706785], [-1.106325192393082, 44.933407401261576], [-1.106709749032007, 44.933552383654465], [-1.107072449902398, 44.93372344083615], [-1.107409802269653, 44.93391892566662], [-1.107718557387377, 44.934136955768984], [-1.107995741779143, 44.934375431648235], [-1.108238685874545, 44.93463205690074], [-1.108445049723732, 44.934904360320346], [-1.108612845542586, 44.9351897196883], [-1.108740456871073, 44.93548538701864], [-1.108826654159621, 44.935788515015695], [-1.10887060663276, 44.936096184489784], [-1.108871890314847, 44.936405432466685], [-1.108830492139679, 44.936713280720824], [-1.108746810103367, 44.93701676445713], [-1.108621649457969, 44.937312960865455], [-1.10845621498152, 44.937599017272575], [-1.108252099397938, 44.937872178620246], [-1.108011268057462, 44.938129814004995], [-1.107736040024416, 44.93836944202304], [-1.107429065753855, 44.93858875467665], [-1.107093301571668, 44.938785639610984], [-1.106731981203709, 44.93895820046705], [-1.106348584628131, 44.9391047751541], [-1.10594680455109, 44.939223951865706], [-1.105530510829075, 44.93931458268429], [-1.105103713181063, 44.93937579464314], [-1.104670522550325, 44.939406998139], [-1.10423511148887, 44.93940789261415], [-1.103801673946988, 44.93937846945283], [-1.103374384856169, 44.93931901206431], [-1.102957359895662, 44.93923009315162], [-1.102554615831193, 44.93911256919244], [-1.102170031808734, 44.93896757218537], [-1.101807311976978, 44.93879649874134], [-1.101469949799199, 44.93860099662527], [-1.101161194398808, 44.938382948878385], [-1.100884019263091, 44.93814445567373], [-1.100641093606753, 44.93788781408076], [-1.100434756671038, 44.93761549593357], [-1.100266995205796, 44.937330124016874], [-1.100139424350874, 44.93703444679891], [-1.100053272100461, 44.936731311955285], [-1.100009367499243, 44.93642363893882]]]}}, {"type": "Feature", "properties": {"nb_detections_cluster": 5, "frp_max": 7.78, "frp_moyen": 4.04, "derniere_detection": "2026-07-27T12:57:00", "fetch_timestamp": "2026-07-27T14:18:00"}, "geometry": {"type": "Polygon", "coordinates": [[[-0.86437, 44.72418], [-0.859, 44.72678], [-0.86118, 44.7224], [-0.86437, 44.72418]]]}}, {"type": "Feature", "properties": {"nb_detections_cluster": 1, "frp_max": 1.52, "frp_moyen": 1.52, "derniere_detection": "2026-07-27T01:32:00", "fetch_timestamp": "2026-07-27T14:18:00"}, "geometry": {"type": "Polygon", "coordinates": [[[-0.809054339040605, 44.73586203172727], [-0.809054707189115, 44.73555280283953], [-0.809097596665741, 44.73524508871941], [-0.809182593736401, 44.734941852772124], [-0.809308879187853, 44.73464601522798], [-0.809475236241956, 44.73436042502287], [-0.809680062296199, 44.73408783236664], [-0.809921384376585, 44.73383086226419], [-0.810196878153325, 44.73359198924325], [-0.810503890335623, 44.73337351353241], [-0.810839464229518, 44.73317753891825], [-0.811200368212402, 44.733005952494366], [-0.811583126850033, 44.73286040649735], [-0.811984054356555, 44.73274230240377], [-0.812399290075672, 44.73265277744131], [-0.812824835641873, 44.73259269364354], [-0.813256593464532, 44.732562629553435], [-0.813690406165138, 44.73256287465549], [-0.814122096588782, 44.732593426589645], [-0.814547508005608, 44.73265399117401], [-0.814962544116075, 44.73274398523607], [-0.815363208475782, 44.73286254222527], [-0.815745642961118, 44.73300852055285], [-0.816106164906145, 44.73318051457911], [-0.81644130255381, 44.733376868142365], [-0.816747828480625, 44.73359569049962], [-0.817022790673315, 44.733834874525954], [-0.817263540958359, 44.73409211699746], [-0.817467760510626, 44.73436494076303], [-0.81763348219522, 44.734650718591624], [-0.817759109527019, 44.73494669846585], [-0.817843432064704, 44.73525003007852], [-0.817885637090306, 44.73555779227722], [-0.817885317460947, 44.735867021192924], [-0.817842475556184, 44.73617473878175], [-0.817757523281937, 44.73647798150516], [-0.817631278129952, 44.73677382887243], [-0.81746495532968, 44.73705943157021], [-0.817260156167277, 44.73733203890855], [-0.817018852583303, 44.73758902531833], [-0.816743368196739, 44.737827915645106], [-0.816436355937521, 44.73804640899526], [-0.816100772502568, 44.73824240090439], [-0.815739849881144, 44.73841400361418], [-0.81535706422376, 44.73855956426222], [-0.814956102354628, 44.73867768080893], [-0.814540826250578, 44.73876721554802], [-0.81411523582909, 44.73882730607025], [-0.813683430404555, 44.738857373574184], [-0.813249569184798, 44.738857128444145], [-0.81281783118929, 44.73882657304131], [-0.81239237497605, 44.73876600168083], [-0.811977298566117, 44.738675997795625], [-0.811576599952579, 44.73855742831376], [-0.811194138575404, 44.73841143530408], [-0.810833598133965, 44.7382394249705], [-0.810498451096125, 44.73804305410141], [-0.810191925246229, 44.737824214104805], [-0.809916972594598, 44.737585012783526], [-0.809676240948093, 44.73732775402611], [-0.809472048415578, 44.737054915609505], [-0.809306361093596, 44.73676912532779], [-0.80918077414673, 44.736473135676924], [-0.809096496464331, 44.73616979733982], [-0.809054339040605, 44.73586203172727]]]}}, {"type": "Feature", "properties": {"nb_detections_cluster": 4, "frp_max": 1.83, "frp_moyen": 1.18, "derniere_detection": "2026-07-27T02:53:00", "fetch_timestamp": "2026-07-27T14:18:00"}, "geometry": {"type": "Polygon", "coordinates": [[[-0.87526, 44.89452], [-0.87721, 44.89791], [-0.87455, 44.89899], [-0.87097, 44.89635], [-0.87526, 44.89452]]]}}]}