{
"type": "FeatureCollection",
"name": "zone_active_points",
"crs": { "type": "name", "properties": { "name": "urn:ogc:def:crs:OGC:1.3:CRS84" } },
"features": [
{ "type": "Feature", "properties": { "lat": 44.72193, "lon": -0.85073, "frp": 18.89, "fetch_timestamp": "2026-07-29T12:19:00" }, "geometry": { "type": "Point", "coordinates": [ -0.85073, 44.72193 ] } },
{ "type": "Feature", "properties": { "lat": 44.73507, "lon": -0.88144, "frp": 8.43, "fetch_timestamp": "2026-07-29T12:19:00" }, "geometry": { "type": "Point", "coordinates": [ -0.88144, 44.73507 ] } },
{ "type": "Feature", "properties": { "lat": 44.75178, "lon": -1.02458, "frp": 16.31, "fetch_timestamp": "2026-07-29T12:19:00" }, "geometry": { "type": "Point", "coordinates": [ -1.02458, 44.75178 ] } },
{ "type": "Feature", "properties": { "lat": 44.75669, "lon": -0.96211, "frp": 24.62, "fetch_timestamp": "2026-07-29T12:19:00" }, "geometry": { "type": "Point", "coordinates": [ -0.96211, 44.75669 ] } },
{ "type": "Feature", "properties": { "lat": 44.77166, "lon": -1.21473, "frp": 4.05, "fetch_timestamp": "2026-07-29T12:19:00" }, "geometry": { "type": "Point", "coordinates": [ -1.21473, 44.77166 ] } },
{ "type": "Feature", "properties": { "lat": 44.77172, "lon": -1.19513, "frp": 6.75, "fetch_timestamp": "2026-07-29T12:19:00" }, "geometry": { "type": "Point", "coordinates": [ -1.19513, 44.77172 ] } },
{ "type": "Feature", "properties": { "lat": 44.77533, "lon": -1.19656, "frp": 6.75, "fetch_timestamp": "2026-07-29T12:19:00" }, "geometry": { "type": "Point", "coordinates": [ -1.19656, 44.77533 ] } },
{ "type": "Feature", "properties": { "lat": 44.81327, "lon": -1.21262, "frp": 4.05, "fetch_timestamp": "2026-07-29T12:19:00" }, "geometry": { "type": "Point", "coordinates": [ -1.21262, 44.81327 ] } },
{ "type": "Feature", "properties": { "lat": 44.81687, "lon": -1.2141, "frp": 30.03, "fetch_timestamp": "2026-07-29T12:19:00" }, "geometry": { "type": "Point", "coordinates": [ -1.2141, 44.81687 ] } },
{ "type": "Feature", "properties": { "lat": 44.81698, "lon": -1.19448, "frp": 3.76, "fetch_timestamp": "2026-07-29T12:19:00" }, "geometry": { "type": "Point", "coordinates": [ -1.19448, 44.81698 ] } },
{ "type": "Feature", "properties": { "lat": 44.82058, "lon": -1.19594, "frp": 4.5, "fetch_timestamp": "2026-07-29T12:19:00" }, "geometry": { "type": "Point", "coordinates": [ -1.19594, 44.82058 ] } },
{ "type": "Feature", "properties": { "lat": 44.8495, "lon": -0.90298, "frp": 9.41, "fetch_timestamp": "2026-07-29T12:19:00" }, "geometry": { "type": "Point", "coordinates": [ -0.90298, 44.8495 ] } },
{ "type": "Feature", "properties": { "lat": 44.86923, "lon": -0.88006, "frp": 10.2, "fetch_timestamp": "2026-07-29T12:19:00" }, "geometry": { "type": "Point", "coordinates": [ -0.88006, 44.86923 ] } },
{ "type": "Feature", "properties": { "lat": 44.94883, "lon": -1.0553, "frp": 9.2, "fetch_timestamp": "2026-07-29T12:19:00" }, "geometry": { "type": "Point", "coordinates": [ -1.0553, 44.94883 ] } },
{ "type": "Feature", "properties": { "lat": 44.85622, "lon": -0.87471, "frp": 1.74, "fetch_timestamp": "2026-07-29T12:19:00" }, "geometry": { "type": "Point", "coordinates": [ -0.87471, 44.85622 ] } },
{ "type": "Feature", "properties": { "lat": 44.85842, "lon": -0.87317, "frp": 3.89, "fetch_timestamp": "2026-07-29T12:19:00" }, "geometry": { "type": "Point", "coordinates": [ -0.87317, 44.85842 ] } },
{ "type": "Feature", "properties": { "lat": 44.86324, "lon": -0.8747, "frp": 3.28, "fetch_timestamp": "2026-07-29T12:19:00" }, "geometry": { "type": "Point", "coordinates": [ -0.8747, 44.86324 ] } },
{ "type": "Feature", "properties": { "lat": 44.86544, "lon": -0.87319, "frp": 3.89, "fetch_timestamp": "2026-07-29T12:19:00" }, "geometry": { "type": "Point", "coordinates": [ -0.87319, 44.86544 ] } },
{ "type": "Feature", "properties": { "lat": 44.87027, "lon": -0.87469, "frp": 3.28, "fetch_timestamp": "2026-07-29T12:19:00" }, "geometry": { "type": "Point", "coordinates": [ -0.87469, 44.87027 ] } },
{ "type": "Feature", "properties": { "lat": 44.7214, "lon": -0.85197, "frp": 2.59, "fetch_timestamp": "2026-07-29T12:19:00" }, "geometry": { "type": "Point", "coordinates": [ -0.85197, 44.7214 ] } },
{ "type": "Feature", "properties": { "lat": 44.73674, "lon": -0.88297, "frp": 1.53, "fetch_timestamp": "2026-07-29T12:19:00" }, "geometry": { "type": "Point", "coordinates": [ -0.88297, 44.73674 ] } },
{ "type": "Feature", "properties": { "lat": 44.75157, "lon": -0.9661, "frp": 1.96, "fetch_timestamp": "2026-07-29T12:19:00" }, "geometry": { "type": "Point", "coordinates": [ -0.9661, 44.75157 ] } },
{ "type": "Feature", "properties": { "lat": 44.76895, "lon": -1.21664, "frp": 2.48, "fetch_timestamp": "2026-07-29T12:19:00" }, "geometry": { "type": "Point", "coordinates": [ -1.21664, 44.76895 ] } },
{ "type": "Feature", "properties": { "lat": 44.81834, "lon": -1.21721, "frp": 3.06, "fetch_timestamp": "2026-07-29T12:19:00" }, "geometry": { "type": "Point", "coordinates": [ -1.21721, 44.81834 ] } },
{ "type": "Feature", "properties": { "lat": 44.83302, "lon": -1.1673, "frp": 1.43, "fetch_timestamp": "2026-07-29T12:19:00" }, "geometry": { "type": "Point", "coordinates": [ -1.1673, 44.83302 ] } },
{ "type": "Feature", "properties": { "lat": 44.84577, "lon": -1.16915, "frp": 2.11, "fetch_timestamp": "2026-07-29T12:19:00" }, "geometry": { "type": "Point", "coordinates": [ -1.16915, 44.84577 ] } },
{ "type": "Feature", "properties": { "lat": 44.84927, "lon": -0.90141, "frp": 1.52, "fetch_timestamp": "2026-07-29T12:19:00" }, "geometry": { "type": "Point", "coordinates": [ -0.90141, 44.84927 ] } },
{ "type": "Feature", "properties": { "lat": 44.85678, "lon": -0.86141, "frp": 3.76, "fetch_timestamp": "2026-07-29T12:19:00" }, "geometry": { "type": "Point", "coordinates": [ -0.86141, 44.85678 ] } },
{ "type": "Feature", "properties": { "lat": 44.86821, "lon": -0.89397, "frp": 2.4, "fetch_timestamp": "2026-07-29T12:19:00" }, "geometry": { "type": "Point", "coordinates": [ -0.89397, 44.86821 ] } },
{ "type": "Feature", "properties": { "lat": 44.86896, "lon": -0.87863, "frp": 3.69, "fetch_timestamp": "2026-07-29T12:19:00" }, "geometry": { "type": "Point", "coordinates": [ -0.87863, 44.86896 ] } },
{ "type": "Feature", "properties": { "lat": 44.90614, "lon": -0.91483, "frp": 0.99, "fetch_timestamp": "2026-07-29T12:19:00" }, "geometry": { "type": "Point", "coordinates": [ -0.91483, 44.90614 ] } },
{ "type": "Feature", "properties": { "lat": 44.93868, "lon": -1.10024, "frp": 1.88, "fetch_timestamp": "2026-07-29T12:19:00" }, "geometry": { "type": "Point", "coordinates": [ -1.10024, 44.93868 ] } },
{ "type": "Feature", "properties": { "lat": 44.72105, "lon": -0.85111, "frp": 7.81, "fetch_timestamp": "2026-07-29T12:19:00" }, "geometry": { "type": "Point", "coordinates": [ -0.85111, 44.72105 ] } },
{ "type": "Feature", "properties": { "lat": 44.75151, "lon": -1.02665, "frp": 23.68, "fetch_timestamp": "2026-07-29T12:19:00" }, "geometry": { "type": "Point", "coordinates": [ -1.02665, 44.75151 ] } },
{ "type": "Feature", "properties": { "lat": 44.75586, "lon": -1.02876, "frp": 14.43, "fetch_timestamp": "2026-07-29T12:19:00" }, "geometry": { "type": "Point", "coordinates": [ -1.02876, 44.75586 ] } },
{ "type": "Feature", "properties": { "lat": 44.76735, "lon": -1.21762, "frp": 5.13, "fetch_timestamp": "2026-07-29T12:19:00" }, "geometry": { "type": "Point", "coordinates": [ -1.21762, 44.76735 ] } },
{ "type": "Feature", "properties": { "lat": 44.76894, "lon": -1.21128, "frp": 5.13, "fetch_timestamp": "2026-07-29T12:19:00" }, "geometry": { "type": "Point", "coordinates": [ -1.21128, 44.76894 ] } },
{ "type": "Feature", "properties": { "lat": 44.77691, "lon": -0.88659, "frp": 5.08, "fetch_timestamp": "2026-07-29T12:19:00" }, "geometry": { "type": "Point", "coordinates": [ -0.88659, 44.77691 ] } },
{ "type": "Feature", "properties": { "lat": 44.84512, "lon": -1.16392, "frp": 4.7, "fetch_timestamp": "2026-07-29T12:19:00" }, "geometry": { "type": "Point", "coordinates": [ -1.16392, 44.84512 ] } },
{ "type": "Feature", "properties": { "lat": 44.7555, "lon": -0.98182, "frp": 12.47, "fetch_timestamp": "2026-07-29T12:19:00" }, "geometry": { "type": "Point", "coordinates": [ -0.98182, 44.7555 ] } },
{ "type": "Feature", "properties": { "lat": 44.75742, "lon": -0.97452, "frp": 12.47, "fetch_timestamp": "2026-07-29T12:19:00" }, "geometry": { "type": "Point", "coordinates": [ -0.97452, 44.75742 ] } },
{ "type": "Feature", "properties": { "lat": 44.84716, "lon": -1.16329, "frp": 6.69, "fetch_timestamp": "2026-07-29T12:19:00" }, "geometry": { "type": "Point", "coordinates": [ -1.16329, 44.84716 ] } },
{ "type": "Feature", "properties": { "lat": 44.84922, "lon": -1.16252, "frp": 4.69, "fetch_timestamp": "2026-07-29T12:19:00" }, "geometry": { "type": "Point", "coordinates": [ -1.16252, 44.84922 ] } },
{ "type": "Feature", "properties": { "lat": 44.85846, "lon": -0.87966, "frp": 274.52, "fetch_timestamp": "2026-07-29T12:19:00" }, "geometry": { "type": "Point", "coordinates": [ -0.87966, 44.85846 ] } },
{ "type": "Feature", "properties": { "lat": 44.86035, "lon": -0.87251, "frp": 274.52, "fetch_timestamp": "2026-07-29T12:19:00" }, "geometry": { "type": "Point", "coordinates": [ -0.87251, 44.86035 ] } },
{ "type": "Feature", "properties": { "lat": 44.86497, "lon": -0.8749, "frp": 274.52, "fetch_timestamp": "2026-07-29T12:19:00" }, "geometry": { "type": "Point", "coordinates": [ -0.8749, 44.86497 ] } },
{ "type": "Feature", "properties": { "lat": 44.86685, "lon": -0.86775, "frp": 89.84, "fetch_timestamp": "2026-07-29T12:19:00" }, "geometry": { "type": "Point", "coordinates": [ -0.86775, 44.86685 ] } },
{ "type": "Feature", "properties": { "lat": 44.87261, "lon": -1.17472, "frp": 28.01, "fetch_timestamp": "2026-07-29T12:19:00" }, "geometry": { "type": "Point", "coordinates": [ -1.17472, 44.87261 ] } },
{ "type": "Feature", "properties": { "lat": 44.90771, "lon": -0.94435, "frp": 7.95, "fetch_timestamp": "2026-07-29T12:19:00" }, "geometry": { "type": "Point", "coordinates": [ -0.94435, 44.90771 ] } },
{ "type": "Feature", "properties": { "lat": 44.90915, "lon": -0.94677, "frp": 8.52, "fetch_timestamp": "2026-07-29T12:19:00" }, "geometry": { "type": "Point", "coordinates": [ -0.94677, 44.90915 ] } },
{ "type": "Feature", "properties": { "lat": 44.75051, "lon": -0.97545, "frp": 20.86, "fetch_timestamp": "2026-07-29T12:19:00" }, "geometry": { "type": "Point", "coordinates": [ -0.97545, 44.75051 ] } },
{ "type": "Feature", "properties": { "lat": 44.75356, "lon": -1.02517, "frp": 10.44, "fetch_timestamp": "2026-07-29T12:19:00" }, "geometry": { "type": "Point", "coordinates": [ -1.02517, 44.75356 ] } },
{ "type": "Feature", "properties": { "lat": 44.75471, "lon": -0.99247, "frp": 6.16, "fetch_timestamp": "2026-07-29T12:19:00" }, "geometry": { "type": "Point", "coordinates": [ -0.99247, 44.75471 ] } },
{ "type": "Feature", "properties": { "lat": 44.75477, "lon": -1.0249, "frp": 11.56, "fetch_timestamp": "2026-07-29T12:19:00" }, "geometry": { "type": "Point", "coordinates": [ -1.0249, 44.75477 ] } },
{ "type": "Feature", "properties": { "lat": 44.75491, "lon": -0.98704, "frp": 27.29, "fetch_timestamp": "2026-07-29T12:19:00" }, "geometry": { "type": "Point", "coordinates": [ -0.98704, 44.75491 ] } },
{ "type": "Feature", "properties": { "lat": 44.7551, "lon": -0.98159, "frp": 27.29, "fetch_timestamp": "2026-07-29T12:19:00" }, "geometry": { "type": "Point", "coordinates": [ -0.98159, 44.7551 ] } },
{ "type": "Feature", "properties": { "lat": 44.75529, "lon": -0.97612, "frp": 20.61, "fetch_timestamp": "2026-07-29T12:19:00" }, "geometry": { "type": "Point", "coordinates": [ -0.97612, 44.75529 ] } },
{ "type": "Feature", "properties": { "lat": 44.75548, "lon": -0.97066, "frp": 20.61, "fetch_timestamp": "2026-07-29T12:19:00" }, "geometry": { "type": "Point", "coordinates": [ -0.97066, 44.75548 ] } },
{ "type": "Feature", "properties": { "lat": 44.75576, "lon": -0.99219, "frp": 16.45, "fetch_timestamp": "2026-07-29T12:19:00" }, "geometry": { "type": "Point", "coordinates": [ -0.99219, 44.75576 ] } },
{ "type": "Feature", "properties": { "lat": 44.75586, "lon": -0.95976, "frp": 6.91, "fetch_timestamp": "2026-07-29T12:19:00" }, "geometry": { "type": "Point", "coordinates": [ -0.95976, 44.75586 ] } },
{ "type": "Feature", "properties": { "lat": 44.75592, "lon": -0.98675, "frp": 16.45, "fetch_timestamp": "2026-07-29T12:19:00" }, "geometry": { "type": "Point", "coordinates": [ -0.98675, 44.75592 ] } },
{ "type": "Feature", "properties": { "lat": 44.75608, "lon": -0.98128, "frp": 20.86, "fetch_timestamp": "2026-07-29T12:19:00" }, "geometry": { "type": "Point", "coordinates": [ -0.98128, 44.75608 ] } },
{ "type": "Feature", "properties": { "lat": 44.75624, "lon": -0.97582, "frp": 20.86, "fetch_timestamp": "2026-07-29T12:19:00" }, "geometry": { "type": "Point", "coordinates": [ -0.97582, 44.75624 ] } },
{ "type": "Feature", "properties": { "lat": 44.75641, "lon": -0.97036, "frp": 14.83, "fetch_timestamp": "2026-07-29T12:19:00" }, "geometry": { "type": "Point", "coordinates": [ -0.97036, 44.75641 ] } },
{ "type": "Feature", "properties": { "lat": 44.75673, "lon": -0.95944, "frp": 3.14, "fetch_timestamp": "2026-07-29T12:19:00" }, "geometry": { "type": "Point", "coordinates": [ -0.95944, 44.75673 ] } },
{ "type": "Feature", "properties": { "lat": 44.81698, "lon": -1.21776, "frp": 6.19, "fetch_timestamp": "2026-07-29T12:19:00" }, "geometry": { "type": "Point", "coordinates": [ -1.21776, 44.81698 ] } },
{ "type": "Feature", "properties": { "lat": 44.81717, "lon": -1.21247, "frp": 4.63, "fetch_timestamp": "2026-07-29T12:19:00" }, "geometry": { "type": "Point", "coordinates": [ -1.21247, 44.81717 ] } },
{ "type": "Feature", "properties": { "lat": 44.84729, "lon": -1.16614, "frp": 6.39, "fetch_timestamp": "2026-07-29T12:19:00" }, "geometry": { "type": "Point", "coordinates": [ -1.16614, 44.84729 ] } },
{ "type": "Feature", "properties": { "lat": 44.84886, "lon": -1.16499, "frp": 9.11, "fetch_timestamp": "2026-07-29T12:19:00" }, "geometry": { "type": "Point", "coordinates": [ -1.16499, 44.84886 ] } },
{ "type": "Feature", "properties": { "lat": 44.8507, "lon": -0.90408, "frp": 23.08, "fetch_timestamp": "2026-07-29T12:19:00" }, "geometry": { "type": "Point", "coordinates": [ -0.90408, 44.8507 ] } },
{ "type": "Feature", "properties": { "lat": 44.85088, "lon": -0.89853, "frp": 13.24, "fetch_timestamp": "2026-07-29T12:19:00" }, "geometry": { "type": "Point", "coordinates": [ -0.89853, 44.85088 ] } },
{ "type": "Feature", "properties": { "lat": 44.8574, "lon": -0.87658, "frp": 39.98, "fetch_timestamp": "2026-07-29T12:19:00" }, "geometry": { "type": "Point", "coordinates": [ -0.87658, 44.8574 ] } },
{ "type": "Feature", "properties": { "lat": 44.85746, "lon": -0.87504, "frp": 56.27, "fetch_timestamp": "2026-07-29T12:19:00" }, "geometry": { "type": "Point", "coordinates": [ -0.87504, 44.85746 ] } },
{ "type": "Feature", "properties": { "lat": 44.86324, "lon": -0.87537, "frp": 56.27, "fetch_timestamp": "2026-07-29T12:19:00" }, "geometry": { "type": "Point", "coordinates": [ -0.87537, 44.86324 ] } },
{ "type": "Feature", "properties": { "lat": 44.86335, "lon": -0.87133, "frp": 39.98, "fetch_timestamp": "2026-07-29T12:19:00" }, "geometry": { "type": "Point", "coordinates": [ -0.87133, 44.86335 ] } },
{ "type": "Feature", "properties": { "lat": 44.86885, "lon": -0.88126, "frp": 16.23, "fetch_timestamp": "2026-07-29T12:19:00" }, "geometry": { "type": "Point", "coordinates": [ -0.88126, 44.86885 ] } },
{ "type": "Feature", "properties": { "lat": 44.86893, "lon": -0.8772, "frp": 22.0, "fetch_timestamp": "2026-07-29T12:19:00" }, "geometry": { "type": "Point", "coordinates": [ -0.8772, 44.86893 ] } },
{ "type": "Feature", "properties": { "lat": 44.86901, "lon": -0.8757, "frp": 41.88, "fetch_timestamp": "2026-07-29T12:19:00" }, "geometry": { "type": "Point", "coordinates": [ -0.8757, 44.86901 ] } },
{ "type": "Feature", "properties": { "lat": 44.86913, "lon": -0.87164, "frp": 22.0, "fetch_timestamp": "2026-07-29T12:19:00" }, "geometry": { "type": "Point", "coordinates": [ -0.87164, 44.86913 ] } },
{ "type": "Feature", "properties": { "lat": 44.86965, "lon": -1.17818, "frp": 7.1, "fetch_timestamp": "2026-07-29T12:19:00" }, "geometry": { "type": "Point", "coordinates": [ -1.17818, 44.86965 ] } },
{ "type": "Feature", "properties": { "lat": 44.86985, "lon": -1.1728, "frp": 13.67, "fetch_timestamp": "2026-07-29T12:19:00" }, "geometry": { "type": "Point", "coordinates": [ -1.1728, 44.86985 ] } },
{ "type": "Feature", "properties": { "lat": 44.87111, "lon": -1.18251, "frp": 6.37, "fetch_timestamp": "2026-07-29T12:19:00" }, "geometry": { "type": "Point", "coordinates": [ -1.18251, 44.87111 ] } },
{ "type": "Feature", "properties": { "lat": 44.87128, "lon": -1.17714, "frp": 6.37, "fetch_timestamp": "2026-07-29T12:19:00" }, "geometry": { "type": "Point", "coordinates": [ -1.17714, 44.87128 ] } },
{ "type": "Feature", "properties": { "lat": 44.87146, "lon": -1.17175, "frp": 10.33, "fetch_timestamp": "2026-07-29T12:19:00" }, "geometry": { "type": "Point", "coordinates": [ -1.17175, 44.87146 ] } },
{ "type": "Feature", "properties": { "lat": 44.87162, "lon": -0.966, "frp": 4.08, "fetch_timestamp": "2026-07-29T12:19:00" }, "geometry": { "type": "Point", "coordinates": [ -0.966, 44.87162 ] } },
{ "type": "Feature", "properties": { "lat": 44.87199, "lon": -0.97016, "frp": 2.35, "fetch_timestamp": "2026-07-29T12:19:00" }, "geometry": { "type": "Point", "coordinates": [ -0.97016, 44.87199 ] } },
{ "type": "Feature", "properties": { "lat": 44.87534, "lon": -1.17843, "frp": 7.1, "fetch_timestamp": "2026-07-29T12:19:00" }, "geometry": { "type": "Point", "coordinates": [ -1.17843, 44.87534 ] } },
{ "type": "Feature", "properties": { "lat": 44.87697, "lon": -1.17741, "frp": 6.37, "fetch_timestamp": "2026-07-29T12:19:00" }, "geometry": { "type": "Point", "coordinates": [ -1.17741, 44.87697 ] } },
{ "type": "Feature", "properties": { "lat": 44.88284, "lon": -1.17239, "frp": 3.3, "fetch_timestamp": "2026-07-29T12:19:00" }, "geometry": { "type": "Point", "coordinates": [ -1.17239, 44.88284 ] } },
{ "type": "Feature", "properties": { "lat": 44.91221, "lon": -0.9724, "frp": 6.71, "fetch_timestamp": "2026-07-29T12:19:00" }, "geometry": { "type": "Point", "coordinates": [ -0.9724, 44.91221 ] } },
{ "type": "Feature", "properties": { "lat": 44.91238, "lon": -0.9669, "frp": 7.68, "fetch_timestamp": "2026-07-29T12:19:00" }, "geometry": { "type": "Point", "coordinates": [ -0.9669, 44.91238 ] } },
{ "type": "Feature", "properties": { "lat": 44.91256, "lon": -0.96141, "frp": 7.68, "fetch_timestamp": "2026-07-29T12:19:00" }, "geometry": { "type": "Point", "coordinates": [ -0.96141, 44.91256 ] } },
{ "type": "Feature", "properties": { "lat": 44.94962, "lon": -1.05671, "frp": 11.01, "fetch_timestamp": "2026-07-29T12:19:00" }, "geometry": { "type": "Point", "coordinates": [ -1.05671, 44.94962 ] } },
{ "type": "Feature", "properties": { "lat": 44.75474, "lon": -1.02682, "frp": 0.95, "fetch_timestamp": "2026-07-29T12:19:00" }, "geometry": { "type": "Point", "coordinates": [ -1.02682, 44.75474 ] } },
{ "type": "Feature", "properties": { "lat": 44.8173, "lon": -1.22391, "frp": 0.87, "fetch_timestamp": "2026-07-29T12:19:00" }, "geometry": { "type": "Point", "coordinates": [ -1.22391, 44.8173 ] } },
{ "type": "Feature", "properties": { "lat": 44.81828, "lon": -1.20847, "frp": 1.83, "fetch_timestamp": "2026-07-29T12:19:00" }, "geometry": { "type": "Point", "coordinates": [ -1.20847, 44.81828 ] } }
]
}
