{"type": "FeatureCollection", "name": "zone_active", "crs": {"type": "name", "properties": {"name": "urn:ogc:def:crs:OGC:1.3:CRS84"}}, "features": [{"type": "Feature", "properties": {"nb_detections_cluster": 80, "frp_max": 172.97, "frp_moyen": 11.75, "derniere_detection": "2026-07-26T13:16:00", "fetch_timestamp": "2026-07-27T02:53:00"}, "geometry": {"type": "Polygon", "coordinates": [[[-1.06478, 44.76099], [-1.06695, 44.76557], [-1.06168, 44.76625], [-1.05894, 44.76934], [-1.05397, 44.76783], [-1.0517, 44.76329], [-1.04402, 44.76482], [-1.04362, 44.76708], [-1.03864, 44.7656], [-1.03289, 44.76396], [-1.02861, 44.76262], [-1.02356, 44.76112], [-1.02405, 44.75876], [-1.02169, 44.75436], [-1.02718, 44.7535], [-1.02485, 44.74911], [-1.02302, 44.74669], [-1.0253, 44.74672], [-1.03028, 44.74822], [-1.03492, 44.75211], [-1.0403, 44.75127], [-1.03798, 44.74682], [-1.04298, 44.74831], [-1.04797, 44.7498], [-1.04523, 44.75277], [-1.04488, 44.75507], [-1.04437, 44.75884], [-1.05207, 44.76105], [-1.05481, 44.75803], [-1.0598, 44.75951], [-1.06478, 44.76099]]]}}, {"type": "Feature", "properties": {"nb_detections_cluster": 15, "frp_max": 8.42, "frp_moyen": 3.82, "derniere_detection": "2026-07-26T12:55:00", "fetch_timestamp": "2026-07-27T02:53:00"}, "geometry": {"type": "Polygon", "coordinates": [[[-1.12435, 44.77868], [-1.12313, 44.78123], [-1.12131, 44.78203], [-1.11639, 44.78055], [-1.11146, 44.77905], [-1.10654, 44.77756], [-1.1095, 44.77428], [-1.10706, 44.7727], [-1.10456, 44.77281], [-1.10957, 44.7723], [-1.11206, 44.77185], [-1.1145, 44.77379], [-1.11444, 44.77574], [-1.12437, 44.77678], [-1.12435, 44.77868]]]}}, {"type": "Feature", "properties": {"nb_detections_cluster": 3, "frp_max": 14.35, "frp_moyen": 7.11, "derniere_detection": "2026-07-26T12:55:00", "fetch_timestamp": "2026-07-27T02:53:00"}, "geometry": {"type": "Polygon", "coordinates": [[[-1.21891, 44.776], [-1.21136, 44.77644], [-1.21022, 44.77311], [-1.21891, 44.776]]]}}, {"type": "Feature", "properties": {"nb_detections_cluster": 1, "frp_max": 0.94, "frp_moyen": 0.94, "derniere_detection": "2026-07-26T03:10:00", "fetch_timestamp": "2026-07-27T02:53:00"}, "geometry": {"type": "Polygon", "coordinates": [[[-1.196672210281223, 44.7770074824118], [-1.196670447494388, 44.77669825149348], [-1.196711247093221, 44.77639038656446], [-1.196794215467983, 44.77608685248479], [-1.19691855293933, 44.77579057235831], [-1.197083061484588, 44.77550439938518], [-1.197286156297833, 44.775231089389465], [-1.1975258810716, 44.77497327428576], [-1.197799926852308, 44.77473343674062], [-1.198105654287227, 44.77451388627197], [-1.19844011904835, 44.774316737016875], [-1.198800100188081, 44.77414388738091], [-1.199182131153703, 44.77399700176512], [-1.199582533162085, 44.773877494545914], [-1.199997450613619, 44.7737865164621], [-1.2004228882049, 44.77372494353953], [-1.200854749383458, 44.77369336865995], [-1.201288875775044, 44.77369209585512], [-1.201721087204736, 44.77372113738077], [-1.202147221927423, 44.773780213598606], [-1.202563176681286, 44.77386875566765], [-1.202964946179528, 44.773985911018706], [-1.203348661661011, 44.77413055155982], [-1.203710628129369, 44.77430128453354], [-1.204047359922727, 44.77449646592185], [-1.20435561427203, 44.77471421626996], [-1.204632422525215, 44.774952438777], [-1.204875118736732, 44.77520883947949], [-1.205081365347074, 44.775480949334], [-1.205249175704825, 44.77576614798624], [-1.205376933213948, 44.77606168899836], [-1.205463406921339, 44.77636472629172], [-1.205507763393793, 44.77667234155069], [-1.205509574769184, 44.77698157232378], [-1.20546882290333, 44.77728944055175], [-1.20538589957162, 44.77759298124772], [-1.205261602722417, 44.77788927105365], [-1.205097128817309, 44.77817545639736], [-1.204894061331019, 44.77844878097942], [-1.204654355520853, 44.778706612324655], [-1.204380319611629, 44.77894646714242], [-1.204074592576723, 44.77916603525092], [-1.203740118728772, 44.77936320183529], [-1.20338011936457, 44.77953606782393], [-1.202998061737192, 44.77968296818744], [-1.202597625654364, 44.7798024879826], [-1.202182668025159, 44.77989347598734], [-1.201757185696984, 44.77995505579459], [-1.201325276941524, 44.77998663425798], [-1.200891101961382, 44.77998790720803], [-1.200458842798709, 44.77995886238343], [-1.200032663032971, 44.77989977954928], [-1.199616667656965, 44.7798112278008], [-1.199214863518573, 44.77969406007915], [-1.198831120710135, 44.77954940495168], [-1.198469135278175, 44.77937865573642], [-1.198132393613334, 44.77918345707552], [-1.197824138864017, 44.77896568908753], [-1.197547339697662, 44.77872744925124], [-1.197304661710616, 44.77847103219604], [-1.197098441762029, 44.778198907593826], [-1.196930665478724, 44.777913696365644], [-1.196802948147272, 44.77761814543259], [-1.196716519176775, 44.777315101254565], [-1.196672210281223, 44.7770074824118]]]}}, {"type": "Feature", "properties": {"nb_detections_cluster": 9, "frp_max": 42.37, "frp_moyen": 8.83, "derniere_detection": "2026-07-26T12:55:00", "fetch_timestamp": "2026-07-27T02:53:00"}, "geometry": {"type": "Polygon", "coordinates": [[[-1.10388, 44.80218], [-1.10094, 44.80678], [-1.0929, 44.81055], [-1.09599, 44.80529], [-1.09103, 44.8038], [-1.0989, 44.80304], [-1.09907, 44.80004], [-1.10275, 44.79885], [-1.10403, 44.80153], [-1.10388, 44.80218]]]}}, {"type": "Feature", "properties": {"nb_detections_cluster": 1, "frp_max": 0.65, "frp_moyen": 0.65, "derniere_detection": "2026-07-26T03:10:00", "fetch_timestamp": "2026-07-27T02:53:00"}, "geometry": {"type": "Polygon", "coordinates": [[[-1.210739512337379, 44.81186804503346], [-1.210737671064782, 44.81155881067866], [-1.210778418917256, 44.811250936927486], [-1.21086136278251, 44.810947388725076], [-1.210985703216341, 44.81065108931131], [-1.211150242166685, 44.81036489207219], [-1.211353394534003, 44.810091553065526], [-1.211593203455861, 44.80983370448536], [-1.211867359167716, 44.809593829320626], [-1.21217322125772, 44.809374237451586], [-1.212507844100806, 44.80917704341398], [-1.212868005226883, 44.809004146044636], [-1.213250236349961, 44.80885721020426], [-1.213650856759549, 44.80873765075292], [-1.214066008753146, 44.80864661893232], [-1.214491694769158, 44.80858499128574], [-1.214923815863349, 44.80855336122191], [-1.215358211159143, 44.808552033303926], [-1.215790697892787, 44.80858102031819], [-1.216217111668739, 44.80864004315133], [-1.216633346538647, 44.80872853347636], [-1.217035394518904, 44.80884563922237], [-1.217419384167232, 44.808990232775095], [-1.217781617847585, 44.809160921829545], [-1.218118607325254, 44.80935606279063], [-1.218427107349968, 44.80957377659293], [-1.218704146903931, 44.809811966787485], [-1.218947057814125, 44.81006833972209], [-1.219153500453282, 44.81034042662076], [-1.219321486281852, 44.81062560735036], [-1.219449397013492, 44.810921135645664], [-1.2195360002189, 44.811224165550655], [-1.219580461217034, 44.8115317788209], [-1.21958235113833, 44.811841013024186], [-1.219541651081301, 44.81214889006827], [-1.219458752321487, 44.812452444881544], [-1.219334452569711, 44.81274875397001], [-1.219169948314655, 44.81303496357588], [-1.218966823322534, 44.813308317166154], [-1.218727033403769, 44.81356618198628], [-1.218452887592622, 44.81380607442327], [-1.218147025920465, 44.814025683933096], [-1.217812393996307, 44.81422289530206], [-1.21745221463922, 44.8143958090273], [-1.217069956835801, 44.81454275961962], [-1.216669302321851, 44.81466233165202], [-1.216254110110484, 44.81475337339931], [-1.215828379308838, 44.814815007936694], [-1.215396210582237, 44.81484664159067], [-1.214961766637745, 44.81484796966018], [-1.214529232108656, 44.81481897935297], [-1.214102773227263, 44.81475994990899], [-1.213686497675299, 44.81467144990924], [-1.213284414999753, 44.81455433179646], [-1.212900397976229, 44.814409723660155], [-1.212538145292786, 44.81423901836575], [-1.212201145914409, 44.81404386013242], [-1.211892645471848, 44.81382612868936], [-1.211615614998956, 44.81358792116341], [-1.211372722319772, 44.81333153187287], [-1.211166306360956, 44.81305943022226], [-1.210998354636748, 44.812774236911636], [-1.210870484122879, 44.812478698689645], [-1.210783925703105, 44.812175661893846], [-1.210739512337379, 44.81186804503346]]]}}, {"type": "Feature", "properties": {"nb_detections_cluster": 4, "frp_max": 5.95, "frp_moyen": 4.63, "derniere_detection": "2026-07-26T13:16:00", "fetch_timestamp": "2026-07-27T02:53:00"}, "geometry": {"type": "Polygon", "coordinates": [[[-1.19422, 44.81779], [-1.19518, 44.82023], [-1.18944, 44.82088], [-1.18862, 44.81731], [-1.19422, 44.81779]]]}}, {"type": "Feature", "properties": {"nb_detections_cluster": 1, "frp_max": 3.56, "frp_moyen": 3.56, "derniere_detection": "2026-07-26T13:16:00", "fetch_timestamp": "2026-07-27T02:53:00"}, "geometry": {"type": "Polygon", "coordinates": [[[-1.112496978753405, 44.84037413154857], [-1.112495677311598, 44.840064892887696], [-1.112536984186609, 44.839757052560266], [-1.112620500882079, 44.839453575188884], [-1.112745422437137, 44.83915738333072], [-1.112910545203565, 44.83887132933543], [-1.113114278460076, 44.838598167880825], [-1.113354659750999, 44.838340529450655], [-1.113629373800894, 44.83810089500977], [-1.113935774822375, 44.837881572119976], [-1.11427091200191, 44.83768467272659], [-1.114631557917913, 44.837512092828945], [-1.115014239617484, 44.83736549423055], [-1.115415272052683, 44.83724628854398], [-1.115830793554719, 44.83715562360445], [-1.116256803004995, 44.83709437242251], [-1.116689198345761, 44.837063124781835], [-1.117123816060345, 44.83706218156326], [-1.117556471243705, 44.83709155184892], [-1.117982997878407, 44.83715095283497], [-1.118399288929206, 44.837239812553186], [-1.118801335871086, 44.83735727537573], [-1.119185267271048, 44.83750221024996], [-1.119547386052966, 44.83767322158414], [-1.119884205087339, 44.83786866267969], [-1.120192480763791, 44.838086651580866], [-1.120469244223389, 44.83832508918944], [-1.120711829950203, 44.83858167947027], [-1.12091790144678, 44.83885395155405], [-1.121085473746026, 44.83913928352382], [-1.121212932542369, 44.83943492765745], [-1.121299049757325, 44.83973803688278], [-1.121342995388871, 44.84004569219092], [-1.121344345529654, 44.840354930744176], [-1.121303086475844, 44.840662774407775], [-1.121219614886056, 44.84096625843099], [-1.121094733987775, 44.84126246000097], [-1.120929645866803, 44.841548526394845], [-1.12072593991302, 44.841821702458326], [-1.120485577532871, 44.84207935714627], [-1.120210873275064, 44.84231900886906], [-1.119904472550678, 44.84253834940071], [-1.119569326161831, 44.842735266117984], [-1.119208661884018, 44.84290786235578], [-1.118825953375771, 44.84305447568263], [-1.118424886715275, 44.843173693919994], [-1.118009324886578, 44.843264368750305], [-1.117583270558008, 44.84332562678296], [-1.117150827511961, 44.843356877970926], [-1.1167161610984, 44.84335782129715], [-1.11628345809384, 44.84332844767527], [-1.115856886353457, 44.84326904003743], [-1.115440554645878, 44.84318017060739], [-1.115038473058544, 44.84306269538626], [-1.114654514355853, 44.84291774590315], [-1.114292376663162, 44.84274671831121], [-1.113955547836703, 44.84255125993375], [-1.113647271863154, 44.8423332533907], [-1.113370517612868, 44.84209479845826], [-1.113127950247863, 44.84183819183725], [-1.112921905559964, 44.84156590502502], [-1.112754367486015, 44.84128056050448], [-1.112626949016333, 44.840984906480045], [-1.112540876679672, 44.84068179040403], [-1.112496978753405, 44.84037413154857]]]}}, {"type": "Feature", "properties": {"nb_detections_cluster": 1, "frp_max": 1.89, "frp_moyen": 1.89, "derniere_detection": "2026-07-26T12:55:00", "fetch_timestamp": "2026-07-27T02:53:00"}, "geometry": {"type": "Polygon", "coordinates": [[[-1.145256811038293, 44.8437254372919], [-1.145255329184983, 44.843416198703984], [-1.145296459004056, 44.84310834587387], [-1.145379803704109, 44.84280484354472], [-1.145504559980382, 44.842508614514294], [-1.145669525775994, 44.842222511490405], [-1.145873111880903, 44.84194928962318], [-1.146113357256059, 44.84169157997831], [-1.146387947934398, 44.84145186420653], [-1.146694239316085, 44.841232450652974], [-1.147029281642893, 44.841035452136104], [-1.147389848406163, 44.84086276560981], [-1.147772467414775, 44.84071605390442], [-1.148173454224097, 44.84059672972166], [-1.148588947604383, 44.8405059420378], [-1.149014946707609, 44.840444565045274], [-1.149447349575523, 44.84041318973925], [-1.149881992618927, 44.84041211822979], [-1.150314690688926, 44.84044136083437], [-1.15074127735526, 44.84050063597852], [-1.151157645004843, 44.84058937290579], [-1.151559784375356, 44.84070671717072], [-1.151943823144135, 44.84085153886226], [-1.152306063201559, 44.84102244347857], [-1.152643016250747, 44.841217785348775], [-1.152951437391277, 44.84143568347266], [-1.153228356363894, 44.84167403962623], [-1.153471106155553, 44.84193055855885], [-1.15367734868927, 44.84220277008839], [-1.153845097351214, 44.84248805288122], [-1.153972736137699, 44.84278365968895], [-1.15405903523709, 44.84308674379901], [-1.154103162895872, 44.84339438644467], [-1.154104693453704, 44.843703624910304], [-1.154063611469161, 44.84401148106225], [-1.153980311895391, 44.844314990029694], [-1.153855596302978, 44.84461122875977], [-1.153690665185344, 44.84489734417188], [-1.153487106419876, 44.84517058063986], [-1.153246879994985, 44.845428306536895], [-1.152972299149486, 44.84566803958771], [-1.152666008105345, 44.84588747078312], [-1.152330956607815, 44.84608448662673], [-1.151970371517982, 44.84625718949878], [-1.151587725731245, 44.84640391594076], [-1.151186704721307, 44.846523252684655], [-1.15077117103222, 44.846614050271455], [-1.150345127061056, 44.8466754341282], [-1.149912676490316, 44.84670681299591], [-1.14947798474239, 44.84670788462764], [-1.14904523883786, 44.846678638701206], [-1.148618607045242, 44.84661935691878], [-1.148202198711799, 44.84653061029187], [-1.147800024663308, 44.84641325363871], [-1.147415958555088, 44.846268417346415], [-1.147053699547399, 44.846097496477945], [-1.146716736665371, 44.845902137328714], [-1.146408315187297, 44.845684221562955], [-1.146131405385402, 44.845445848082676], [-1.145888673920306, 44.84518931280429], [-1.145682458164713, 44.84491708653813], [-1.145514743703386, 44.84463179118418], [-1.145387145225702, 44.84433617447349], [-1.145300890994248, 44.84403308349922], [-1.145256811038293, 44.8437254372919]]]}}, {"type": "Feature", "properties": {"nb_detections_cluster": 2, "frp_max": 4.12, "frp_moyen": 3.18, "derniere_detection": "2026-07-26T13:16:00", "fetch_timestamp": "2026-07-27T02:53:00"}, "geometry": {"type": "Polygon", "coordinates": [[[-1.138036417346154, 44.848455149805204], [-1.138034975117678, 44.848145910647204], [-1.13807614797074, 44.84783806002101], [-1.138159538699406, 44.84753456264863], [-1.138284343555572, 44.84723834127996], [-1.138449360014478, 44.84695224854901], [-1.138652998378174, 44.84667903950674], [-1.138893297104368, 44.84642134509533], [-1.13916794171227, 44.846181646818756], [-1.139474287082773, 44.84596225285366], [-1.139809382937838, 44.84576527582986], [-1.140170002253449, 44.845592612494286], [-1.140552672332539, 44.84544592545389], [-1.140953708238812, 44.84532662717294], [-1.141369248269866, 44.84523586637824], [-1.141795291128574, 44.84517451700333], [-1.142227734435455, 44.84514316977744], [-1.142662414211999, 44.845142126540246], [-1.143095144955675, 44.845171397337], [-1.143521759921647, 44.84523070032179], [-1.143938151224348, 44.845319464470066], [-1.144340309373698, 44.84543683507425], [-1.144724361866172, 44.84558168196968], [-1.145086610459947, 44.84575261041179], [-1.145423566775858, 44.845947974500326], [-1.14573198588192, 44.84616589302108], [-1.146008897538345, 44.846404267553574], [-1.146251634802398, 44.84666080267027], [-1.146457859717581, 44.84693302803307], [-1.146625585839565, 44.84721832217513], [-1.146753197381562, 44.84751393773873], [-1.146839464794149, 44.84781702792697], [-1.14688355662881, 44.84812467391448], [-1.146885047570071, 44.848433912953446], [-1.146843922557918, 44.84874176690465], [-1.146760576959783, 44.84904527091837], [-1.14663581278943, 44.84934150198945], [-1.146470831008087, 44.84962760711101], [-1.146267219981064, 44.84990083075594], [-1.146026940200118, 44.850158541420896], [-1.145752305417988, 44.85039825697728], [-1.145445960376179, 44.85061766858438], [-1.145110855340099, 44.85081466293444], [-1.144750217686586, 44.85098734261467], [-1.144367520817421, 44.85113404439], [-1.143966450698429, 44.85125335522993], [-1.143550870346786, 44.851344125924975], [-1.143124782609117, 44.85140548216117], [-1.142692291589578, 44.8514368329456], [-1.142257563100247, 44.85143787630183], [-1.141824784515663, 44.85140860218005], [-1.14139812441916, 44.851349292553934], [-1.140981692430646, 44.85126051870325], [-1.140579499603734, 44.851143135708455], [-1.140195419774586, 44.85099827421035], [-1.139833152235563, 44.85082732951469], [-1.13949618609388, 44.85063194814636], [-1.139187766659126, 44.850414011983595], [-1.138910864183716, 44.850175620124844], [-1.138668145257565, 44.84991906866351], [-1.138461947132457, 44.849646828565746], [-1.138294255223192, 44.849361521864736], [-1.138166684001784, 44.84906589640078], [-1.138080461468157, 44.84876279935125], [-1.138036417346154, 44.848455149805204]]]}}, {"type": "Feature", "properties": {"nb_detections_cluster": 2, "frp_max": 3.45, "frp_moyen": 2.77, "derniere_detection": "2026-07-26T12:55:00", "fetch_timestamp": "2026-07-27T02:53:00"}, "geometry": {"type": "Polygon", "coordinates": [[[-1.097756977136336, 44.86513386262266], [-1.0979854465405, 44.86506602567747], [-1.098401202025178, 44.864975425185555], [-1.098827441524003, 44.864914240361344], [-1.09926006076449, 44.8648830603496], [-1.099694894074435, 44.864882185379955], [-1.100127754473189, 44.86491162387738], [-1.100554473967609, 44.86497109238122], [-1.100970943665631, 44.865060018273105], [-1.101373153322175, 44.86517754528806], [-1.101757229937491, 44.86532254175528], [-1.102119475037081, 44.86549361148992], [-1.102456400274921, 44.86568910723105], [-1.102764761017674, 44.8659071464967], [-1.103041587586865, 44.866145629703574], [-1.103284213858352, 44.86640226037746], [-1.103490302943661, 44.86667456725992], [-1.103657869705671, 44.866959928098865], [-1.103785299891429, 44.867255594894075], [-1.103871365697233, 44.86755872035502], [-1.103915237615401, 44.867866385316375], [-1.103916492447737, 44.86817562684738], [-1.103875117407585, 44.868483466784475], [-1.103791510269947, 44.8687869404127], [-1.103666475567185, 44.86908312501918], [-1.103501216865909, 44.869369168044365], [-1.103297325198505, 44.86964231455892], [-1.103056763759808, 44.869899933802145], [-1.102781849015584, 44.87013954452577], [-1.102475228404177, 44.87035883889864], [-1.102139854845641, 44.870555704742], [-1.101778958303675, 44.87072824588071], [-1.101396014674192, 44.87087480041399], [-1.100994712300362, 44.87099395672955], [-1.100578916436992, 44.87108456710624], [-1.100152632007042, 44.871145758774254], [-1.099719965009671, 44.87117694232582], [-1.099285082952355, 44.87117781739533], [-1.098852174689078, 44.87114837555391], [-1.09842541005239, 44.87108890039077], [-1.098008899669146, 44.87099996478013], [-1.097606655347936, 44.87088242536053], [-1.097222551420656, 44.870737414279446], [-1.096860287411385, 44.87056632828331], [-1.096523352392836, 44.87037081525797], [-1.096214991374212, 44.87015275834965], [-1.096102910703955, 44.87005619210751], [-1.095874418721233, 44.870124025286735], [-1.095458621038033, 44.87021461646556], [-1.095032337633566, 44.8702757884603], [-1.094599674497133, 44.870306952052644], [-1.094164799099025, 44.870307807069246], [-1.093731900229068, 44.87027834527441], [-1.093305147629315, 44.87021885044952], [-1.092888651810642, 44.8701298956582], [-1.092486424441306, 44.87001233772369], [-1.09210233968987, 44.86986730897184], [-1.091740096895648, 44.86969620631929], [-1.091403184926951, 44.869500677812276], [-1.091094848570904, 44.869282606746125], [-1.090818057278983, 44.8690440935185], [-1.090575476569412, 44.868787435391575], [-1.090369442361906, 44.868515104358686], [-1.090201938491676, 44.86822972332854], [-1.090074577618875, 44.867934040857115], [-1.08998858571679, 44.86763090467052], [-1.089944790287386, 44.86732323423445], [-1.08994361241689, 44.86701399263431], [-1.089985062746921, 44.86670615803717], [-1.090068741398991, 44.86640269501023], [-1.090193841852022, 44.86610652597242], [-1.09035915873457, 44.86582050305349], [-1.09056309945571, 44.86554738063188], [-1.090803699561722, 44.8652897888153], [-1.09107864166997, 44.86505020811965], [-1.091385277796999, 44.86483094558908], [-1.091720654865476, 44.86463411258762], [-1.092081543144074, 44.86446160447522], [-1.092464467346438, 44.864315082364115], [-1.092865740089895, 44.86419595713031], [-1.093281497392113, 44.864105375834356], [-1.093707735864394, 44.86404421068131], [-1.094140351244155, 44.86401305062655], [-1.094575177896369, 44.86401219570751], [-1.095008028904484, 44.86404165415611], [-1.095434736365755, 44.864101142319576], [-1.095851191503949, 44.86419008739026], [-1.096253384214137, 44.864307632918496], [-1.096637441659692, 44.86445264705522], [-1.096999665550646, 44.86462373344541], [-1.097336567745129, 44.864819244667785], [-1.097644903831636, 44.86503729809126], [-1.097756977136336, 44.86513386262266]]]}}, {"type": "Feature", "properties": {"nb_detections_cluster": 2, "frp_max": 6.24, "frp_moyen": 5.33, "derniere_detection": "2026-07-26T13:16:00", "fetch_timestamp": "2026-07-27T02:53:00"}, "geometry": {"type": "Polygon", "coordinates": [[[-1.171815090415837, 44.866566496943506], [-1.171813461704474, 44.86625725645263], [-1.171854462652485, 44.86594939153263], [-1.171937697708917, 44.86564586704332], [-1.172062364624232, 44.865349605995945], [-1.172227262201406, 44.86506346140685], [-1.172430801886643, 44.86479018882658], [-1.172671023087226, 44.8645324198093], [-1.172945612068251, 44.86429263657759], [-1.173251924245649, 44.86407314812629], [-1.173587009660445, 44.8638760679951], [-1.173947641388665, 44.86370329392398], [-1.174330346613313, 44.86355648958619], [-1.174731440059373, 44.86343706857549], [-1.175147059470192, 44.86334618080054], [-1.175573202784208, 44.86328470141753], [-1.176005766654685, 44.863253222407565], [-1.176440585942345, 44.86325204687925], [-1.176873473801533, 44.863281186151674], [-1.17730026197486, 44.863340359645335], [-1.177716840909327, 44.86342899758256], [-1.178119199308562, 44.86354624647109], [-1.17850346274127, 44.86369097731829], [-1.178865930934908, 44.86386179649711], [-1.179203113396172, 44.86405705915943], [-1.179511763015853, 44.86427488506782], [-1.179788907334798, 44.86451317669377], [-1.180031877170106, 44.86476963940813], [-1.180238332325878, 44.86504180357026], [-1.180406284140696, 44.86532704830276], [-1.180534114654334, 44.865622626723926], [-1.180620592208518, 44.865925692394775], [-1.18066488333077, 44.86623332672622], [-1.180666560786045, 44.86654256708296], [-1.180625607717646, 44.86685043531325], [-1.180542417836544, 44.867153966430116], [-1.18041779165621, 44.867450237167525], [-1.180252928808247, 44.86773639413683], [-1.180049416511828, 44.8680096813117], [-1.179809214307132, 44.8682674665771], [-1.179534635199065, 44.86850726708605], [-1.179228323392276, 44.86872677317978], [-1.178893228831505, 44.86892387064051], [-1.178532578792199, 44.86909666106244], [-1.178149846795034, 44.86924348014388], [-1.177748719143887, 44.86936291372448], [-1.177333059409887, 44.86945381141256], [-1.176906871204194, 44.86951529767096], [-1.176474259598707, 44.86954678025434], [-1.176039391567136, 44.86954795591678], [-1.175606455828336, 44.869518813334075], [-1.175179622479679, 44.86945963321289], [-1.17476300281023, 44.8693709855856], [-1.174360609681784, 44.86925372431685], [-1.173976318860257, 44.869108978875055], [-1.173613831670734, 44.86893814344811], [-1.173276639336513, 44.86874286350855], [-1.172967989346221, 44.86852501995776], [-1.172690854173251, 44.86828671100224], [-1.17244790264903, 44.86803023193709], [-1.172241474265774, 44.867758053031324], [-1.172073556656045, 44.867472795728915], [-1.171945766465588, 44.867177207394604], [-1.17185933380308, 44.86687413484837], [-1.171815090415837, 44.866566496943506]]]}}, {"type": "Feature", "properties": {"nb_detections_cluster": 2, "frp_max": 3.96, "frp_moyen": 3.61, "derniere_detection": "2026-07-26T12:55:00", "fetch_timestamp": "2026-07-27T02:53:00"}, "geometry": {"type": "Polygon", "coordinates": [[[-1.183025011272751, 44.875024437340514], [-1.183252257204956, 44.875184767497295], [-1.183529471252146, 44.87542305061212], [-1.183772505386299, 44.875679506029336], [-1.183979018792239, 44.87595166417857], [-1.184147022247475, 44.876236904240336], [-1.184274897294312, 44.87653247937798], [-1.184361411845405, 44.8768355431841], [-1.184405732071754, 44.87714317708762], [-1.184407430457771, 44.87745241845738], [-1.184366489944915, 44.877760289131935], [-1.184283304122953, 44.878063824100735], [-1.184158673465992, 44.878360100060725], [-1.183993797648482, 44.87864626357293], [-1.183790264014257, 44.87891955854808], [-1.183550032308783, 44.87917735279599], [-1.183275415820905, 44.879417163383174], [-1.182969059115146, 44.879636680553816], [-1.182633912568572, 44.87983378998348], [-1.182273203957271, 44.880006593151045], [-1.181890407366041, 44.88015342563207], [-1.181489209720925, 44.88027287313719], [-1.181073475267281, 44.88036378514054], [-1.180647208336046, 44.880425285967114], [-1.180214514757516, 44.88045678323123], [-1.179779562295097, 44.88045797354558], [-1.179346540481033, 44.8804288454448], [-1.178919620241929, 44.8803696794961], [-1.178502913703932, 44.8802810455953], [-1.178100434565688, 44.880163797474886], [-1.177716059421682, 44.88001906447658], [-1.177353490409273, 44.87984824066846], [-1.177016219539931, 44.87965297141117], [-1.176707495058735, 44.87943513750319], [-1.176430290156538, 44.87919683705819], [-1.176187274336308, 44.87894036528927], [-1.175980787709429, 44.87866819239523], [-1.175812818469286, 44.87838293976217], [-1.175684983758708, 44.87808735470986], [-1.175598514114938, 44.877784284026696], [-1.175554241641215, 44.87747664654805], [-1.175552592018019, 44.87716740504246], [-1.175593580429967, 44.876859537676644], [-1.175676811446551, 44.87655600933394], [-1.175794874472204, 44.87627544715732], [-1.175567645422217, 44.87611510168586], [-1.175290461749977, 44.87587679864538], [-1.175047465506732, 44.87562032465101], [-1.174840996615337, 44.875348149922964], [-1.174673043098407, 44.87506289586499], [-1.174545221947389, 44.874767309810586], [-1.174458763568998, 44.87446423855782], [-1.174414499958051, 44.874156600947494], [-1.174412856709753, 44.87384735974947], [-1.174453848947406, 44.873539493127396], [-1.174537081203746, 44.87323596595751], [-1.174661751256011, 44.87293970127695], [-1.174826657876782, 44.872653552136995], [-1.175030212424998, 44.87238027413204], [-1.175270454164662, 44.8721224988685], [-1.175545069162948, 44.87188270862914], [-1.175851412585144, 44.87166321247625], [-1.176186534171324, 44.871466124023755], [-1.176547206649151, 44.87129334109165], [-1.176929956809221, 44.87114652743862], [-1.177331098943827, 44.87102709674808], [-1.177746770327519, 44.87093619902189], [-1.178172968398343, 44.8708747095121], [-1.178605589282378, 44.87084322029728], [-1.179040467291451, 44.870842034584335], [-1.179473415014577, 44.87087116379036], [-1.179900263618042, 44.87093032743284], [-1.180316902967061, 44.87101895582896], [-1.180719321183625, 44.871136195578316], [-1.18110364326053, 44.871280917776275], [-1.181466168360602, 44.87145172887907], [-1.181803405442618, 44.87164698411638], [-1.18211210687142, 44.87186480332227], [-1.182389299688955, 44.872103089032755], [-1.182632314245262, 44.87235954667572], [-1.182838809913727, 44.87263170665928], [-1.183006797642707, 44.87291694814639], [-1.183134659126004, 44.873212524286586], [-1.183221162406956, 44.87351558866284], [-1.183265473765168, 44.87382322269853], [-1.183267165770534, 44.87413246376128], [-1.183226221426042, 44.874440333692526], [-1.18314303435845, 44.874743867488945], [-1.183025011272751, 44.875024437340514]]]}}, {"type": "Feature", "properties": {"nb_detections_cluster": 3, "frp_max": 7.17, "frp_moyen": 6.27, "derniere_detection": "2026-07-26T13:16:00", "fetch_timestamp": "2026-07-27T02:53:00"}, "geometry": {"type": "Polygon", "coordinates": [[[-1.163523832318266, 44.88221616737024], [-1.163522248825184, 44.88190692522815], [-1.163563306671237, 44.88159906184659], [-1.163646609757156, 44.88129554207048], [-1.163771355177933, 44.880999288865674], [-1.163936340980249, 44.88071315517291], [-1.164139977760477, 44.88043989643773], [-1.164380303990724, 44.88018214408095], [-1.164655004924573, 44.879942380164664], [-1.164961434899858, 44.879722913497694], [-1.165296642823288, 44.87952585740997], [-1.165657400591282, 44.87935310940981], [-1.166040234173299, 44.87920633291948], [-1.166441457058504, 44.87908694126459], [-1.166857205744057, 44.87899608407106], [-1.167283476923818, 44.878934636200675], [-1.16771616602005, 44.87890318933104], [-1.168151106687893, 44.87890204626133], [-1.16858411091313, 44.878931217998044], [-1.16901100931806, 44.878990423649114], [-1.1694276912884, 44.87907909312725], [-1.169830144535732, 44.87919637263646], [-1.170214493715498, 44.879341132889245], [-1.170577037729459, 44.87951197997541], [-1.170914285354142, 44.87970726877809], [-1.171222988852711, 44.87992511880815], [-1.171500175246984, 44.88016343230474], [-1.171743174948634, 44.880419914428145], [-1.171949647473851, 44.8806920953507], [-1.172117603993599, 44.88097735403366], [-1.172245426501964, 44.8812729434609], [-1.172331883417357, 44.881576017087376], [-1.172376141465649, 44.881883656247375], [-1.172377773729901, 44.88219289825901], [-1.172336763788238, 44.88250076495459], [-1.172253505898991, 44.88280429136183], [-1.172128801230285, 44.88310055426002], [-1.171963850169359, 44.88338670033595], [-1.17176024078475, 44.883659973668145], [-1.171519933551552, 44.88391774227489], [-1.171245242486133, 44.88415752346957], [-1.170938812871426, 44.8843770077794], [-1.170603595786861, 44.88457408119643], [-1.170242819688079, 44.88474684554638], [-1.169859959310061, 44.88489363677866], [-1.169458702193398, 44.88501304100119], [-1.169042913156425, 44.885103908104995], [-1.168616597055966, 44.88516536284754], [-1.168183860196035, 44.885196813287045], [-1.167748870757022, 44.885197956487204], [-1.167315818627395, 44.885168781436455], [-1.166888875025792, 44.88510956915426], [-1.166472152303382, 44.88502088998274], [-1.166069664314659, 44.88490359809038], [-1.165685287739275, 44.884758823240574], [-1.165322724728265, 44.88458795990446], [-1.164985467235151, 44.88439265382336], [-1.164676763376005, 44.884174786150446], [-1.164399586142867, 44.88393645532455], [-1.164156604772005, 44.88367995685138], [-1.163950159042791, 44.883407761186845], [-1.1637822367545, 44.88312248993627], [-1.163654454597554, 44.882826890598714], [-1.163568042602858, 44.88252381010011], [-1.163523832318266, 44.88221616737024]]]}}, {"type": "Feature", "properties": {"nb_detections_cluster": 2, "frp_max": 1.72, "frp_moyen": 1.48, "derniere_detection": "2026-07-26T03:10:00", "fetch_timestamp": "2026-07-27T02:53:00"}, "geometry": {"type": "Polygon", "coordinates": [[[-1.111677262696166, 44.89240355194265], [-1.111678445497877, 44.89268531857772], [-1.111637094961868, 44.89299316377887], [-1.111553493283227, 44.893296645588954], [-1.111428444941126, 44.89359284121649], [-1.111263153632938, 44.89387889799569], [-1.111059210704542, 44.89415206086485], [-1.110818579843984, 44.894409698905804], [-1.110543578185237, 44.89464933068921], [-1.110236854003419, 44.89486864818113], [-1.109901361215883, 44.89506553898015], [-1.109540330934549, 44.89523810667074], [-1.109157240343416, 44.89538468909644], [-1.108755779201198, 44.895503874376246], [-1.108339814292062, 44.895594514510044], [-1.1079133521674, 44.89565573644145], [-1.107480500538181, 44.89568695047113], [-1.107045428690562, 44.89568785593992], [-1.10661232730692, 44.89565844412612], [-1.10618536808029, 44.895598998329774], [-1.105768663512153, 44.8955100911422], [-1.105366227281797, 44.895392578928146], [-1.104981935569836, 44.895247593573075], [-1.104619489709281, 44.895076531575654], [-1.104282380524535, 44.8948810405906], [-1.103973854702377, 44.89466300355185], [-1.103696883519173, 44.89442452052937], [-1.103454134225706, 44.894167888494486], [-1.103247944365219, 44.893895579189284], [-1.103080299271786, 44.89361021531327], [-1.102952812965335, 44.89331454525729], [-1.102866712626746, 44.89301141662796], [-1.102822826801795, 44.892703748818285], [-1.102821577446687, 44.892394504888436], [-1.102862975890848, 44.892086663028], [-1.102946622754809, 44.89178318787424], [-1.103071711822955, 44.89148700196293], [-1.10323703783283, 44.891200957586385], [-1.103441008104992, 44.89092780932972], [-1.103681657900588, 44.89067018754953], [-1.103956669357985, 44.890430573050274], [-1.104263393825503, 44.89021127320169], [-1.104598877374813, 44.89001439972715], [-1.104959889249015, 44.889841848376385], [-1.105342952971485, 44.889695280677984], [-1.105372957812807, 44.88968637312275], [-1.10537180672612, 44.889404606684636], [-1.105413188979104, 44.8890967641607], [-1.105496817600063, 44.88879328736955], [-1.105621886549125, 44.88849709886273], [-1.105787190757628, 44.888211050957565], [-1.105991137756109, 44.887937898273165], [-1.106231763029859, 44.88768027120881], [-1.106506748953389, 44.88744065061981], [-1.106813447120898, 44.88722134393455], [-1.107148903857295, 44.887024462942286], [-1.107509888663842, 44.88685190346512], [-1.107892925324523, 44.88670532710991], [-1.10829432537371, 44.886586145275004], [-1.108710223603248, 44.88649550556595], [-1.109136615267539, 44.88643428075031], [-1.10956939462909, 44.88640306035793], [-1.110004394474131, 44.88640214500722], [-1.110437426218727, 44.886431543511996], [-1.110864320220142, 44.886490972796686], [-1.111280965906288, 44.886579860620586], [-1.111683351337767, 44.88669735108528], [-1.112067601822534, 44.886842312871906], [-1.112430017212088, 44.887013350129585], [-1.112767107520795, 44.88720881591015], [-1.113075626525887, 44.88742682802016], [-1.113352603024918, 44.88766528713784], [-1.11359536944992, 44.887921897020995], [-1.113801587562631, 44.88819418661145], [-1.113969270983184, 44.88847953382368], [-1.114096804334888, 44.88877519078876], [-1.114182958820157, 44.889078310310914], [-1.114226904076852, 44.88938597328203], [-1.114228216199996, 44.88969521679061], [-1.114186881850654, 44.890003062654124], [-1.114103298411391, 44.89030654610052], [-1.11397827018577, 44.89060274432255], [-1.113813000677474, 44.89088880462951], [-1.113609081022455, 44.89116197192568], [-1.113368474684632, 44.8914196152503], [-1.113093498561792, 44.89165925312315], [-1.112786800683104, 44.891878577451635], [-1.112451334712559, 44.8920754757685], [-1.112090331503759, 44.89224805158584], [-1.111707267979908, 44.89239464266892], [-1.111677262696166, 44.89240355194265]]]}}, {"type": "Feature", "properties": {"nb_detections_cluster": 8, "frp_max": 6.85, "frp_moyen": 5.27, "derniere_detection": "2026-07-26T13:16:00", "fetch_timestamp": "2026-07-27T02:53:00"}, "geometry": {"type": "Polygon", "coordinates": [[[-1.104444531259175, 44.93267264414364], [-1.10448030638955, 44.93275555244683], [-1.104566476459149, 44.933058683499496], [-1.104610403424217, 44.93336635440665], [-1.10461166355482, 44.93367560218031], [-1.104570244011638, 44.93398344859677], [-1.10448654299665, 44.934286928878656], [-1.10436136594478, 44.93458312024907], [-1.104195917792164, 44.93486917008326], [-1.103991791394532, 44.93514232338633], [-1.103750952206371, 44.93539994933217], [-1.103475719367677, 44.93563956660793], [-1.103168743379876, 44.93585886731935], [-1.102832980585469, 44.936055739226575], [-1.102471664697009, 44.936228286096096], [-1.102088275649552, 44.93637484597188], [-1.101686506076779, 44.93649400719013], [-1.101270225734027, 44.93658462198251], [-1.100843444211403, 44.93664581753666], [-1.100410272296852, 44.93667700440736], [-1.099974882362085, 44.93667788219702], [-1.099541468153859, 44.93664844245058], [-1.099114204378867, 44.93658896873707], [-1.098697206472463, 44.93650003391676], [-1.098294490939727, 44.93638249462055], [-1.097909936651755, 44.9362374829948], [-1.097547247470773, 44.93606639579119], [-1.097209916564781, 44.935870880907196], [-1.096901192755934, 44.935652821506984], [-1.096624049227201, 44.935414317875846], [-1.096381154888826, 44.93515766718361], [-1.09617484868041, 44.93488534135203], [-1.096007117055849, 44.93459996323979], [-1.095879574867603, 44.93430428137478], [-1.095793449833803, 44.934001143477346], [-1.095749570737054, 44.93369346902969], [-1.095748359467738, 44.93338422115588], [-1.095789826987462, 44.933076378083435], [-1.095873573250538, 44.932772904461245], [-1.095998791083181, 44.93247672281029], [-1.096164273982074, 44.93219068538179], [-1.096368427756206, 44.931917546693924], [-1.096609285899028, 44.93165993701111], [-1.096884528542125, 44.93142033702122], [-1.097191504807294, 44.93120105395427], [-1.097385611744624, 44.93108724802652], [-1.097349848165151, 44.93100433748184], [-1.097263720252349, 44.93070120102284], [-1.097219835672324, 44.93039352745946], [-1.097218616368347, 44.930084279907256], [-1.097260073379491, 44.92977643659067], [-1.097343806761346, 44.92947296216092], [-1.097469009464245, 44.9291767791468], [-1.097634475130636, 44.92889073981266], [-1.097838609735504, 44.928617598695034], [-1.098079446956938, 44.92835998608173], [-1.098354667128014, 44.9281203826889], [-1.098661619586938, 44.92790109577928], [-1.098997348209793, 44.927704236951634], [-1.09935861987976, 44.92753170181463], [-1.09974195561869, 44.92738515174071], [-1.100143664081354, 44.92726599787511], [-1.100559877090224, 44.927175387554094], [-1.100986586869129, 44.92711419326219], [-1.101419684617956, 44.92708300423537], [-1.101855000057718, 44.927082120790004], [-1.102288341566151, 44.92711155143269], [-1.102715536518297, 44.92717101277838], [-1.103132471444634, 44.927259932277735], [-1.103535131620999, 44.927377453727246], [-1.103919639710023, 44.92752244550975], [-1.104282293082785, 44.92769351148552], [-1.104619599462008, 44.927889004429865], [-1.104928310544106, 44.92810704188778], [-1.105205453276692, 44.92834552429337], [-1.105448358490538, 44.92860215518017], [-1.105654686610253, 44.92887446328772], [-1.10582245019586, 44.92915982635219], [-1.105950033097815, 44.92945549635192], [-1.106036206040411, 44.92975862596557], [-1.106080138482758, 44.930066295987814], [-1.106081406642261, 44.93037554343918], [-1.10603999760236, 44.930683390099155], [-1.105956309463955, 44.93098687118794], [-1.105831147538032, 44.931283063920944], [-1.10566571661511, 44.93156911566024], [-1.105461609385026, 44.93184227139262], [-1.1052207911177, 44.9320999002686], [-1.104945580751655, 44.9323395209471], [-1.104638628571886, 44.93255882550108], [-1.104444531259175, 44.93267264414364]]]}}, {"type": "Feature", "properties": {"nb_detections_cluster": 5, "frp_max": 15.95, "frp_moyen": 13.0, "derniere_detection": "2026-07-26T12:55:00", "fetch_timestamp": "2026-07-27T02:53:00"}, "geometry": {"type": "Polygon", "coordinates": [[[-1.08507, 44.9395], [-1.09217, 44.93728], [-1.09005, 44.93864], [-1.08009, 44.94036], [-1.07895, 44.93704], [-1.08507, 44.9395]]]}}, {"type": "Feature", "properties": {"nb_detections_cluster": 3, "frp_max": 1.33, "frp_moyen": 1.22, "derniere_detection": "2026-07-26T03:10:00", "fetch_timestamp": "2026-07-27T02:53:00"}, "geometry": {"type": "Polygon", "coordinates": [[[-1.03196, 44.8541], [-1.02212, 44.85116], [-1.02703, 44.85262], [-1.03196, 44.8541]]]}}, {"type": "Feature", "properties": {"nb_detections_cluster": 4, "frp_max": 6.03, "frp_moyen": 3.65, "derniere_detection": "2026-07-26T12:55:00", "fetch_timestamp": "2026-07-27T02:53:00"}, "geometry": {"type": "Polygon", "coordinates": [[[-1.05813, 44.94557], [-1.06307, 44.94704], [-1.06131, 44.9471], [-1.05633, 44.94796], [-1.05813, 44.94557]]]}}, {"type": "Feature", "properties": {"nb_detections_cluster": 15, "frp_max": 222.37, "frp_moyen": 53.05, "derniere_detection": "2026-07-26T13:16:00", "fetch_timestamp": "2026-07-27T02:53:00"}, "geometry": {"type": "Polygon", "coordinates": [[[-0.99356, 44.76405], [-0.99477, 44.76854], [-0.98142, 44.77355], [-0.98168, 44.7708], [-0.98562, 44.7657], [-0.97818, 44.75917], [-0.9848, 44.7621], [-0.99244, 44.76073], [-0.99356, 44.76405]]]}}, {"type": "Feature", "properties": {"nb_detections_cluster": 208, "frp_max": 137.14, "frp_moyen": 18.92, "derniere_detection": "2026-07-27T02:53:00", "fetch_timestamp": "2026-07-27T02:53:00"}, "geometry": {"type": "Polygon", "coordinates": [[[-0.9737, 44.76745], [-0.96859, 44.77306], [-0.95812, 44.77622], [-0.93904, 44.78281], [-0.93404, 44.78131], [-0.93216, 44.77451], [-0.914, 44.76647], [-0.90815, 44.76713], [-0.9023, 44.7678], [-0.89059, 44.76912], [-0.88393, 44.76618], [-0.8818, 44.75928], [-0.87478, 44.7509], [-0.8497, 44.74782], [-0.84771, 44.74773], [-0.82902, 44.73703], [-0.81002, 44.74097], [-0.80543, 44.73614], [-0.81347, 44.73571], [-0.82522, 44.72333], [-0.81815, 44.71489], [-0.82133, 44.70958], [-0.83153, 44.71269], [-0.84173, 44.7158], [-0.85192, 44.71891], [-0.86717, 44.72356], [-0.89221, 44.73146], [-0.89967, 44.73799], [-0.90446, 44.74115], [-0.92961, 44.74879], [-0.93465, 44.75032], [-0.93969, 44.75184], [-0.94471, 44.75337], [-0.95976, 44.75793], [-0.9737, 44.76745]]]}}, {"type": "Feature", "properties": {"nb_detections_cluster": 1, "frp_max": 1.7, "frp_moyen": 1.7, "derniere_detection": "2026-07-26T03:10:00", "fetch_timestamp": "2026-07-27T02:53:00"}, "geometry": {"type": "Polygon", "coordinates": [[[-1.013422268238842, 44.76947017907709], [-1.013421513097823, 44.76916094688465], [-1.013463310063722, 44.76885315102844], [-1.013547255922412, 44.768549755702125], [-1.013672541582241, 44.76825368267216], [-1.01383795989091, 44.76796778314334], [-1.014041917283388, 44.767694810305414], [-1.014282449147895, 44.76743739282534], [-1.014557238761193, 44.767198009539854], [-1.014863639610253, 44.76697896559193], [-1.015198700884969, 44.76678237024049], [-1.015559195896147, 44.766610116557], [-1.015941653145142, 44.766463863203555], [-1.016342389746088, 44.76634501846823], [-1.016757546879244, 44.76625472671056], [-1.017183126934605, 44.76619385734764], [-1.01761503198878, 44.7661629964867], [-1.018049103245445, 44.76616244128424], [-1.018481161060488, 44.766192197086276], [-1.018907045167392, 44.766251977376804], [-1.019322654716508, 44.766341206535294], [-1.019723987743605, 44.76645902537652], [-1.020107179688587, 44.766604299419605], [-1.020468540594237, 44.76677562980673], [-1.020804590627513, 44.76697136676695], [-1.021112093581866, 44.76718962549528], [-1.021388088038332, 44.76742830429481], [-1.021629915885514, 44.76768510480753], [-1.02183524792379, 44.76795755413916], [-1.022002106306967, 44.768243028665395], [-1.022128883604867, 44.76853877929076], [-1.022214358302686, 44.76884195791695], [-1.022257706587143, 44.76914964486611], [-1.022258510305044, 44.7694588769952], [-1.022216761016666, 44.7697666762307], [-1.022132860103919, 44.770070078249084], [-1.022007614931205, 44.77036616102671], [-1.021842231094929, 44.77065207298422], [-1.021638300835363, 44.770925060454196], [-1.021397787721587, 44.771182494207395], [-1.021123007756259, 44.771421894781724], [-1.020816607081642, 44.77164095636983], [-1.020481536501138, 44.77183756903481], [-1.020121023061556, 44.77200983903994], [-1.019738538969736, 44.772156107095824], [-1.019337768143097, 44.772274964349414], [-1.018922570716656, 44.77236526596011], [-1.018496945848864, 44.77242614213213], [-1.018064993185232, 44.77245700649664], [-1.017630873351686, 44.77245756176243], [-1.01719876785912, 44.7724278025811], [-1.016772838806273, 44.772368015598516], [-1.016357188770042, 44.772278776692346], [-1.015955821270553, 44.772160945422435], [-1.015572602192658, 44.7720156567473], [-1.015211222536277, 44.771844310087026], [-1.014875162855031, 44.77164855583795], [-1.014567659726235, 44.77143027946949], [-1.014291674575558, 44.771191583356405], [-1.01404986515678, 44.770934766522046], [-1.01384455996133, 44.770662302487985], [-1.013677735803845, 44.77037681544347], [-1.013550998799231, 44.7700810549651], [-1.013465568913842, 44.7697778695298], [-1.013422268238842, 44.76947017907709]]]}}, {"type": "Feature", "properties": {"nb_detections_cluster": 45, "frp_max": 56.96, "frp_moyen": 7.78, "derniere_detection": "2026-07-27T02:53:00", "fetch_timestamp": "2026-07-27T02:53:00"}, "geometry": {"type": "Polygon", "coordinates": [[[-0.98901, 44.84748], [-0.98691, 44.84986], [-0.97772, 44.85651], [-0.97567, 44.85886], [-0.9707, 44.85735], [-0.95956, 44.8573], [-0.95135, 44.86105], [-0.94148, 44.85648], [-0.9348, 44.85353], [-0.94067, 44.85287], [-0.94952, 44.85431], [-0.95575, 44.85281], [-0.96388, 44.84907], [-0.97197, 44.84531], [-0.97263, 44.84101], [-0.98503, 44.84307], [-0.98669, 44.84399], [-0.98901, 44.84748]]]}}, {"type": "Feature", "properties": {"nb_detections_cluster": 2, "frp_max": 5.64, "frp_moyen": 5.15, "derniere_detection": "2026-07-26T13:16:00", "fetch_timestamp": "2026-07-27T02:53:00"}, "geometry": {"type": "Polygon", "coordinates": [[[-0.996365601740538, 44.85360950391613], [-0.996364939377427, 44.85330026289977], [-0.996406892427207, 44.85299246480564], [-0.996491056170573, 44.85268907384887], [-0.996616619415704, 44.85239301175373], [-0.996782372335417, 44.85210712961958], [-0.996986718140924, 44.85183418046853], [-0.997227688478895, 44.85157679273938], [-0.997502962402821, 44.85133744498222], [-0.99780988873538, 44.851118441997855], [-0.998145511606065, 44.85092189265066], [-0.998506598917909, 44.85074968956902], [-0.998889673469163, 44.85060349092776], [-0.999291046430412, 44.85048470448803], [-0.999706852855112, 44.85039447404805], [-1.000133088882133, 44.85033366843445], [-1.000565650272771, 44.85030287314059], [-1.001000371911935, 44.85030238469166], [-1.001433067894074, 44.850332207790856], [-1.001859571808773, 44.85039205527421], [-1.002275776839119, 44.85048135087422], [-1.002677675287654, 44.85059923476591], [-1.003061397150237, 44.850744571841965], [-1.003423247367176, 44.85091596263769], [-1.003759741393623, 44.85111175680039], [-1.004067638747253, 44.85133006897425], [-1.004343974210525, 44.85156879694771], [-1.004586086387262, 44.85182564188919], [-1.004791643338519, 44.85209813047653], [-1.004958665050654, 44.852383638707316], [-1.005085542518852, 44.85267941716145], [-1.005171053261705, 44.85298261747253], [-1.005214373116749, 44.85329031975378], [-1.005215084202461, 44.85359956071441], [-1.005173178969122, 44.853907362195756], [-1.005089060298475, 44.854210759852506], [-1.004963537650224, 44.85450683170292], [-1.004797819291434, 44.8547927262728], [-1.004593500682739, 44.855065690062034], [-1.00435254913231, 44.855323094069384], [-1.004077284864659, 44.855562459119135], [-1.003770358686024, 44.85578147974601], [-1.003434726460998, 44.855978046407536], [-1.003073620646029, 44.85615026581001], [-1.002690519153931, 44.856296479151425], [-1.002289111849441, 44.85641527810566], [-1.001873264998894, 44.856505518393625], [-1.001446984016962, 44.8565663308102], [-1.001014374869943, 44.856597129600594], [-1.000579604508175, 44.85659761810527], [-1.000146860709595, 44.85656779161886], [-0.999720311722177, 44.85650793743552], [-0.999304066094952, 44.85641863208021], [-0.998902133085493, 44.85630073575283], [-0.998518384026099, 44.85615538403857], [-0.99815651502162, 44.855983976964666], [-0.997820011338896, 44.85578816550935], [-0.997512113831343, 44.855569835693025], [-0.997235787722411, 44.855331090405215], [-0.9969936940488, 44.85507422914287], [-0.996788164038386, 44.854801725855395], [-0.996621176669492, 44.85451620511009], [-0.996494339627142, 44.854220416807976], [-0.996408873839199, 44.85391720969393], [-0.996365601740538, 44.85360950391613]]]}}, {"type": "Feature", "properties": {"nb_detections_cluster": 14, "frp_max": 69.33, "frp_moyen": 12.18, "derniere_detection": "2026-07-27T01:32:00", "fetch_timestamp": "2026-07-27T02:53:00"}, "geometry": {"type": "Polygon", "coordinates": [[[-0.98308, 44.88131], [-0.98299, 44.8859], [-0.97802, 44.8844], [-0.97617, 44.87764], [-0.97119, 44.87613], [-0.9662, 44.87462], [-0.96437, 44.86786], [-0.97139, 44.86701], [-0.96936, 44.86937], [-0.96895, 44.87184], [-0.96976, 44.87544], [-0.97561, 44.87477], [-0.97931, 44.87238], [-0.98004, 44.87758], [-0.98308, 44.88131]]]}}, {"type": "Feature", "properties": {"nb_detections_cluster": 8, "frp_max": 13.53, "frp_moyen": 6.71, "derniere_detection": "2026-07-26T13:16:00", "fetch_timestamp": "2026-07-27T02:53:00"}, "geometry": {"type": "Polygon", "coordinates": [[[-1.00593, 44.88663], [-1.01089, 44.88813], [-1.0028, 44.89188], [-0.99787, 44.89039], [-1.00221, 44.8865], [-1.00099, 44.88514], [-1.00593, 44.88663]]]}}, {"type": "Feature", "properties": {"nb_detections_cluster": 10, "frp_max": 53.29, "frp_moyen": 14.81, "derniere_detection": "2026-07-26T13:16:00", "fetch_timestamp": "2026-07-27T02:53:00"}, "geometry": {"type": "Polygon", "coordinates": [[[-0.973309232834758, 44.933518589038066], [-0.973308696650662, 44.933209340218085], [-0.973350835997271, 44.93290154320518], [-0.973435244359261, 44.932598162203924], [-0.973561108187299, 44.93230211884252], [-0.973727214757989, 44.93201626403979], [-0.973931963875561, 44.93174335055453], [-0.974173383301794, 44.93148600648188], [-0.974449147764821, 44.93124670995151], [-0.974756601363168, 44.93102776527071], [-0.975092783148874, 44.930831280742424], [-0.975454455643103, 44.93065914837073], [-0.975838136009617, 44.93051302564954], [-0.97624012958612, 44.9303943196089], [-0.976656565450904, 44.93030417327282], [-0.977083433682875, 44.930243454658054], [-0.977516623956852, 44.930212748420274], [-0.977951965103301, 44.93021235022711], [-0.978385265252474, 44.93024226391274], [-0.978812352177381, 44.930302201440924], [-0.979229113448097, 44.93039158567712], [-0.979631536011705, 44.93050955594288], [-0.980015744817678, 44.93065497629921], [-0.980378040117569, 44.93082644647947], [-0.980714933080532, 44.93102231536657], [-0.981023179382259, 44.93124069688506], [-0.981299810444241, 44.93147948815562], [-0.981542162022739, 44.931736389737075], [-0.9817478998721, 44.93200892776177], [-0.981915042235085, 44.93229447775113], [-0.982041978943246, 44.93259028988281], [-0.982127486942772, 44.932893515465956], [-0.982170742095612, 44.93320123437032], [-0.982171327141324, 44.93351048314487], [-0.982129235742017, 44.93381828355551], [-0.982044872570431, 44.93412167126713], [-0.981919049439253, 44.93441772439358], [-0.981752977507922, 44.93470359164087], [-0.981548255641041, 44.9349765197719], [-0.981306855029597, 44.93523388012872], [-0.981031100222417, 44.93547319395587], [-0.980723646749909, 44.935692156281355], [-0.980387455555192, 44.93588865812413], [-0.980025764478693, 44.93606080681477], [-0.979642057070748, 44.93620694423224], [-0.979240029032846, 44.93632566278168], [-0.978823552611025, 44.9364158189584], [-0.978396639284962, 44.93647654436748], [-0.97796340111278, 44.936507254092135], [-0.977528011104716, 44.93650765233075], [-0.97709466300824, 44.93647773524739], [-0.976667530892929, 44.936417791008836], [-0.976250728925352, 44.936328397007564], [-0.975848271722385, 44.93621041429727], [-0.975464035665722, 44.93606497929517], [-0.975101721551042, 44.93589349283073], [-0.974764818932232, 44.93569760664688], [-0.974456572504669, 44.93547920748369], [-0.974179950851696, 44.93524039889863], [-0.973937617855469, 44.93498348099822], [-0.973731907047538, 44.93471092827727], [-0.973564799145952, 44.934425365779106], [-0.973437902994829, 44.934129543806776], [-0.973352440089394, 44.93382631142932], [-0.973309232834758, 44.933518589038066]]]}}, {"type": "Feature", "properties": {"nb_detections_cluster": 5, "frp_max": 2.53, "frp_moyen": 1.66, "derniere_detection": "2026-07-26T03:10:00", "fetch_timestamp": "2026-07-27T02:53:00"}, "geometry": {"type": "Polygon", "coordinates": [[[-0.9489, 44.84451], [-0.94768, 44.84756], [-0.94265, 44.84606], [-0.94387, 44.84298], [-0.94579, 44.84079], [-0.9489, 44.84451]]]}}, {"type": "Feature", "properties": {"nb_detections_cluster": 5, "frp_max": 44.37, "frp_moyen": 10.77, "derniere_detection": "2026-07-26T13:16:00", "fetch_timestamp": "2026-07-27T02:53:00"}, "geometry": {"type": "Polygon", "coordinates": [[[-0.96854, 44.90014], [-0.96539, 44.90539], [-0.96042, 44.90389], [-0.9536, 44.90176], [-0.96874, 44.89772], [-0.96854, 44.90014]]]}}, {"type": "Feature", "properties": {"nb_detections_cluster": 5, "frp_max": 29.74, "frp_moyen": 12.64, "derniere_detection": "2026-07-26T13:16:00", "fetch_timestamp": "2026-07-27T02:53:00"}, "geometry": {"type": "Polygon", "coordinates": [[[-0.97278, 44.91573], [-0.96692, 44.91641], [-0.9661, 44.91281], [-0.97278, 44.91573]]]}}, {"type": "Feature", "properties": {"nb_detections_cluster": 1, "frp_max": 41.04, "frp_moyen": 41.04, "derniere_detection": "2026-07-26T12:55:00", "fetch_timestamp": "2026-07-27T02:53:00"}, "geometry": {"type": "Polygon", "coordinates": [[[-0.907575130368426, 44.85642596512873], [-0.907574956852001, 44.8561167234975], [-0.907617398572131, 44.85580895887459], [-0.907702046103585, 44.8555056351522], [-0.907828083595933, 44.855209673406556], [-0.907994296655549, 44.85492392377011], [-0.908199084063309, 44.8546511379886], [-0.908440473214281, 44.85439394292708], [-0.908716139129991, 44.854154815280005], [-0.909023426859553, 44.853936057728234], [-0.909359377053587, 44.853739776772535], [-0.909720754464384, 44.853567862456615], [-0.910104079097869, 44.85342197017454], [-0.910505659717551, 44.85330350473739], [-0.91092162937819, 44.85321360685234], [-0.911347982647542, 44.8531531421438], [-0.911780614158464, 44.85312269282257], [-0.912215358120954, 44.8531225520825], [-0.912648028414546, 44.85315272127872], [-0.913074458875981, 44.853212909914745], [-0.91349054339521, 44.853302538438065], [-0.913892275434545, 44.85342074381796], [-0.914275786591395, 44.853566387851465], [-0.914637383834009, 44.85373806811796], [-0.91497358505239, 44.85393413147728], [-0.915281152582583, 44.85415268998117], [-0.915557124381849, 44.85439163904581], [-0.915798842554732, 44.854648677710244], [-0.916003978955273, 44.85492133078644], [-0.916170557618615, 44.85520697268759], [-0.916296973805572, 44.85550285270583], [-0.91638200947619, 44.855806121496194], [-0.916424845042539, 44.856113858511904], [-0.916425067286681, 44.85642310012706], [-0.916382673366634, 44.85673086817613], [-0.916298070870695, 44.85703419863522], [-0.916172073918608, 44.85733017016924], [-0.916005895346055, 44.85761593226954], [-0.915801135046847, 44.85788873271144], [-0.915559764584143, 44.85814594406647], [-0.915284108218244, 44.85838508901403], [-0.914976820533038, 44.85860386420843], [-0.914640860876201, 44.8588001624709], [-0.914279464859094, 44.858972093092646], [-0.913896113190819, 44.85911800005293], [-0.913494498146801, 44.85923647797666], [-0.913078487995188, 44.85932638567679], [-0.912652089724269, 44.859386857151705], [-0.912219410430571, 44.859417309930585], [-0.911784617740363, 44.85941745068673], [-0.911351899646689, 44.85938727806434], [-0.910925424149738, 44.85932708269162], [-0.910509299090249, 44.85923744437993], [-0.910107532563849, 44.85911922653617], [-0.909723994298449, 44.85897356784229], [-0.909362378367566, 44.85880187128225], [-0.909026167599375, 44.858605790622434], [-0.908718600024826, 44.858387214475925], [-0.908442637688363, 44.858148248104534], [-0.908200938121792, 44.8578911931343], [-0.907995828756039, 44.85761852537986], [-0.907829284517033, 44.857332870992146], [-0.907702908821051, 44.85703698115882], [-0.907617918151999, 44.856733705602075], [-0.907575130368426, 44.85642596512873]]]}}, {"type": "Feature", "properties": {"nb_detections_cluster": 11, "frp_max": 118.93, "frp_moyen": 65.46, "derniere_detection": "2026-07-26T13:16:00", "fetch_timestamp": "2026-07-27T02:53:00"}, "geometry": {"type": "Polygon", "coordinates": [[[-0.915184358012231, 44.86649626893846], [-0.915184142560789, 44.866187026323324], [-0.915226550188532, 44.86587925780003], [-0.915311171798286, 44.865575927298366], [-0.915437191788977, 44.86527995595991], [-0.915603395935245, 44.864994194009554], [-0.915808183103531, 44.86472139331161], [-0.91604958069096, 44.864464180874855], [-0.916325263637587, 44.864225033561056], [-0.916632576828325, 44.86400625424051], [-0.916968560668458, 44.863809949623615], [-0.917329979586161, 44.86363800998192], [-0.917713353187595, 44.86349209095338], [-0.918114989764709, 44.86337359760665], [-0.918531021833442, 44.863283670917625], [-0.918957443360662, 44.86322317678809], [-0.919390148322049, 44.86319269771211], [-0.919824970220447, 44.86319252717004], [-0.920257722185077, 44.86322266680402], [-0.920684237266422, 44.86328282640216], [-0.921100408539775, 44.86337242669162], [-0.921502228632245, 44.86349060491349], [-0.921885828293516, 44.86363622312633], [-0.922247513639742, 44.863807879158195], [-0.922583801712662, 44.864003920102256], [-0.922891454012046, 44.86422245822616], [-0.923167507678916, 44.86446138914232], [-0.923409304029472, 44.86471841206464], [-0.92361451416489, 44.86499105195666], [-0.923781161410176, 44.86527668335857], [-0.923907640365584, 44.8655725556637], [-0.923992732386531, 44.86587581960137], [-0.924035617342221, 44.86618355467159], [-0.924035881538849, 44.866492797267256], [-0.923993521730157, 44.866800569213446], [-0.923908945175659, 44.86710390644878], [-0.923782965744981, 44.8673998875729], [-0.923616796104786, 44.867685661984936], [-0.92341203606258, 44.8679584773416], [-0.923170657178801, 44.86821570607081], [-0.922894983794622, 44.86845487068469], [-0.92258767065765, 44.86867366764814], [-0.922251677360538, 44.86886998957275], [-0.921890239838535, 44.8690419455218], [-0.921506839200433, 44.86918787923068], [-0.921105168193285, 44.86930638506658], [-0.920689095624281, 44.86939632157366], [-0.920262629082957, 44.86945682247283], [-0.919829876323499, 44.869487305009834], [-0.919395005679914, 44.86948747557136], [-0.918962205896231, 44.8694573325145], [-0.918535645759631, 44.86939716618271], [-0.918119433926266, 44.869307556107586], [-0.917717579327723, 44.86918936542405], [-0.917333952540371, 44.86904373255249], [-0.916972248490496, 44.86887206022815], [-0.916635950855128, 44.868676001983985], [-0.916328298501977, 44.868457446217185], [-0.916052254292087, 44.86821849799334], [-0.915810476545832, 44.86796145876367], [-0.915605293447082, 44.867688804191296], [-0.915438680631829, 44.867403160300206], [-0.915312242176691, 44.867107278177045], [-0.915227195169848, 44.86680400746973], [-0.915184358012231, 44.86649626893846]]]}}, {"type": "Feature", "properties": {"nb_detections_cluster": 1, "frp_max": 16.09, "frp_moyen": 16.09, "derniere_detection": "2026-07-26T12:55:00", "fetch_timestamp": "2026-07-27T02:53:00"}, "geometry": {"type": "Polygon", "coordinates": [[[-0.907104017925492, 44.87052594707588], [-0.907103846960091, 44.870216704050236], [-0.907146301919892, 44.86990893821999], [-0.907230973251818, 44.869605613489], [-0.907357044875902, 44.8693096509432], [-0.907523302069524, 44.86902390072274], [-0.90772814318828, 44.86875111457896], [-0.907969595109786, 44.86849391938043], [-0.908245332250923, 44.86825479182288], [-0.908552698974805, 44.86803603458632], [-0.908888735171304, 44.867839754168465], [-0.909250204764532, 44.867667840607844], [-0.909633626872794, 44.86752194929125], [-0.910035309321065, 44.86740348502049], [-0.910451384183693, 44.867313588491434], [-0.91087784501558, 44.8672531253155], [-0.911310585414026, 44.86722267768871], [-0.911745438540729, 44.867222538788575], [-0.912178217224262, 44.867252709952524], [-0.912604754257862, 44.86731290066511], [-0.913020942505448, 44.867402531353875], [-0.913422774430663, 44.867520738967194], [-0.913806380669204, 44.86766638528063], [-0.914168067273819, 44.867838067851615], [-0.914504351274034, 44.86803413351779], [-0.91481199420872, 44.86825269430867], [-0.915088033308945, 44.868491645618434], [-0.91532981003103, 44.86874868646452], [-0.915534995665015, 44.86902134163789], [-0.915701613771692, 44.86930698553151], [-0.915828059231762, 44.869602867418365], [-0.91591311372306, 44.86990613793547], [-0.915955957476067, 44.870213876519415], [-0.915956177193662, 44.870523119529224], [-0.915913770057839, 44.870830888785896], [-0.915829143783828, 44.87113422025392], [-0.915703112720044, 44.871430192588484], [-0.9155368900304, 44.87171595527323], [-0.915332076033327, 44.87198875607784], [-0.915090642808943, 44.87224596757032], [-0.914814915221843, 44.87248511242879], [-0.914507548541759, 44.87270388730836], [-0.914171502877136, 44.872900185033316], [-0.913810014667713, 44.87307211490001], [-0.9134265655106, 44.87321802089503], [-0.913024848620292, 44.8733364976525], [-0.912608733246029, 44.87342640399665], [-0.912182227389749, 44.87348687393893], [-0.911749439184413, 44.87351732502323], [-0.911314537305517, 44.873517463939244], [-0.910881710798004, 44.87348728934885], [-0.910455128706489, 44.873427091899224], [-0.910038899898602, 44.873337451421705], [-0.909637033469409, 44.873219231344095], [-0.909253400109185, 44.87307357036984], [-0.90889169480745, 44.87290187150489], [-0.908555401253197, 44.87270578853783], [-0.908247758274713, 44.872487210103905], [-0.907971728642614, 44.87224824148706], [-0.907729970536722, 44.87199118433489], [-0.907524811951588, 44.87171851448309], [-0.907358228286949, 44.871432858102764], [-0.907231823338512, 44.8711369664008], [-0.90714681387161, 44.87083368911736], [-0.907104017925492, 44.87052594707588]]]}}, {"type": "Feature", "properties": {"nb_detections_cluster": 8, "frp_max": 17.97, "frp_moyen": 6.72, "derniere_detection": "2026-07-26T13:16:00", "fetch_timestamp": "2026-07-27T02:53:00"}, "geometry": {"type": "Polygon", "coordinates": [[[-0.93917, 44.90991], [-0.94414, 44.9114], [-0.93601, 44.91516], [-0.93601, 44.91177], [-0.92919, 44.90691], [-0.93418, 44.90841], [-0.93917, 44.90991]]]}}, {"type": "Feature", "properties": {"nb_detections_cluster": 3, "frp_max": 1.79, "frp_moyen": 1.39, "derniere_detection": "2026-07-27T01:32:00", "fetch_timestamp": "2026-07-27T02:53:00"}, "geometry": {"type": "Polygon", "coordinates": [[[-0.88806, 44.77764], [-0.88187, 44.77715], [-0.88832, 44.77559], [-0.88806, 44.77764]]]}}, {"type": "Feature", "properties": {"nb_detections_cluster": 1, "frp_max": 5.51, "frp_moyen": 5.51, "derniere_detection": "2026-07-26T13:16:00", "fetch_timestamp": "2026-07-27T02:53:00"}, "geometry": {"type": "Polygon", "coordinates": [[[-0.894295281074825, 44.854045435691575], [-0.894295180681475, 44.85373619428106], [-0.894337693367911, 44.85342843497551], [-0.894422409025562, 44.85312512161578], [-0.894548511148049, 44.85282917517828], [-0.894714784719506, 44.852543445647946], [-0.894919627938255, 44.8522706845768], [-0.895161067662102, 44.85201351859193], [-0.895436778425769, 44.85177442410768], [-0.895744104846704, 44.851555703485545], [-0.896080087203143, 44.85135946287061], [-0.896441489937855, 44.85118759191814], [-0.896824832813078, 44.8510417456046], [-0.897226424416808, 44.85092332829843], [-0.897642397698143, 44.850833480243296], [-0.898068747190054, 44.85077306658385], [-0.898501367561814, 44.850742669039306], [-0.898936093130682, 44.850742580304946], [-0.899368737953276, 44.85077280123518], [-0.899795136111532, 44.85083304083534], [-0.900211181806352, 44.85092271906222], [-0.900612868873769, 44.85104097240648], [-0.900996329344087, 44.85118666220327], [-0.901357870673464, 44.851358385591354], [-0.901694011290139, 44.851554489015236], [-0.902001514113541, 44.85177308414089], [-0.902277417723855, 44.85201206603177], [-0.902519064882104, 44.85226913341081], [-0.902724128126044, 44.852541810813364], [-0.902890632195188, 44.85282747241835], [-0.903016973068615, 44.853123367328024], [-0.903101933431594, 44.85342664605399], [-0.903144694421415, 44.85373438795365], [-0.903144843538366, 44.854043629354045], [-0.903102378644776, 44.85435139209158], [-0.903017708012564, 44.85465471219345], [-0.902891646417806, 44.85495066842421], [-0.90272540731891, 44.85523641042258], [-0.902520591192795, 44.85550918615734], [-0.902279170140496, 44.85576636843796], [-0.902003468909759, 44.85600548022379], [-0.901696142516788, 44.856224218488514], [-0.901360150682271, 44.85642047640898], [-0.90099872932768, 44.85659236366492], [-0.900615359406325, 44.856738224653355], [-0.900213733369581, 44.85685665444186], [-0.899797719591587, 44.856946512307104], [-0.899371325095639, 44.85700693272743], [-0.898938656941944, 44.8570373337238], [-0.898503882649474, 44.85703742246829], [-0.898071190034035, 44.85700719810608], [-0.897644746850339, 44.85694695176375], [-0.897228660627791, 44.8568572637436], [-0.896826939087812, 44.85673899793132], [-0.896443451524861, 44.85659329347091], [-0.896081891523935, 44.8564215537871], [-0.89574574137433, 44.85622543306162], [-0.895438238522965, 44.856006820293395], [-0.895162344390729, 44.85576782109696], [-0.894920715852359, 44.85551073741445], [-0.894715679654551, 44.855238045337], [-0.894549210018423, 44.85495237124969], [-0.894422909641655, 44.854656466529896], [-0.89433799428271, 44.854353181043074], [-0.894295281074825, 44.854045435691575]]]}}, {"type": "Feature", "properties": {"nb_detections_cluster": 1, "frp_max": 28.72, "frp_moyen": 28.72, "derniere_detection": "2026-07-26T13:16:00", "fetch_timestamp": "2026-07-27T02:53:00"}, "geometry": {"type": "Polygon", "coordinates": [[[-0.89590471667562, 44.86126550021348], [-0.895904607407051, 44.86095625808699], [-0.895947116739268, 44.86064849745088], [-0.896031834595823, 44.860345182158866], [-0.896157944448983, 44.860049233205935], [-0.896324231208264, 44.85976350060127], [-0.896529092944832, 44.85949073592651], [-0.896770556338037, 44.85923356584343], [-0.897046295694553, 44.85899446680589], [-0.897353655356401, 44.85877574121917], [-0.897689675281661, 44.858579495276246], [-0.8980511195513, 44.858407618683614], [-0.898434507527594, 44.858261766472076], [-0.898836147364267, 44.858143343066864], [-0.899252171546017, 44.85805348877041], [-0.89967857411575, 44.8579930687874], [-0.900111249231723, 44.85796266489797], [-0.900546030684153, 44.85796256985849], [-0.900978731991645, 44.857992784584084], [-0.901405186692341, 44.85805301813982], [-0.901821288442785, 44.85814269054072], [-0.90222303053933, 44.85826093833351], [-0.902606544482465, 44.85840662290681], [-0.902968137213502, 44.85857834144971], [-0.903304326665748, 44.85877444045337], [-0.903611875288384, 44.858993031626284], [-0.903887821220549, 44.85923201007001], [-0.904129506815679, 44.859489074540704], [-0.90433460424132, 44.85976174960173], [-0.904501137907718, 44.8600474094545], [-0.904627503508807, 44.86034330321826], [-0.904712483491583, 44.86064658141557], [-0.90475525880423, 44.86095432340899], [-0.904755416808928, 44.86126356552464], [-0.904712955282233, 44.861571329592046], [-0.904628282463454, 44.86187465162563], [-0.904502213149548, 44.86217061037133], [-0.904335960873098, 44.86245635544365], [-0.904131126237781, 44.862729134781816], [-0.903889681522762, 44.862986321160506], [-0.903613951703575, 44.863225437499715], [-0.903306592071687, 44.863444180729196], [-0.90297056266786, 44.863640443978], [-0.902609099775391, 44.863812336874574], [-0.902225684747664, 44.86395820376155], [-0.901824010470527, 44.864076639649745], [-0.901407945782811, 44.86416650375703], [-0.90098149819823, 44.864226930501644], [-0.900548775288424, 44.86425733784365], [-0.900113945099865, 44.86425743289398], [-0.899681195986852, 44.864227214737085], [-0.899254696248378, 44.86416697443977], [-0.898838553958681, 44.864077292246094], [-0.898436777379306, 44.86395903198566], [-0.898053236334919, 44.86381333274893], [-0.897691624925696, 44.86364159791041], [-0.897355425936121, 44.86344548160512], [-0.897047877283528, 44.86322687278943], [-0.896771940829927, 44.86298787703982], [-0.896530273857628, 44.86273079626519], [-0.896325203483422, 44.86245810652873], [-0.896158704257487, 44.86217243419296], [-0.896032379162365, 44.86187653061838], [-0.895947444194433, 44.86157324565947], [-0.89590471667562, 44.86126550021348]]]}}, {"type": "Feature", "properties": {"nb_detections_cluster": 7, "frp_max": 26.86, "frp_moyen": 7.69, "derniere_detection": "2026-07-27T02:53:00", "fetch_timestamp": "2026-07-27T02:53:00"}, "geometry": {"type": "Polygon", "coordinates": [[[-0.89858, 44.87904], [-0.896, 44.88251], [-0.89224, 44.88209], [-0.89721, 44.88014], [-0.89769, 44.87621], [-0.89858, 44.87904]]]}}, {"type": "Feature", "properties": {"nb_detections_cluster": 1, "frp_max": 5.46, "frp_moyen": 5.46, "derniere_detection": "2026-07-26T12:55:00", "fetch_timestamp": "2026-07-27T02:53:00"}, "geometry": {"type": "Polygon", "coordinates": [[[-0.876922424462915, 44.88967474503482], [-0.876922419717412, 44.88936550012156], [-0.876965054639276, 44.88905774399788], [-0.877049917941928, 44.88875444047393], [-0.877176191696383, 44.88845851043122], [-0.877342659233295, 44.88817280369671], [-0.877547716882579, 44.88790007160284], [-0.877789389436723, 44.88764294049749], [-0.878065349188108, 44.887403886459104], [-0.878372938356423, 44.88718521145957], [-0.878709194689813, 44.886989021204656], [-0.879070879992975, 44.88681720486455], [-0.879454511307485, 44.886671416889875], [-0.879856394444261, 44.88655306108726], [-0.880272659545629, 44.886463277108135], [-0.880699298335083, 44.88640292948012], [-0.881132202696746, 44.88637259928665], [-0.881567204213832, 44.88637257857445], [-0.882000114286315, 44.88640286754299], [-0.882426764442448, 44.88646317454244], [-0.882843046456956, 44.8865529188806], [-0.883244951890558, 44.88667123641157], [-0.883628610670983, 44.886816987852434], [-0.883990328344789, 44.88698876974835], [-0.884326621641983, 44.88718492798043], [-0.884634252011466, 44.88740357368683], [-0.884910256804776, 44.887642601443915], [-0.885151977808012, 44.88789970953287], [-0.885357086847138, 44.88817242209701], [-0.885523608219884, 44.888458112976515], [-0.885649937737831, 44.8887540309917], [-0.885734858194706, 44.88905732643152], [-0.885777551111166, 44.88936507849236], [-0.885777604642153, 44.88967432340324], [-0.885735017569648, 44.889982082966675], [-0.885650199341407, 44.890285393240354], [-0.885523966154229, 44.89058133308332], [-0.885357533118486, 44.89086705229202], [-0.885152502578399, 44.891139799054656], [-0.884910848699689, 44.89139694645961], [-0.884634898472289, 44.89163601780206], [-0.88432730931051, 44.89185471044513], [-0.883991043465953, 44.89205091800505], [-0.883629339499433, 44.89222275064654], [-0.883245681086594, 44.892368553292606], [-0.882843763457893, 44.89248692157276], [-0.882427457796509, 44.892576715356086], [-0.882000773937646, 44.89263706973818], [-0.881567821729173, 44.89266740337605], [-0.881132771426604, 44.8926674240906], [-0.880699813504761, 44.8926371316823], [-0.880273118274218, 44.892576817933154], [-0.87985679569243, 44.892487063794704], [-0.879454855757661, 44.89236873378955], [-0.87907116986804, 44.89222296767993], [-0.878709433518798, 44.89205116948443], [-0.87837313069762, 44.891854993948286], [-0.878065500321603, 44.89163633059834], [-0.877789505039458, 44.891397285536264], [-0.87754780269958, 44.89114016114589], [-0.877342720758783, 44.890867433910365], [-0.877176233877963, 44.890581730553315], [-0.877049944920031, 44.890285802733935], [-0.876965069532566, 44.88998250054005], [-0.876922424462915, 44.88967474503482]]]}}, {"type": "Feature", "properties": {"nb_detections_cluster": 4, "frp_max": 1.83, "frp_moyen": 1.18, "derniere_detection": "2026-07-27T02:53:00", "fetch_timestamp": "2026-07-27T02:53:00"}, "geometry": {"type": "Polygon", "coordinates": [[[-0.87526, 44.89452], [-0.87721, 44.89791], [-0.87455, 44.89899], [-0.87097, 44.89635], [-0.87526, 44.89452]]]}}, {"type": "Feature", "properties": {"nb_detections_cluster": 3, "frp_max": 1.1, "frp_moyen": 0.85, "derniere_detection": "2026-07-26T03:10:00", "fetch_timestamp": "2026-07-27T02:53:00"}, "geometry": {"type": "Polygon", "coordinates": [[[-0.80474, 44.71709], [-0.79455, 44.71399], [-0.79965, 44.71554], [-0.80474, 44.71709]]]}}, {"type": "Feature", "properties": {"nb_detections_cluster": 3, "frp_max": 8.77, "frp_moyen": 8.77, "derniere_detection": "2026-07-26T13:16:00", "fetch_timestamp": "2026-07-27T02:53:00"}, "geometry": {"type": "Polygon", "coordinates": [[[-0.79152, 44.7394], [-0.78481, 44.73645], [-0.79072, 44.73577], [-0.79152, 44.7394]]]}}, {"type": "Feature", "properties": {"nb_detections_cluster": 1, "frp_max": 9.68, "frp_moyen": 9.68, "derniere_detection": "2026-07-26T13:16:00", "fetch_timestamp": "2026-07-27T02:53:00"}, "geometry": {"type": "Polygon", "coordinates": [[[-0.79652351036885, 44.74599153281982], [-0.796523947442918, 44.745682302863315], [-0.796566913160621, 44.745374592489256], [-0.796651993053427, 44.74507136506677], [-0.796778367110327, 44.744775540743994], [-0.796944817699777, 44.744489968329354], [-0.797149741318447, 44.74421739786139], [-0.797391164052786, 44.743960454131205], [-0.797666760603762, 44.74372161141254], [-0.797973876690979, 44.743503169642146], [-0.798309554620035, 44.74330723227969], [-0.798670561766672, 44.743135686060086], [-0.799053421703428, 44.74299018283274], [-0.799454447669202, 44.74287212366235], [-0.799869778059819, 44.74278264534405], [-0.800295413598363, 44.74272260946221], [-0.800727255828041, 44.7426925940985], [-0.801161146557745, 44.74269288826818], [-0.801592907881355, 44.74272348913875], [-0.802018382386411, 44.742784102057065], [-0.802433473165948, 44.74287414338526], [-0.802834183249156, 44.742992746117615], [-0.803216654072101, 44.743138768224924], [-0.803577202618849, 44.7433108036459], [-0.803912356876051, 44.74350719582023], [-0.804218889260088, 44.74372605363311], [-0.804493847695279, 44.743965269618144], [-0.804734584044022, 44.74422254024366], [-0.804938779615098, 44.74449538808737], [-0.805104467504238, 44.74478118568629], [-0.805230051551458, 44.74507718083262], [-0.805314321731957, 44.74538052307198], [-0.805356465831679, 44.74568829114957], [-0.805356077294204, 44.74599752113966], [-0.805313159162462, 44.746305234987936], [-0.805228124076281, 44.74660846919181], [-0.805101790324776, 44.74690430334253], [-0.804935373990579, 44.74718988825397], [-0.804730477260611, 44.74746247340739], [-0.8044890730151, 44.74771943344728], [-0.804213485842567, 44.74795829347314], [-0.803906369663, 44.74817675288315], [-0.803570682174348, 44.748372707539694], [-0.80320965636824, 44.74854427004333], [-0.802826769389211, 44.74868978791881], [-0.802425709037579, 44.74880785953854], [-0.802010338238951, 44.748897347628976], [-0.8015846578231, 44.74895739023018], [-0.801152767971427, 44.74898740900231], [-0.800718828705129, 44.74898711479904], [-0.800287019795558, 44.748956510454256], [-0.799861500483877, 44.74889589075457], [-0.799446369398944, 44.74880583959842], [-0.799045625060483, 44.74868722436925], [-0.798663127348838, 44.74854118757651], [-0.798302560313261, 44.74836913584583], [-0.797967396677616, 44.74817272636429], [-0.797660864385929, 44.747953850911806], [-0.797385915510335, 44.74771461763266], [-0.797145197821064, 44.74745733072312], [-0.796941029292262, 44.74718446823129], [-0.796775375788978, 44.746898658183], [-0.79664983214977, 44.746602653264546], [-0.796565606846577, 44.74629930430581], [-0.79652351036885, 44.74599153281982]]]}}]}