{"type": "FeatureCollection", "name": "zone_active", "crs": {"type": "name", "properties": {"name": "urn:ogc:def:crs:OGC:1.3:CRS84"}}, "features": [{"type": "Feature", "properties": {"nb_detections_cluster": 2, "frp_max": 6.75, "frp_moyen": 6.75, "derniere_detection": "2026-07-28T12:38:00", "fetch_timestamp": "2026-07-29T00:54:00"}, "geometry": {"type": "Polygon", "coordinates": [[[-1.19926159118679, 44.77283825114006], [-1.199517469272508, 44.772986587993614], [-1.199825697809461, 44.77320435082373], [-1.200102479445559, 44.7734425845171], [-1.200345148491516, 44.77369899500254], [-1.200551367649383, 44.77397111314237], [-1.200719150532079, 44.77425631850251], [-1.20084688080814, 44.77455186458046], [-1.20093332778671, 44.774854905248816], [-1.200977658292007, 44.77516252215937], [-1.200979444712002, 44.775471752844744], [-1.200938669142883, 44.77577961924645], [-1.200855723588365, 44.776083156395245], [-1.200731406210895, 44.77637944096717], [-1.200566913669836, 44.776665619440436], [-1.200363829619467, 44.77693893558177], [-1.200124109476704, 44.77719675699728], [-1.199850061604483, 44.77743660049189], [-1.199544325091476, 44.777656155992915], [-1.199209844341682, 44.77785330880684], [-1.198849840718433, 44.77802615999475], [-1.198467781515883, 44.778173044669735], [-1.198067346556975, 44.77829254803972], [-1.197652392739985, 44.77838351904085], [-1.197226916875625, 44.77844508142981], [-1.196795017173325, 44.778476642227986], [-1.196360853748479, 44.778477897436105], [-1.195928608531919, 44.778448834963726], [-1.19550244496875, 44.778389734745886], [-1.195086467895665, 44.77830116604534], [-1.194684683984202, 44.778183981966464], [-1.194300963131823, 44.778039311234174], [-1.193939001173516, 44.77786854731681], [-1.193602284273766, 44.77767333499806], [-1.193294055342395, 44.77745555452811], [-1.193017282798114, 44.77721730350589], [-1.192774631980818, 44.77696087666857], [-1.192568439487936, 44.776688743782174], [-1.19240069068183, 44.77640352584753], [-1.192273000584419, 44.77610796985033], [-1.192186598342516, 44.77580492229921], [-1.192142315412698, 44.775497301806816], [-1.192140577578696, 44.77518807097826], [-1.192181400877189, 44.77488020787746], [-1.192264391470249, 44.77457667734685], [-1.192388749464621, 44.774280402456036], [-1.192428279495025, 44.77421164720216], [-1.192172414533719, 44.77406329392264], [-1.191864210922168, 44.77384550974889], [-1.191587462198921, 44.77360725545424], [-1.191344833474454, 44.77335082580733], [-1.191138661133442, 44.773078690601274], [-1.190970930344199, 44.7727934708592], [-1.190843255955182, 44.77249791358423], [-1.190756866961977, 44.77219486529729], [-1.190712594693648, 44.7718872446181], [-1.190710864831328, 44.77157801415353], [-1.190751693335016, 44.77127015196403], [-1.190834686316747, 44.77096662288323], [-1.190959043860358, 44.770670349966764], [-1.19112356775003, 44.77038418634536], [-1.19132667303223, 44.77011088775298], [-1.19156640329883, 44.76985308599436], [-1.191840449543497, 44.76961326360755], [-1.192146172409163, 44.76939372996448], [-1.192480627611929, 44.76919659904018], [-1.192840594296334, 44.76902376906368], [-1.193222606048924, 44.768876904246724], [-1.193622984271616, 44.76875741876545], [-1.194037873593859, 44.76866646314932], [-1.194463278983101, 44.76860491320784], [-1.19489510419692, 44.76857336160149], [-1.195329191207327, 44.76857211213797], [-1.195761360218531, 44.768601176848186], [-1.19618744989379, 44.76866027587066], [-1.19660335740496, 44.76874884014479], [-1.197005077920053, 44.76886601688758], [-1.197388743149501, 44.7690106778011], [-1.197750658580732, 44.76918142993169], [-1.19808733904324, 44.76937662907685], [-1.198395542262184, 44.76959439561086], [-1.19867230007781, 44.76983263257687], [-1.198914947030229, 44.770089045872226], [-1.199121146034275, 44.77036116633216], [-1.199288910896986, 44.77064637350022], [-1.199416625460486, 44.77094192085654], [-1.199503059185302, 44.77124496226134], [-1.199547379023362, 44.77155257935936], [-1.199549157465452, 44.77186180968135], [-1.199508376684681, 44.772169675172385], [-1.19942542873505, 44.77247321087193], [-1.199301111802165, 44.77276949346998], [-1.19926159118679, 44.77283825114006]]]}}, {"type": "Feature", "properties": {"nb_detections_cluster": 4, "frp_max": 4.05, "frp_moyen": 1.77, "derniere_detection": "2026-07-28T12:38:00", "fetch_timestamp": "2026-07-29T00:54:00"}, "geometry": {"type": "Polygon", "coordinates": [[[-1.218475178664286, 44.76998697942439], [-1.218886500757951, 44.76989670682454], [-1.219311888239641, 44.76983506149477], [-1.219743708937336, 44.769803413072296], [-1.220177804866481, 44.769802066297004], [-1.22060999614542, 44.76983103413683], [-1.221036121223076, 44.769890037663046], [-1.221452076930551, 44.7699785087346], [-1.221853857971966, 44.770095595465946], [-1.222237595475183, 44.770240170425886], [-1.222599594231978, 44.77041084148846], [-1.222936368269788, 44.770605965231866], [-1.223244674413029, 44.77082366275644], [-1.22352154351117, 44.771061837770006], [-1.223764309033037, 44.77131819676653], [-1.223970632751973, 44.77159027110423], [-1.224138527274297, 44.77187544077095], [-1.224266375193728, 44.77217095960808], [-1.224352944686726, 44.77247398175066], [-1.224397401397844, 44.772781589029016], [-1.224399316499762, 44.77309081906869], [-1.224358670849458, 44.7733986938176], [-1.224275855199435, 44.77370224822621], [-1.22415166646099, 44.7739985588045], [-1.223987300054442, 44.77428477178036], [-1.223784338419078, 44.77455813058834], [-1.22354473579258, 44.774816002423705], [-1.223270799405781, 44.77505590360593], [-1.222965167273292, 44.77527552350676], [-1.222630782793456, 44.77547274681245], [-1.222270866402054, 44.77564567390524], [-1.221888884552741, 44.77579263916712], [-1.221488516323129, 44.77591222702986], [-1.221073617968517, 44.77600328561576], [-1.220648185765199, 44.77606493783791], [-1.220216317501909, 44.77609658985243], [-1.219782172991126, 44.776097936781404], [-1.219349933981466, 44.77606896565094], [-1.218923763858276, 44.77600995551627], [-1.218507767521526, 44.77592147477239], [-1.218105951828455, 44.77580437567655], [-1.217722186982845, 44.7756597861351], [-1.217360169243675, 44.775489098834385], [-1.217023385312987, 44.775293957820196], [-1.216715078746542, 44.77507624265592], [-1.216438218711138, 44.77483805031163], [-1.216234668796088, 44.774623073132524], [-1.215823307881947, 44.774713336039916], [-1.215397879681699, 44.774774968085936], [-1.214966018369735, 44.77480659963301], [-1.214531883691572, 44.774807926000335], [-1.214099657301103, 44.77477893441211], [-1.213673502462097, 44.77471990412058], [-1.213257523927264, 44.774631403714906], [-1.21285572838232, 44.774514285641736], [-1.212471985836926, 44.774369677990194], [-1.212109992335199, 44.77419897362102], [-1.211773234345667, 44.774003816744475], [-1.211464955174163, 44.773786087076644], [-1.211188123723564, 44.77354788172731], [-1.210945405901392, 44.773291494993735], [-1.210739138950707, 44.77301939625581], [-1.210571308951257, 44.772734206185554], [-1.210443531707194, 44.77243867150038], [-1.210357037204854, 44.77213563850376], [-1.210312657789545, 44.77182802566832], [-1.210310820174359, 44.77151879552549], [-1.210351541357016, 44.77121092613275], [-1.210434428483049, 44.770907382393226], [-1.210558682655614, 44.770611087503816], [-1.210723106654223, 44.77032489480701], [-1.210926116487105, 44.77005156031684], [-1.211165756665075, 44.76979371618385], [-1.211439719049085, 44.76955384535421], [-1.211745365089349, 44.769334257666415], [-1.212079751241494, 44.76913706761598], [-1.21243965731471, 44.768964174001304], [-1.212821617478941, 44.76881724164698], [-1.213221953632639, 44.768697685379486], [-1.213636810810147, 44.768606656409915], [-1.214062194288293, 44.7685450312541], [-1.214494008035531, 44.76851340329677], [-1.214928094134227, 44.76851207708074], [-1.215360272797372, 44.76854106537608], [-1.215786382595331, 44.76860008905698], [-1.216202320506295, 44.76868857978838], [-1.2166040814057, 44.768805685495416], [-1.216987796615296, 44.76895027856416], [-1.217349771141463, 44.769120966694295], [-1.217686519244896, 44.76931610629963], [-1.217994797999676, 44.76953381832777], [-1.218271638518943, 44.76977200634685], [-1.218475178664286, 44.76998697942439]]]}}, {"type": "Feature", "properties": {"nb_detections_cluster": 12, "frp_max": 30.03, "frp_moyen": 9.06, "derniere_detection": "2026-07-28T13:59:00", "fetch_timestamp": "2026-07-29T00:54:00"}, "geometry": {"type": "Polygon", "coordinates": [[[-1.21262, 44.81327], [-1.22227, 44.81276], [-1.21776, 44.81698], [-1.21263, 44.81792], [-1.21247, 44.81717], [-1.2141, 44.81687], [-1.21262, 44.81327]]]}}, {"type": "Feature", "properties": {"nb_detections_cluster": 2, "frp_max": 4.5, "frp_moyen": 4.13, "derniere_detection": "2026-07-28T12:38:00", "fetch_timestamp": "2026-07-29T00:54:00"}, "geometry": {"type": "Polygon", "coordinates": [[[-1.198626468393681, 44.81807819183549], [-1.198899876306242, 44.818236568528405], [-1.19920835061881, 44.818454336421404], [-1.199485352488239, 44.818692575315744], [-1.199728214104055, 44.818948991090124], [-1.199934596313323, 44.81922111455601], [-1.200102511158061, 44.81950632522794], [-1.200230341035137, 44.81980187655237], [-1.20031685429355, 44.82010492235131], [-1.20036121711816, 44.82041254422718], [-1.200363001584583, 44.820721779664744], [-1.200322189806691, 44.821029650559794], [-1.200239174135808, 44.82133319189979], [-1.200114753408595, 44.82162948032037], [-1.199950125278795, 44.82191566226269], [-1.199746874705685, 44.82218898146006], [-1.19950695870926, 44.82244680548912], [-1.199232687538206, 44.82268665112963], [-1.198926702431466, 44.822906208288195], [-1.198591950187131, 44.823103362255345], [-1.1982316547834, 44.823276214081034], [-1.197849286324861, 44.82342309887219], [-1.197448527613393, 44.823542601835605], [-1.197033238665984, 44.823633571911316], [-1.196607419521771, 44.82369513286494], [-1.1961751716972, 44.82372669173167], [-1.19574065866138, 44.82372794453084], [-1.195308065713215, 44.823698879195206], [-1.19488155964776, 44.82363977568741], [-1.194465248601233, 44.82355120330185], [-1.194063142462457, 44.823434015178435], [-1.193679114232912, 44.82328934008106], [-1.193316862708423, 44.8231185715201], [-1.192979876842585, 44.82292335432403], [-1.192671402135728, 44.822705568789935], [-1.192394409373513, 44.8224673125656], [-1.192151566016432, 44.82221088043827], [-1.191945210515746, 44.82193874222497], [-1.191777329803041, 44.82165351897783], [-1.191649540169771, 44.8213579577337], [-1.191563071720394, 44.82105490505176], [-1.191518756548062, 44.820747279594094], [-1.19151702074591, 44.820438044013585], [-1.191557880329924, 44.820130176419966], [-1.19164094111162, 44.81982664169889], [-1.191765402520749, 44.819530362960315], [-1.191793399524379, 44.81948170683919], [-1.191520005582031, 44.81932331256776], [-1.19121155629229, 44.81910552323525], [-1.190934587462112, 44.81886726365131], [-1.1906917663215, 44.81861082863553], [-1.190485431107768, 44.81833868803277], [-1.190317568557155, 44.81805346291815], [-1.190189794786253, 44.81775790034652], [-1.19010333974681, 44.81745484688981], [-1.190059035402909, 44.81714722121757], [-1.190057307743484, 44.81683798598472], [-1.190098172706191, 44.81653011929767], [-1.190181236050839, 44.816226586033274], [-1.19030569718259, 44.81593030928756], [-1.190470356887083, 44.815644142228024], [-1.190673628902015, 44.81537084062175], [-1.190913555212909, 44.815113036302535], [-1.191187824924989, 44.814873211833], [-1.191493796528855, 44.814653676605154], [-1.191828523345128, 44.81445654460925], [-1.192188781902781, 44.81428371408464], [-1.192571102977894, 44.81413684924833], [-1.192971804994071, 44.81401736427661], [-1.193387029463246, 44.81392640969405], [-1.193812778126162, 44.81386486130018], [-1.194244951435525, 44.81383331174061], [-1.194679388012098, 44.81383206480324], [-1.195111904694708, 44.81386113249476], [-1.19553833679945, 44.81392023492493], [-1.195954578201438, 44.81400880300031], [-1.196356620854068, 44.81412598390139], [-1.196740593366206, 44.81427064929015], [-1.197102798266606, 44.814441406169855], [-1.197439747597442, 44.81463661029233], [-1.197748196494744, 44.81485438198386], [-1.198025174432738, 44.81509262423802], [-1.198268013831414, 44.815349042901204], [-1.198474375751811, 44.81562116875696], [-1.198642272431365, 44.81590638129689], [-1.198770086441933, 44.816201933949436], [-1.198856586285372, 44.816504980523774], [-1.198900938275814, 44.816812602614895], [-1.198902714593288, 44.81712183770545], [-1.198861897430245, 44.81742970769455], [-1.198778879189954, 44.81773324757838], [-1.198654458733921, 44.818029534006634], [-1.198626468393681, 44.81807819183549]]]}}, {"type": "Feature", "properties": {"nb_detections_cluster": 5, "frp_max": 9.11, "frp_moyen": 5.44, "derniere_detection": "2026-07-28T13:59:00", "fetch_timestamp": "2026-07-29T00:54:00"}, "geometry": {"type": "Polygon", "coordinates": [[[-1.16614, 44.84729], [-1.16998, 44.84838], [-1.16499, 44.84886], [-1.16252, 44.84922], [-1.16329, 44.84716], [-1.16614, 44.84729]]]}}, {"type": "Feature", "properties": {"nb_detections_cluster": 11, "frp_max": 28.01, "frp_moyen": 9.86, "derniere_detection": "2026-07-28T13:59:00", "fetch_timestamp": "2026-07-29T00:54:00"}, "geometry": {"type": "Polygon", "coordinates": [[[-1.1798, 44.87698], [-1.17966, 44.87771], [-1.17741, 44.87697], [-1.17472, 44.87261], [-1.17175, 44.87146], [-1.1728, 44.86985], [-1.17818, 44.86965], [-1.18251, 44.87111], [-1.17714, 44.87128], [-1.17843, 44.87534], [-1.1798, 44.87698]]]}}, {"type": "Feature", "properties": {"nb_detections_cluster": 1, "frp_max": 3.3, "frp_moyen": 3.3, "derniere_detection": "2026-07-28T13:59:00", "fetch_timestamp": "2026-07-29T00:54:00"}, "geometry": {"type": "Polygon", "coordinates": [[[-1.167963783173588, 44.883006344353376], [-1.167962175200447, 44.882697102198364], [-1.16800320927588, 44.88238923709955], [-1.168086489529505, 44.882085713918435], [-1.168211213276159, 44.8817894556537], [-1.168376178771192, 44.88150331529482], [-1.168579796806479, 44.881230048351576], [-1.168820106034574, 44.88097228632381], [-1.169094791872723, 44.880732511366816], [-1.169401208804055, 44.880513032395704], [-1.169736405860821, 44.88031596285893], [-1.170097155044018, 44.880143200394315], [-1.170479982405716, 44.87999640856343], [-1.17088120149493, 44.87987700083955], [-1.171296948845335, 44.87978612700341], [-1.171723221163621, 44.879724662076995], [-1.172155913861073, 44.87969319790217], [-1.172590860558154, 44.8796920374447], [-1.173023873182602, 44.87972119187856], [-1.173450782275859, 44.879780380478266], [-1.173867477120757, 44.8798690333207], [-1.174269945304948, 44.87998629677009], [-1.174654311340095, 44.88013104169355], [-1.175016873965708, 44.880301874328524], [-1.175354141779152, 44.8804971496973], [-1.175662866849247, 44.88071498744011], [-1.175940075990142, 44.880953289914444], [-1.176183099394524, 44.881209762386725], [-1.176389596350375, 44.881481935122274], [-1.176557577793436, 44.88176718716118], [-1.176685425477811, 44.88206277155133], [-1.176771907579479, 44.882365841796236], [-1.176816190581766, 44.88267347926274], [-1.176817847327407, 44.882982721285344], [-1.176776861158744, 44.883290589696216], [-1.176693626105122, 44.88359411950663], [-1.1765689431147, 44.883890387463104], [-1.176404012365884, 44.88417654020375], [-1.176200421731526, 44.88444982174292], [-1.175960131506064, 44.884707600019865], [-1.175685455541997, 44.884947392254894], [-1.175379038976738, 44.885166888868866], [-1.175043832763967, 44.88536397573535], [-1.174683065254548, 44.88553675455052], [-1.174300211100679, 44.885683561124495], [-1.17389895778295, 44.88580298141737], [-1.173483170083071, 44.88589386516547], [-1.173056852844959, 44.885955336965864], [-1.172624112383573, 44.88598680471253], [-1.17218911691399, 44.885987965302405], [-1.171756056382776, 44.88595880755648], [-1.171329102089513, 44.88589961232747], [-1.170912366488383, 44.88581094979329], [-1.170509863557974, 44.885693673962166], [-1.1701254701219, 44.885548914442765], [-1.169762888493652, 44.88537806555858], [-1.169425610806126, 44.885182772911776], [-1.16911688536996, 44.884964917526105], [-1.168839685385071, 44.884726597722086], [-1.16859668030691, 44.88447010889925], [-1.168390210143232, 44.88419792142063], [-1.168222262928685, 44.883912656812704], [-1.168094455593784, 44.883617062510595], [-1.168008018411941, 44.883313985391716], [-1.167963783173588, 44.883006344353376]]]}}, {"type": "Feature", "properties": {"nb_detections_cluster": 17, "frp_max": 38.37, "frp_moyen": 18.25, "derniere_detection": "2026-07-28T13:59:00", "fetch_timestamp": "2026-07-29T00:54:00"}, "geometry": {"type": "Polygon", "coordinates": [[[-0.98704, 44.75491], [-0.99247, 44.75471], [-0.99219, 44.75576], [-0.98675, 44.75592], [-0.98128, 44.75608], [-0.97582, 44.75624], [-0.97452, 44.75742], [-0.97036, 44.75641], [-0.96211, 44.75669], [-0.95944, 44.75673], [-0.95976, 44.75586], [-0.97066, 44.75548], [-0.97545, 44.75051], [-0.97612, 44.75529], [-0.98159, 44.7551], [-0.98704, 44.75491]]]}}, {"type": "Feature", "properties": {"nb_detections_cluster": 3, "frp_max": 16.31, "frp_moyen": 12.77, "derniere_detection": "2026-07-28T13:59:00", "fetch_timestamp": "2026-07-29T00:54:00"}, "geometry": {"type": "Polygon", "coordinates": [[[-1.0249, 44.75477], [-1.02458, 44.75178], [-1.02517, 44.75356], [-1.0249, 44.75477]]]}}, {"type": "Feature", "properties": {"nb_detections_cluster": 1, "frp_max": 0.67, "frp_moyen": 0.67, "derniere_detection": "2026-07-28T02:34:00", "fetch_timestamp": "2026-07-29T00:54:00"}, "geometry": {"type": "Polygon", "coordinates": [[[-1.141669232133774, 44.81282529258564], [-1.141667770832879, 44.81251605710359], [-1.141708897689999, 44.81220820874341], [-1.141792215943024, 44.81190471220519], [-1.141916922542634, 44.81160849023092], [-1.142081815911037, 44.81132239546043], [-1.142285307536298, 44.811049182964375], [-1.142525437289747, 44.81079148371816], [-1.142799892318175, 44.81055177927244], [-1.143106029328347, 44.8103323778632], [-1.14344090004879, 44.810135392192], [-1.143801279623426, 44.809962719089036], [-1.14418369766363, 44.80981602125538], [-1.144584471659835, 44.809696711259186], [-1.144999742431307, 44.80960593794013], [-1.145425511273264, 44.809544575352305], [-1.145857678444311, 44.80951321435221], [-1.146292082624396, 44.80951215691215], [-1.146724540964241, 44.8095414132141], [-1.147150889341547, 44.80960070155175], [-1.147567022437344, 44.80968945104159], [-1.147968933247518, 44.809806807117155], [-1.148352751649969, 44.8099516397537], [-1.14871478165684, 44.81012255434394], [-1.149051536993794, 44.81031790512099], [-1.149359774664264, 44.810535810998836], [-1.149636526175849, 44.81077417367875], [-1.149879126128322, 44.81103069784731], [-1.150085237887968, 44.81130291327188], [-1.150252876100748, 44.811588198581305], [-1.150380425827159, 44.81188380650293], [-1.150466658113868, 44.812186890313484], [-1.150510741851484, 44.81249453124901], [-1.150512251803395, 44.81280376661039], [-1.150471172727392, 44.813111618293846], [-1.150387899549383, 44.81341512147151], [-1.150263233586481, 44.813711353146296], [-1.150098374854832, 44.81399746030556], [-1.149894910535298, 44.814270687402576], [-1.149654799707208, 44.81452840290079], [-1.149380354496481, 44.81476812462506], [-1.149074217819058, 44.81498754367533], [-1.148739337933629, 44.815184546672135], [-1.148378940048477, 44.81535723611947], [-1.147996495255888, 44.81550394868814], [-1.14759568709351, 44.815623271243744], [-1.147180376055062, 44.81571405446395], [-1.146754562392765, 44.81577542391418], [-1.146322347570432, 44.81580678847421], [-1.14588789473933, 44.815807846034936], [-1.145455388618368, 44.81577858640971], [-1.145028995166045, 44.815719291432586], [-1.144612821433539, 44.81563053224226], [-1.144210875986612, 44.8155131637779], [-1.143827030278433, 44.81536831654043], [-1.143464981346203, 44.81519738569814], [-1.14312821619155, 44.815002017642584], [-1.142819978188329, 44.8147840941237], [-1.142543235841731, 44.81454571411819], [-1.142300654199775, 44.81428917360527], [-1.142094569192515, 44.814016943445665], [-1.141926965145909, 44.813731645576844], [-1.141799455686473, 44.81343602775405], [-1.141713268220105, 44.81313293708108], [-1.141669232133774, 44.81282529258564]]]}}, {"type": "Feature", "properties": {"nb_detections_cluster": 6, "frp_max": 1.85, "frp_moyen": 1.21, "derniere_detection": "2026-07-28T02:53:00", "fetch_timestamp": "2026-07-29T00:54:00"}, "geometry": {"type": "Polygon", "coordinates": [[[-1.10879, 44.93298], [-1.10883, 44.93509], [-1.1015, 44.93747], [-1.10323, 44.9328], [-1.10521, 44.9296], [-1.10879, 44.93298]]]}}, {"type": "Feature", "properties": {"nb_detections_cluster": 2, "frp_max": 11.01, "frp_moyen": 10.11, "derniere_detection": "2026-07-28T13:59:00", "fetch_timestamp": "2026-07-29T00:54:00"}, "geometry": {"type": "Polygon", "coordinates": [[[-1.058691567394377, 44.94680349315202], [-1.058982594077424, 44.94691334791663], [-1.059345235710315, 44.94708456146666], [-1.059682502014133, 44.9472801918745], [-1.059991145070553, 44.94749835536132], [-1.060268192481512, 44.94773695114752], [-1.060510975994907, 44.9479936816747], [-1.060717157206461, 44.94826607472271], [-1.060884750090065, 44.948551507209494], [-1.06101214013922, 44.94884723044464], [-1.061098099934643, 44.949150396593915], [-1.06114180098741, 44.94945808609985], [-1.061142821742696, 44.949767335795066], [-1.061101151666088, 44.95007516743711], [-1.061017191372088, 44.95037861639059], [-1.060891748792539, 44.95067476018006], [-1.060726031420843, 44.950960746638756], [-1.060521634705717, 44.95123382138192], [-1.060280526705365, 44.95149135433986], [-1.060005029149153, 44.95173086509515], [-1.059697795088558, 44.951950046779295], [-1.059361783352236, 44.95214678829876], [-1.059000230051025, 44.95231919467573], [-1.058616617407265, 44.95246560530735], [-1.058214640208862, 44.95258460996726], [-1.057798170211534, 44.952675062395045], [-1.057371218832637, 44.95273609134224], [-1.056937898496596, 44.95276710896839], [-1.056502383005052, 44.9527678165061], [-1.056068867314352, 44.95273820714023], [-1.05564152710877, 44.95267856607358], [-1.055224478559808, 44.95258946777841], [-1.054821738660171, 44.952471770460214], [-1.054437186515365, 44.952326607787356], [-1.054074525966559, 44.95215537796636], [-1.053737249905452, 44.95195973026833], [-1.053428606625332, 44.951741549136514], [-1.053318190627135, 44.95164644808212], [-1.053027150476229, 44.95153657833897], [-1.052664499343301, 44.95136534395918], [-1.052327232954408, 44.95116969202992], [-1.052018599509666, 44.95095150703519], [-1.051741571320984, 44.950712890469866], [-1.051498816186967, 44.95045614059136], [-1.05129267170571, 44.95018373027653], [-1.051125122772714, 44.94989828319748], [-1.050997782480177, 44.94960254854614], [-1.050911876601098, 44.94929937455095], [-1.050868231806841, 44.9489916810415], [-1.050867267730789, 44.94868243132519], [-1.050908992953554, 44.94837460364694], [-1.050993004947405, 44.94807116250711], [-1.051118493979368, 44.9477750301136], [-1.051284250934452, 44.947489058243015], [-1.051488678982622, 44.94721600078198], [-1.051729808976371, 44.94695848721244], [-1.052005318429798, 44.946718997296564], [-1.05231255389588, 44.94649983720421], [-1.052648556526006, 44.94630311731279], [-1.053010090565422, 44.946130731893035], [-1.053393674510156, 44.945984340875576], [-1.053795614625568, 44.94586535387407], [-1.054212040504102, 44.945774916617914], [-1.054638942320386, 44.945713899925245], [-1.055072209425632, 44.945682891321866], [-1.055507669910482, 44.945682189386865], [-1.055941130756276, 44.94571180087915], [-1.056368418189076, 44.94577144067229], [-1.056785417848841, 44.945860534498586], [-1.057188114387921, 44.945978224476], [-1.057572630118508, 44.94612337736455], [-1.057935262337665, 44.946294595473155], [-1.058272518971255, 44.946490230112126], [-1.058581152194051, 44.94670839746186], [-1.058691567394377, 44.94680349315202]]]}}, {"type": "Feature", "properties": {"nb_detections_cluster": 1, "frp_max": 8.43, "frp_moyen": 8.43, "derniere_detection": "2026-07-28T12:38:00", "fetch_timestamp": "2026-07-29T00:54:00"}, "geometry": {"type": "Polygon", "coordinates": [[[-0.87702457438142, 44.73522474086603], [-0.877024569087713, 44.734915511937395], [-0.877067086458229, 44.7346077716865], [-0.877151716342247, 44.73430448377067], [-0.87727764306229, 44.7340085689211], [-0.877443653294341, 44.73372287681852], [-0.877648147775131, 44.73345015865442], [-0.877889156722908, 44.73319304064265], [-0.878164358822415, 44.73295399873558], [-0.878471103590693, 44.7327353347883], [-0.878806436907918, 44.73253915440025], [-0.879167129467186, 44.732367346646654], [-0.879549707869264, 44.73222156589545], [-0.879950488063052, 44.732103215883775], [-0.880365610810097, 44.73201343620734], [-0.88079107883219, 44.73195309135236], [-0.881222795285027, 44.73192276237557], [-0.881656603188256, 44.73192274131201], [-0.882088325433158, 44.73195302836452], [-0.882513804983637, 44.7320133319017], [-0.882928944884439, 44.732103071264724], [-0.883329747692256, 44.7322213823555], [-0.88371235395099, 44.73236712595312], [-0.884073079341419, 44.732538898678214], [-0.884408450148307, 44.7327350465002], [-0.884715236703891, 44.7329536806574], [-0.884990484486102, 44.73319269583733], [-0.885231542572217, 44.73344979044228], [-0.885436089173929, 44.73372248874533], [-0.885602154007687, 44.73400816472394], [-0.885728137284516, 44.73430406734196], [-0.885812825135831, 44.734607347036516], [-0.885855401325969, 44.734915083155634], [-0.885855455137784, 44.73522431208187], [-0.885812985354404, 44.73553205577166], [-0.885728400297802, 44.735835350435565], [-0.885602513922764, 44.736131275083025], [-0.885436538002871, 44.7364169796568], [-0.885232070482794, 44.73668971248613], [-0.8849910801082, 44.73694684679359], [-0.884715887480589, 44.737185906000626], [-0.884409142718922, 44.73740458758721], [-0.884073799942767, 44.737600785276165], [-0.88371308882253, 44.737772609327294], [-0.883330483470732, 44.737918404746395], [-0.882929668974135, 44.73803676723266], [-0.882514505889428, 44.738126556711], [-0.882088993044977, 44.738186908318475], [-0.881657229007584, 44.738217240738884], [-0.881223372586246, 44.738217261804834], [-0.880791602754209, 44.73818697131344], [-0.880366078376312, 44.73812666102818], [-0.879950898130506, 44.73803691186729], [-0.87955006101053, 44.73791858830531], [-0.879167427791085, 44.73777283004245], [-0.878806683827472, 44.73760104102164], [-0.878471303548687, 44.73740487589971], [-0.878164516986493, 44.73718622410319], [-0.877889278663214, 44.736947191622384], [-0.877648239138067, 44.7366900807199], [-0.877443719486075, 44.73641736774894], [-0.877277688955127, 44.736131679295724], [-0.87715174601596, 44.73583576687582], [-0.877067102987002, 44.735532480428766], [-0.87702457438142, 44.73522474086603]]]}}, {"type": "Feature", "properties": {"nb_detections_cluster": 3, "frp_max": 1.54, "frp_moyen": 1.5, "derniere_detection": "2026-07-28T02:34:00", "fetch_timestamp": "2026-07-29T00:54:00"}, "geometry": {"type": "Polygon", "coordinates": [[[-0.88329, 44.77831], [-0.8758, 44.78067], [-0.86979, 44.77943], [-0.88329, 44.77831]]]}}, {"type": "Feature", "properties": {"nb_detections_cluster": 5, "frp_max": 23.08, "frp_moyen": 11.16, "derniere_detection": "2026-07-28T13:59:00", "fetch_timestamp": "2026-07-29T00:54:00"}, "geometry": {"type": "Polygon", "coordinates": [[[-0.90408, 44.8507], [-0.89853, 44.85088], [-0.90298, 44.8495], [-0.90408, 44.8507]]]}}, {"type": "Feature", "properties": {"nb_detections_cluster": 19, "frp_max": 288.9, "frp_moyen": 80.17, "derniere_detection": "2026-07-29T00:54:00", "fetch_timestamp": "2026-07-29T00:54:00"}, "geometry": {"type": "Polygon", "coordinates": [[[-0.8772, 44.86893], [-0.88126, 44.86885], [-0.88006, 44.86923], [-0.87469, 44.87027], [-0.87164, 44.86913], [-0.86775, 44.86685], [-0.87319, 44.86544], [-0.87133, 44.86335], [-0.87251, 44.86035], [-0.87317, 44.85842], [-0.87471, 44.85622], [-0.87658, 44.8574], [-0.87966, 44.85846], [-0.87537, 44.86324], [-0.8749, 44.86497], [-0.8757, 44.86901], [-0.8772, 44.86893]]]}}, {"type": "Feature", "properties": {"nb_detections_cluster": 2, "frp_max": 4.08, "frp_moyen": 3.21, "derniere_detection": "2026-07-28T13:59:00", "fetch_timestamp": "2026-07-29T00:54:00"}, "geometry": {"type": "Polygon", "coordinates": [[[-0.968564623787707, 44.86905310134841], [-0.968662169162963, 44.86902427350388], [-0.969078162060992, 44.868934157266885], [-0.969504571954299, 44.86887346890627], [-0.969937292930388, 44.86884279278635], [-0.97037215833784, 44.868842424284786], [-0.970804980886998, 44.86887236694985], [-0.971231592948888, 44.86893233246628], [-0.971647886665301, 44.86902174343], [-0.972049853484769, 44.869139738905176], [-0.972433622744647, 44.869285182710094], [-0.972795498928588, 44.869456674352264], [-0.973131997241343, 44.86965256250791], [-0.973439877158866, 44.86987096091602], [-0.973716173630993, 44.870109766534576], [-0.973958225636428, 44.8703666797842], [-0.974163701815029, 44.87063922668482], [-0.974330622930332, 44.870924782672326], [-0.974457380945608, 44.87122059786656], [-0.974542754529159, 44.871523823547136], [-0.974585920838802, 44.8718315395828], [-0.974586463471181, 44.8721407825501], [-0.974544376498407, 44.87244857427079], [-0.974460064552123, 44.872751950493445], [-0.974334338953161, 44.87304798944253], [-0.97416840992303, 44.87333383996051], [-0.973963874951296, 44.87360674897143], [-0.973722703430017, 44.873864088001426], [-0.973447217702474, 44.87410337850051], [-0.973140070708123, 44.874322315721265], [-0.972804220438676, 44.87451879092452], [-0.972442901451092, 44.87469091169738], [-0.972059593711834, 44.87483702018773], [-0.971657989072621, 44.87495570907936], [-0.971241955700942, 44.875045835153244], [-0.97081550080846, 44.87510653030442], [-0.970382732036963, 44.87513720990755], [-0.969947817874623, 44.87513757845117], [-0.969514947484718, 44.875107632385365], [-0.969088290334716, 44.8750476601561], [-0.968671956015536, 44.87495823942541], [-0.968269954638989, 44.874840231504464], [-0.967886158195728, 44.87469477305327], [-0.967595314999223, 44.874556937887924], [-0.967497759464076, 44.874585764845826], [-0.967081722156246, 44.87467587532346], [-0.966655265577128, 44.87473655449147], [-0.966222497384778, 44.874767217878485], [-0.965787586061792, 44.8747675701292], [-0.965354720744098, 44.874737607850655], [-0.964928070850291, 44.874677619645006], [-0.964511745901372, 44.874588183328115], [-0.964109755918862, 44.874470160361305], [-0.963725972783626, 44.874324687549546], [-0.963364092928422, 44.874153166086415], [-0.963027601724195, 44.87395724805191], [-0.962719739903667, 44.87373882049286], [-0.962443472345988, 44.87349998724013], [-0.96220145952328, 44.8732430486378], [-0.96199603188404, 44.87297047938], [-0.961829167419929, 44.87268490466923], [-0.961702472631574, 44.87238907492612], [-0.961617167076135, 44.872085839294414], [-0.9615740716447, 44.871778118196765], [-0.96157360068157, 44.87146887520567], [-0.961615758020341, 44.87116108850072], [-0.961700136973969, 44.87085772218714], [-0.961825924277854, 44.87056169775167], [-0.961991907946972, 44.870275865930736], [-0.962196488970403, 44.87000297926185], [-0.9624376967298, 44.86974566558184], [-0.962713207992554, 44.86950640272766], [-0.963020369296156, 44.869287494682304], [-0.963356222507817, 44.86909104939592], [-0.963717533312952, 44.86891895849469], [-0.964100822358196, 44.86877287907321], [-0.964502398749207, 44.868654217744584], [-0.964918395581057, 44.868564117102274], [-0.965344807159614, 44.86850344472309], [-0.965777527556175, 44.86847278481748], [-0.966212390124901, 44.86847243260695], [-0.96664520760347, 44.868502391482934], [-0.967071812411713, 44.868562372974054], [-0.967488096761245, 44.86865179952242], [-0.967890052190756, 44.86876981004215], [-0.968273808147232, 44.868915268206635], [-0.968564623787707, 44.86905310134841]]]}}, {"type": "Feature", "properties": {"nb_detections_cluster": 3, "frp_max": 1.53, "frp_moyen": 1.33, "derniere_detection": "2026-07-28T02:34:00", "fetch_timestamp": "2026-07-29T00:54:00"}, "geometry": {"type": "Polygon", "coordinates": [[[-0.89769, 44.88585], [-0.89357, 44.87949], [-0.89809, 44.88432], [-0.89769, 44.88585]]]}}, {"type": "Feature", "properties": {"nb_detections_cluster": 2, "frp_max": 8.52, "frp_moyen": 8.23, "derniere_detection": "2026-07-28T12:19:00", "fetch_timestamp": "2026-07-29T00:54:00"}, "geometry": {"type": "Polygon", "coordinates": [[[-0.948215358189284, 44.90617240705295], [-0.948260109142052, 44.90618202254023], [-0.948662292954914, 44.906300104045336], [-0.949046255719766, 44.90644563036366], [-0.949408300056875, 44.906617200208196], [-0.94974493955156, 44.906813161502086], [-0.950052932319889, 44.90703162728001], [-0.95032931222447, 44.90727049385115], [-0.950571417439921, 44.9075274610491], [-0.950776916092919, 44.90780005437422], [-0.950943828729696, 44.90808564881522], [-0.951070547394225, 44.908381494121485], [-0.951155851132775, 44.90868474128258], [-0.951198917774788, 44.908992469960204], [-0.951199331875768, 44.909301716609], [-0.951157088744723, 44.909609503015176], [-0.951072594516353, 44.90991286497828], [-0.950946662266266, 44.91020888086], [-0.950780504205586, 44.91049469972479], [-0.950575720029206, 44.910767568801404], [-0.950334281528989, 44.91102486000053], [-0.950058513619392, 44.911264095232674], [-0.949751071957665, 44.91148297028269], [-0.949414917373739, 44.911679377010095], [-0.94905328735588, 44.91185142366146], [-0.94866966486668, 44.911997453098586], [-0.948267744789933, 44.912116058766614], [-0.947851398331917, 44.91220609824815], [-0.947424635720491, 44.912266704272206], [-0.946991567561963, 44.912297293072], [-0.94655636522876, 44.912297570010644], [-0.946123220660335, 44.9122675324206], [-0.945696305965478, 44.91220746962943], [-0.945279733216106, 44.912117960171464], [-0.944877514820787, 44.91199986621247], [-0.94449352486055, 44.9118543252412], [-0.944131461760232, 44.91168273910778], [-0.943794812655573, 44.91148676051503], [-0.943486819799809, 44.911268277093065], [-0.943210449333696, 44.91102939321073], [-0.942968362719899, 44.91077240969971], [-0.942904397086123, 44.91068754406443], [-0.942859643457888, 44.910677926406855], [-0.94245744047876, 44.910559823740215], [-0.942073466650665, 44.9104142744704], [-0.941711420243024, 44.91024268052749], [-0.941374788230763, 44.910046694689505], [-0.941066812702461, 44.909828204656314], [-0.940790459631957, 44.9095893148605], [-0.94054839031435, 44.90933232619063], [-0.940342935741516, 44.90905971382297], [-0.940176074163681, 44.90877410337513], [-0.940049412052764, 44.90847824561184], [-0.939964168650258, 44.908174989946566], [-0.939921164247701, 44.90786725699478], [-0.939920812311778, 44.90755801044299], [-0.939963115528882, 44.90725022850497], [-0.94004766580627, 44.90694687523986], [-0.940173648228712, 44.906650872008626], [-0.940339848931545, 44.90636506934339], [-0.94054466681333, 44.90609221950071], [-0.940786128974462, 44.905834949962696], [-0.941061909732311, 44.90559573814111], [-0.941369353029181, 44.905376887527474], [-0.94170549801692, 44.90518050551877], [-0.942067107571533, 44.90500848313184], [-0.942450699463232, 44.90486247680146], [-0.942852579881919, 44.90474389243692], [-0.943268878995626, 44.904653871890524], [-0.943695588200044, 44.904593281967855], [-0.944128598701151, 44.904562706085365], [-0.944563741060209, 44.90456243865553], [-0.944996825321258, 44.9045924822534], [-0.945423681335687, 44.90465254759184], [-0.945840198896543, 44.904742056305594], [-0.946242367297102, 44.90486014651762], [-0.946626313933693, 44.90500568113393], [-0.946988341581851, 44.905177258787575], [-0.947324963987565, 44.90537322732653], [-0.94763293943143, 44.90559169971569], [-0.947909301942854, 44.90583057220057], [-0.948151389863926, 44.90608754455783], [-0.948215358189284, 44.90617240705295]]]}}, {"type": "Feature", "properties": {"nb_detections_cluster": 3, "frp_max": 7.68, "frp_moyen": 7.36, "derniere_detection": "2026-07-28T13:59:00", "fetch_timestamp": "2026-07-29T00:54:00"}, "geometry": {"type": "Polygon", "coordinates": [[[-0.9724, 44.91221], [-0.96141, 44.91256], [-0.9669, 44.91238], [-0.9724, 44.91221]]]}}, {"type": "Feature", "properties": {"nb_detections_cluster": 8, "frp_max": 18.89, "frp_moyen": 5.69, "derniere_detection": "2026-07-28T12:38:00", "fetch_timestamp": "2026-07-29T00:54:00"}, "geometry": {"type": "Polygon", "coordinates": [[[-0.85238, 44.7216], [-0.85288, 44.72599], [-0.85073, 44.72193], [-0.85332, 44.72034], [-0.85238, 44.7216]]]}}, {"type": "Feature", "properties": {"nb_detections_cluster": 1, "frp_max": 2.56, "frp_moyen": 2.56, "derniere_detection": "2026-07-28T02:34:00", "fetch_timestamp": "2026-07-29T00:54:00"}, "geometry": {"type": "Polygon", "coordinates": [[[-0.800184706582481, 44.73087167791212], [-0.800185123425578, 44.73056244960821], [-0.800228057587476, 44.73025473947376], [-0.800313094903896, 44.72995151087554], [-0.800439415774185, 44.72965568397311], [-0.80060580307929, 44.72937010759969], [-0.800810653925562, 44.72909753183199], [-0.801051995100445, 44.72884058151215], [-0.801327502090451, 44.728601730977445], [-0.801634521477714, 44.72838328023987], [-0.801970096499038, 44.72818733284547], [-0.802330995521086, 44.72801577562574], [-0.802713743157493, 44.72787026053605], [-0.803114653728408, 44.72775218875534], [-0.80352986674066, 44.72766269720013], [-0.803955384047399, 44.72760264758233], [-0.804387108330103, 44.72757261811579], [-0.804820882533172, 44.72757289795164], [-0.805252529872329, 44.727603484395324], [-0.805677894032491, 44.72766408293268], [-0.806092879169052, 44.72775411006427], [-0.806493489328324, 44.727872698921104], [-0.806875866908481, 44.72801870760755], [-0.807236329791411, 44.728190730191585], [-0.807571406788671, 44.72838711023648], [-0.807877871060691, 44.728605956744275], [-0.808152771187806, 44.72884516235741], [-0.808393459594095, 44.72910242364411], [-0.808597618050254, 44.729375263272], [-0.808763280009714, 44.72966105385727], [-0.808888849562517, 44.72995704325964], [-0.808973116823802, 44.7302603810801], [-0.809015269607998, 44.730568146106414], [-0.80901490127543, 44.73087737444225], [-0.808972014674817, 44.73118508804925], [-0.808887022142681, 44.73148832342717], [-0.808760741558644, 44.731784160155975], [-0.808594388493577, 44.73206974902476], [-0.808389564525304, 44.73234233947666], [-0.808148241833478, 44.732599306105186], [-0.807872744221289, 44.732838173946384], [-0.807565724746223, 44.733056642323156], [-0.807230140174847, 44.733252607011586], [-0.806869222507502, 44.73342418051558], [-0.806486447847082, 44.73356971025398], [-0.806085502911954, 44.733687794484915], [-0.805670249515889, 44.73377729581336], [-0.805244687357662, 44.733837352151916], [-0.804812915479415, 44.73386738502836], [-0.804379092765815, 44.733867105160606], [-0.803947397865374, 44.73383651524437], [-0.803521988920927, 44.7337759099273], [-0.803106963498117, 44.73368587296934], [-0.802706319098805, 44.73356727161715], [-0.802323914640648, 44.7334212482465], [-0.801963433274662, 44.73324920935376], [-0.801628346899584, 44.733052812002384], [-0.801321882715369, 44.73283394785538], [-0.801046992138306, 44.73259472494822], [-0.800806322377314, 44.73233744737727], [-0.800602190945168, 44.73206459310067], [-0.80043656334992, 44.73177879006517], [-0.800311034180931, 44.73148279088953], [-0.800226811771132, 44.73117944634834], [-0.800184706582481, 44.73087167791212]]]}}, {"type": "Feature", "properties": {"nb_detections_cluster": 1, "frp_max": 1.26, "frp_moyen": 1.26, "derniere_detection": "2026-07-28T01:13:00", "fetch_timestamp": "2026-07-29T00:54:00"}, "geometry": {"type": "Polygon", "coordinates": [[[-0.808044097797094, 44.73890199162958], [-0.808044471516258, 44.73859276240983], [-0.80808736883307, 44.738285048346995], [-0.808172375937866, 44.73798181284576], [-0.808298673520712, 44.737685976132155], [-0.808465044686581, 44.73740038713401], [-0.808669886697017, 44.737127796049585], [-0.808911226424329, 44.73687082786861], [-0.809186739368767, 44.73663195710032], [-0.809493772054944, 44.73641348395163], [-0.80982936759145, 44.736217512184375], [-0.81019029414728, 44.73604592886481], [-0.81057307607085, 44.7359003861996], [-0.810974027352102, 44.73578228563321], [-0.811389287105844, 44.73569276435941], [-0.81181485673517, 44.73563268437619], [-0.812246638417791, 44.73560262418985], [-0.812680474545488, 44.735602873247274], [-0.813112187737813, 44.735633429150305], [-0.813537621045702, 44.73569399767883], [-0.813952677958858, 44.73578399562239], [-0.81435336183259, 44.735902556393015], [-0.814735814355395, 44.736048538365566], [-0.815096352687655, 44.736220535865215], [-0.81543150491451, 44.736416892696866], [-0.815738043472061, 44.73663571808605], [-0.816013016225376, 44.736874904878604], [-0.8162537748992, 44.73713214982401], [-0.816458000587561, 44.737404975747324], [-0.816623726096418, 44.73769075539676], [-0.816749354903752, 44.73798673673732], [-0.816833676553959, 44.73829006944773], [-0.816875878337542, 44.73859783236502], [-0.816875553142768, 44.738907061613176], [-0.816832703402717, 44.739214779145165], [-0.816747741098696, 44.73951802142296], [-0.816621483818979, 44.739813867960116], [-0.816455146909762, 44.740099469451316], [-0.816250331793038, 44.740372075218154], [-0.816009010562988, 44.74062905970671], [-0.815733507008522, 44.74086794778102], [-0.815426474244178, 44.741086438569134], [-0.815090869164364, 44.74128242763131], [-0.814729923966836, 44.7414540272367], [-0.814347115019564, 44.74159958455277], [-0.813946129371112, 44.74171769757199], [-0.813530829227385, 44.74180722862211], [-0.813105214737454, 44.74186731532938], [-0.812673385447573, 44.74189737892913], [-0.812239500795485, 44.74189712984331], [-0.811807740026403, 44.741866570471124], [-0.811382261917736, 44.741805995166025], [-0.810967164701451, 44.741715987398926], [-0.810566446571067, 44.74159741413524], [-0.810183967154549, 44.74145141748027], [-0.809823410325028, 44.741279403673026], [-0.809488248708202, 44.74108302953536], [-0.809181710228819, 44.7408641865068], [-0.80890674701881, 44.74062498241928], [-0.808666006986687, 44.740367721188065], [-0.808461808322027, 44.74009488061389], [-0.80829611718037, 44.73980908851161], [-0.808170528763021, 44.73951309739474], [-0.808086251973419, 44.73920975796026], [-0.808044097797094, 44.73890199162958]]]}}]}