{"type": "FeatureCollection", "name": "zone_active", "crs": {"type": "name", "properties": {"name": "urn:ogc:def:crs:OGC:1.3:CRS84"}}, "features": [{"type": "Feature", "properties": {"nb_detections_cluster": 12, "frp_max": 49.51, "frp_moyen": 18.69, "derniere_detection": "2026-07-30T13:23:00", "fetch_timestamp": "2026-07-30T13:23:00"}, "geometry": {"type": "Polygon", "coordinates": [[[-1.21107, 44.77151], [-1.21795, 44.76941], [-1.21508, 44.77181], [-1.20988, 44.77258], [-1.20828, 44.77475], [-1.20914, 44.77111], [-1.21107, 44.77151]]]}}, {"type": "Feature", "properties": {"nb_detections_cluster": 2, "frp_max": 2.02, "frp_moyen": 1.51, "derniere_detection": "2026-07-30T01:58:00", "fetch_timestamp": "2026-07-30T13:23:00"}, "geometry": {"type": "Polygon", "coordinates": [[[-1.226786157665977, 44.816108411410625], [-1.226893733122376, 44.81625014528855], [-1.227061775888355, 44.816535314858385], [-1.227189740769352, 44.81683083481059], [-1.227276394814535, 44.81713385926946], [-1.227320902853167, 44.817441470043114], [-1.227322835562541, 44.81775070472339], [-1.227282173628949, 44.81805858521353], [-1.227199307960614, 44.81836214640875], [-1.227075035949481, 44.81865846475368], [-1.226910553816875, 44.818944686401416], [-1.226707445115758, 44.819218054702986], [-1.226467665499466, 44.81947593676222], [-1.226193523902857, 44.81971584880011], [-1.225887660316549, 44.81993548008388], [-1.225553020367848, 44.820132715190155], [-1.225192826953, 44.82030565438744], [-1.224810549193912, 44.82045263194117], [-1.224409869018536, 44.82057223216473], [-1.223994645687122, 44.82066330306133], [-1.223568878606561, 44.82072496742548], [-1.223136668791641, 44.82075663129634], [-1.222702179345244, 44.820757989681766], [-1.222269595339023, 44.820729029497535], [-1.22184308348193, 44.82067002969348], [-1.22142675196607, 44.82058155856505], [-1.221024610877599, 44.820464468276924], [-1.220640533554864, 44.82031988665058], [-1.220278219266838, 44.820149206296165], [-1.219941157571975, 44.81995407119261], [-1.219632594701334, 44.81973636084635], [-1.21935550229012, 44.819498172181085], [-1.219112548758982, 44.81924179933345], [-1.218906073620687, 44.81896971154962], [-1.21873806495944, 44.81868452939621], [-1.218610140299304, 44.81838899951439], [-1.218573681704126, 44.818261437365464], [-1.218466123380668, 44.81811969532539], [-1.218298119492842, 44.81783451258642], [-1.218170199080839, 44.81753898228094], [-1.218083593508931, 44.817235950670366], [-1.218039136191105, 44.816928336213934], [-1.218037254589627, 44.81661910145881], [-1.218077966124704, 44.81631122450692], [-1.218160878033655, 44.81600767033421], [-1.218285191179866, 44.81571136223816], [-1.21844970777389, 44.81542515368838], [-1.218652842931314, 44.81515180085169], [-1.218892639955264, 44.81489393605531], [-1.219166789195612, 44.81465404244438], [-1.219472650302685, 44.8144344300768], [-1.219807277660748, 44.81423721368575], [-1.220167448756126, 44.8140642923233], [-1.220549695206745, 44.813917331081214], [-1.220950336154464, 44.81379774506413], [-1.221365513698984, 44.81370668576959], [-1.221791230032673, 44.813645030005446], [-1.222223385919386, 44.813613371451126], [-1.222657820147572, 44.813612014944106], [-1.22309034957866, 44.81364097354603], [-1.223516809406061, 44.81369996841711], [-1.223933093238085, 44.81378843149961], [-1.22433519261977, 44.81390551098498], [-1.224719235613996, 44.81405007951178], [-1.225081524071143, 44.814220745016016], [-1.225418569229142, 44.814415864129415], [-1.225727125301641, 44.81463355799689], [-1.226004220731206, 44.81487173036153], [-1.226247186806808, 44.81512808774284], [-1.226453683369978, 44.81540016151464], [-1.226621721361891, 44.815685331670196], [-1.226749681993842, 44.81598085204621], [-1.226786157665977, 44.816108411410625]]]}}, {"type": "Feature", "properties": {"nb_detections_cluster": 3, "frp_max": 2.1, "frp_moyen": 1.5, "derniere_detection": "2026-07-30T02:15:00", "fetch_timestamp": "2026-07-30T13:23:00"}, "geometry": {"type": "Polygon", "coordinates": [[[-1.207678716604117, 44.8218679236366], [-1.207676891846106, 44.82155868820035], [-1.20771766371708, 44.821250814547106], [-1.207800638873199, 44.820947267621015], [-1.207925017568703, 44.820650970649744], [-1.208089601382866, 44.820364776995675], [-1.208292804783949, 44.8200914426821], [-1.208532670417937, 44.81983359985785], [-1.208806887974073, 44.81959373145642], [-1.209112816444916, 44.81937414729292], [-1.209447509566168, 44.81917696182888], [-1.20980774419102, 44.819004073818576], [-1.210190051325793, 44.81885714803256], [-1.210590749528143, 44.818737599234076], [-1.211005980346599, 44.81864657856228], [-1.211431745460674, 44.81858496245307], [-1.211863945164626, 44.81855334420409], [-1.212298417825078, 44.81855202826467], [-1.212730979933463, 44.81858102730587], [-1.213157466368577, 44.818640062098495], [-1.213573770482526, 44.81872856420044], [-1.213975883625028, 44.81884568142738], [-1.214359933726395, 44.81899028605448], [-1.214722222568482, 44.81916098567012], [-1.215059261385387, 44.81935613657753], [-1.215367804451676, 44.81957385961548], [-1.215644880334984, 44.81981205824612], [-1.215887820512324, 44.82006843873595], [-1.216094285074424, 44.820340532236244], [-1.216262285270423, 44.82062571855025], [-1.216390202675399, 44.82092125135901], [-1.216476804795542, 44.82122428466299], [-1.216521256960015, 44.821531900184986], [-1.216523130384072, 44.821841135471125], [-1.21648240632485, 44.822149012418684], [-1.21639947628881, 44.822452565956965], [-1.216275138287774, 44.82274887260426], [-1.216110589178602, 44.823035078626255], [-1.21590741315934, 44.823308427524395], [-1.215667566531736, 44.82356628658942], [-1.21539335887614, 44.823806172263644], [-1.215087430819521, 44.82402577406819], [-1.214752728610259, 44.8242229768636], [-1.21439247574441, 44.82439588122957], [-1.214010141916646, 44.824542821767004], [-1.213609409595106, 44.82466238314578], [-1.213194138542444, 44.824753413743274], [-1.212768328625323, 44.824815036742145], [-1.21233608127124, 44.82484665857999], [-1.211901559944743, 44.82484797466957], [-1.211468950024605, 44.824818972334036], [-1.211042418469412, 44.82475993092919], [-1.210626073660994, 44.824671419151244], [-1.2102239258135, 44.824554289556374], [-1.209839848330312, 44.824409670344686], [-1.209477540481844, 44.824238954488294], [-1.209140491764399, 44.824043786308096], [-1.208831948283888, 44.8238260456291], [-1.208554881488588, 44.823587829667076], [-1.208311959552244, 44.823331432821576], [-1.208105521683135, 44.823059324569854], [-1.207937555606325, 44.82277412567558], [-1.207809678435557, 44.82247858294111], [-1.207723121118461, 44.8221755427475], [-1.207678716604117, 44.8218679236366]]]}}, {"type": "Feature", "properties": {"nb_detections_cluster": 2, "frp_max": 6.58, "frp_moyen": 4.67, "derniere_detection": "2026-07-29T13:59:00", "fetch_timestamp": "2026-07-30T13:23:00"}, "geometry": {"type": "Polygon", "coordinates": [[[-0.846445795741787, 44.71858352111827], [-0.846445958404119, 44.71827429406324], [-0.846488630348259, 44.717966567414884], [-0.846573399935369, 44.71766330469928], [-0.846699450143141, 44.71736742640482], [-0.846865566458948, 44.71708178185995], [-0.847070148598555, 44.716809121798086], [-0.847311225936682, 44.71655207187337], [-0.847586476500096, 44.716313107382405], [-0.847893249339711, 44.71609452943472], [-0.848228590065907, 44.71589844280148], [-0.848589269300873, 44.71572673565509], [-0.84897181377404, 44.715581061394644], [-0.849372539761282, 44.71546282273184], [-0.849787588546275, 44.71537315819017], [-0.850212963563061, 44.715312931147224], [-0.850644568862852, 44.71528272152532], [-0.851078248535464, 44.715282820210206], [-0.851509826706695, 44.71531322625172], [-0.851935147727446, 44.715373646872735], [-0.852350116168603, 44.715463500286965], [-0.852750736237467, 44.71558192129816], [-0.853133150237134, 44.715727769626916], [-0.853493675699272, 44.715899640885375], [-0.8538288408334, 44.71609588009407], [-0.854135417951887, 44.716314597611245], [-0.854410454549116, 44.71655368732165], [-0.854651301735744, 44.71681084690972], [-0.854855639754197, 44.71708360002266], [-0.855021500329473, 44.71736932010995], [-0.855147285639632, 44.717665255710486], [-0.855231783722654, 44.71796855694361], [-0.855274180170627, 44.71827630294975], [-0.855274065997716, 44.71858553001602], [-0.855231441605252, 44.718893260116594], [-0.855146716804682, 44.71919652959271], [-0.855020706897196, 44.71949241769618], [-0.854854624846703, 44.71977807472157], [-0.854650069620641, 44.720050749455886], [-0.854409010810018, 44.72030781568111], [-0.854133769676065, 44.72054679747423], [-0.853826996805499, 44.7207653930608], [-0.853491646589129, 44.7209614969918], [-0.85313094876947, 44.72113322043009], [-0.852748377331288, 44.721278909350474], [-0.852347617034961, 44.72139716047789], [-0.851932527915291, 44.72148683480984], [-0.851507108088274, 44.72154706859251], [-0.851075455224732, 44.721577281644535], [-0.850641727062697, 44.72157718294836], [-0.850210101339793, 44.721546773454634], [-0.8497847355325, 44.72148634607313], [-0.849369726791056, 44.72139648284988], [-0.84896907245688, 44.721278049358155], [-0.848586631543667, 44.721132186356954], [-0.848226087554026, 44.72096029879798], [-0.847890912990437, 44.720764042287136], [-0.847584335902901, 44.72054530713108], [-0.847309308795845, 44.72030620012291], [-0.847068480193911, 44.72004902424297], [-0.846864169140474, 44.7197762564701], [-0.846698342874282, 44.719490523918175], [-0.846572597898802, 44.719194578527365], [-0.846488144626009, 44.71889127055452], [-0.846445795741787, 44.71858352111827]]]}}, {"type": "Feature", "properties": {"nb_detections_cluster": 1, "frp_max": 0.43, "frp_moyen": 0.43, "derniere_detection": "2026-07-30T02:15:00", "fetch_timestamp": "2026-07-30T13:23:00"}, "geometry": {"type": "Polygon", "coordinates": [[[-0.877384521239301, 44.735914755251784], [-0.877384513967907, 44.735605526246914], [-0.877427029891591, 44.735297785781995], [-0.877511658873553, 44.734994497516354], [-0.877637585244981, 44.73469858218463], [-0.877803595685199, 44.73441288947213], [-0.878008090928917, 44.73414017057627], [-0.878249101187021, 44.733883051717896], [-0.878524305131621, 44.733644008857574], [-0.878831052261979, 44.7334253438596], [-0.879166388435518, 44.73322916233345], [-0.879527084317823, 44.733057353365375], [-0.879909666477658, 44.73291157133497], [-0.88031045082774, 44.73279321999172], [-0.880725578089595, 44.73270343894413], [-0.881151050941545, 44.73264309269165], [-0.881582772492782, 44.73261276230444], [-0.882016585713873, 44.73261273983115], [-0.882448313444901, 44.73264302548816], [-0.882873798596956, 44.732703327657546], [-0.88328894416085, 44.732793065693606], [-0.883689752638761, 44.732911375511065], [-0.884072364519995, 44.733057117901275], [-0.884433095431204, 44.733228889496495], [-0.884768471603991, 44.73342503627696], [-0.885075263318929, 44.733643669491116], [-0.885350516004264, 44.73388268383548], [-0.885591578690061, 44.73413977772045], [-0.885796129543713, 44.734412475426026], [-0.885962198240715, 44.73469815093541], [-0.886088184954881, 44.73499405321696], [-0.886172875784511, 44.73529733271108], [-0.886215454465246, 44.73560506876771], [-0.886215510255939, 44.735914297769995], [-0.886173041920643, 44.736222041673685], [-0.886088457767366, 44.73652533668722], [-0.885962571742178, 44.73682126181673], [-0.885796595615272, 44.73710696700034], [-0.885592127333295, 44.73737970056136], [-0.885351135649239, 44.73763683571537], [-0.885075941177202, 44.73787589587562], [-0.884769194053896, 44.73809457851297], [-0.884433848421629, 44.73829077734003], [-0.884073133978308, 44.73846260260574], [-0.88369052486846, 44.73860839930415], [-0.883289706215041, 44.738726763122116], [-0.882874538614782, 44.73881655397174], [-0.882449020939545, 44.73887690697688], [-0.88201725180267, 44.73890724080786], [-0.881583390062281, 44.738907263283714], [-0.881151614742864, 44.73887697418796], [-0.880726084762125, 44.73881666527066], [-0.880310898851989, 44.73872691743683], [-0.879910056060767, 44.73860859514827], [-0.879527417217791, 44.738462838092886], [-0.879166667732536, 44.73829105020203], [-0.878831282087185, 44.738094886121615], [-0.878524490365197, 44.73787623526813], [-0.878249247138589, 44.737637203622825], [-0.878008203013807, 44.73738009344024], [-0.877803679110169, 44.73710738106666], [-0.877637644716505, 44.73682169308254], [-0.877511698340742, 44.73652578099897], [-0.877427052334399, 44.73622249475218], [-0.877384521239301, 44.735914755251784]]]}}, {"type": "Feature", "properties": {"nb_detections_cluster": 6, "frp_max": 30.29, "frp_moyen": 16.0, "derniere_detection": "2026-07-29T13:59:00", "fetch_timestamp": "2026-07-30T13:23:00"}, "geometry": {"type": "Polygon", "coordinates": [[[-0.947903406314397, 44.75261756684936], [-0.947903011480399, 44.75230833614006], [-0.947945154317389, 44.752000566909935], [-0.948029428280943, 44.75169722309577], [-0.948155021120412, 44.751401225967555], [-0.948320722726177, 44.75111542599873], [-0.948524936806018, 44.75084257541998], [-0.948765696277313, 44.75058530172056], [-0.949040682226076, 44.75034608235243], [-0.949347246249683, 44.750127220879804], [-0.949682435967728, 44.74993082480433], [-0.950043023455094, 44.74975878527839], [-0.950425536323456, 44.7496127589018], [-0.950826291152037, 44.74949415177695], [-0.951241428946081, 44.74940410597539], [-0.951666952282129, 44.749343488545854], [-0.952098763783088, 44.74931288316971], [-0.952532705553422, 44.74931258454343], [-0.952964599195627, 44.749342595542444], [-0.953390286023627, 44.7494026271935], [-0.953805667086846, 44.749492101455736], [-0.95420674262051, 44.74961015678376], [-0.954589650543207, 44.74975565641948], [-0.954950703631816, 44.74992719933278], [-0.955286425016508, 44.75012313370609], [-0.95559358165458, 44.75034157283328], [-0.95586921546112, 44.75058041328014], [-0.956110671796931, 44.75083735513183], [-0.956315625039334, 44.751109924132685], [-0.956482100989409, 44.75139549550572], [-0.956608495899495, 44.751691319222445], [-0.956693591937089, 44.751994546480276], [-0.956736568935556, 44.75230225713269], [-0.956737012317567, 44.7526114878079], [-0.956694917114049, 44.75291926044597], [-0.956610688038895, 44.7532226109791], [-0.956485135617722, 44.753518617879124], [-0.956319468406893, 44.75380443029707], [-0.956115281376851, 44.754077295523835], [-0.95587454057071, 44.754334585507216], [-0.955599564185164, 44.75457382216954], [-0.955293000255329, 44.75479270128195], [-0.954957801158008, 44.754989114664895], [-0.954597195178755, 44.75516117050093], [-0.954214655416529, 44.75530721156337], [-0.953813866325625, 44.75542583118551], [-0.953398688217481, 44.75551588681554], [-0.952973120064802, 44.75557651102701], [-0.952541260966959, 44.75560711987791], [-0.952107270648611, 44.755607418538276], [-0.951675329372935, 44.7555774041313], [-0.951249597656535, 44.755517365761285], [-0.95083417617502, 44.75542788172726], [-0.950433066246421, 44.75530981395011], [-0.950050131273924, 44.75516429966639], [-0.94968905952016, 44.7549927404691], [-0.949353328572251, 44.7547967888016], [-0.949046171840407, 44.754578332034626], [-0.948770547413145, 44.75433947428029], [-0.948529109569221, 44.754082516118544], [-0.948324183220682, 44.753809932431814], [-0.948157741532928, 44.75352434856148], [-0.948031386936944, 44.7532285150163], [-0.94794633571598, 44.752925280976505], [-0.947903406314397, 44.75261756684936]]]}}, {"type": "Feature", "properties": {"nb_detections_cluster": 8, "frp_max": 7.96, "frp_moyen": 2.26, "derniere_detection": "2026-07-30T02:15:00", "fetch_timestamp": "2026-07-30T13:23:00"}, "geometry": {"type": "Polygon", "coordinates": [[[-1.029450480215778, 44.75420170432465], [-1.029547706301846, 44.75442849602433], [-1.029633199539534, 44.75473166743281], [-1.029676577523499, 44.755039349961926], [-1.029677421814893, 44.7553485805112], [-1.029635723583599, 44.75565638102239], [-1.029551883720137, 44.755959787159746], [-1.029426709001248, 44.756255876859974], [-1.029261404345049, 44.75654179847711], [-1.02905756122942, 44.756814798250744], [-1.028817142384283, 44.75707224683319], [-1.028542462904453, 44.75731166461953], [-1.028236167964402, 44.757530745636664], [-1.027901207349123, 44.75772737976063], [-1.027540807046202, 44.75789967304799], [-1.027158438172656, 44.75804596598515], [-1.026757783535987, 44.75816484947939], [-1.026342702151898, 44.75825517843739], [-1.025917192060924, 44.75831608279997], [-1.025485351802836, 44.75834697592673], [-1.025051340920668, 44.758347560249426], [-1.024619339875697, 44.758317830139795], [-1.02419350976046, 44.75825807196367], [-1.02377795219875, 44.75816886132125], [-1.023376669819897, 44.758051057500154], [-1.022993527688839, 44.757905795194496], [-1.022632216064365, 44.757734473570366], [-1.0222962148449, 44.757538742783005], [-1.021988760044799, 44.75732048807585], [-1.021712812624431, 44.757081811615016], [-1.021471029974406, 44.75682501223465], [-1.02126574032861, 44.756552563288174], [-1.021098920352236, 44.75626708881964], [-1.020972176120258, 44.75597133828449], [-1.020886727669003, 44.75566816006396], [-1.020843397268806, 44.75536047402814], [-1.020842601529899, 44.755051243412204], [-1.020884347416552, 44.75474344627696], [-1.020968232206876, 44.754440046828485], [-1.021093447397617, 44.75414396687294], [-1.021258786515348, 44.75385805768187], [-1.021462656757852, 44.753585072538115], [-1.021703094352734, 44.753327640227184], [-1.02197778348464, 44.75308823972864], [-1.02228407860817, 44.752869176351275], [-1.022619029931284, 44.752672559541125], [-1.022979411823486, 44.75250028257628], [-1.023361753875274, 44.75235400434309], [-1.02376237430989, 44.752235133369176], [-1.024069724452529, 44.75216824959667], [-1.02397252435213, 44.751941453271925], [-1.023887065854341, 44.751638277794996], [-1.023843722150809, 44.75133059336897], [-1.023842909979992, 44.75102136321356], [-1.023884636464511, 44.750713565385155], [-1.023968499069417, 44.750410164096515], [-1.024093689505188, 44.75011408117157], [-1.024259001536852, 44.749828167910444], [-1.02446284262308, 44.749555177635195], [-1.024703249272282, 44.74929773918077], [-1.024977905967114, 44.74905833158591], [-1.025284167474534, 44.74883926022773], [-1.025619084326189, 44.74864263462918], [-1.02597943122349, 44.748470348152935], [-1.026361738093871, 44.74832405977696], [-1.026762323499289, 44.74820517812653], [-1.027177330075648, 44.748114847916675], [-1.027602761662414, 44.74805393893476], [-1.02803452176554, 44.7480230376695], [-1.028468452984183, 44.748022441666436], [-1.028900377022421, 44.748052156664464], [-1.029326134901675, 44.74811189654045], [-1.029741626987588, 44.74820108606308], [-1.030142852446891, 44.74831886642871], [-1.030525947755235, 44.74846410352697], [-1.030887223885967, 44.74863539885583], [-1.031223201822472, 44.74883110298191], [-1.031530646052621, 44.749049331416415], [-1.031806595723179, 44.7492879827542], [-1.03204839315433, 44.749544758901706], [-1.032253709439717, 44.74981718719934], [-1.032420566885258, 44.75010264422539], [-1.032547358070255, 44.75039838105294], [-1.032632861346638, 44.75070154971665], [-1.03267625262639, 44.751009230634665], [-1.032677113342722, 44.75131846072206], [-1.032635434507442, 44.7516262619251], [-1.032551616824361, 44.751929669901315], [-1.032426466856685, 44.75222576256979], [-1.032261189284215, 44.75251168825595], [-1.032057375324034, 44.75278469316024], [-1.031816987425294, 44.75304214788556], [-1.031542340384771, 44.75328157276785], [-1.031236079064492, 44.753500661765656], [-1.030901152925623, 44.75369730467817], [-1.030540787623652, 44.753869607477355], [-1.030158453938431, 44.75401591055794], [-1.02975783433848, 44.75413480472956], [-1.029450480215778, 44.75420170432465]]]}}, {"type": "Feature", "properties": {"nb_detections_cluster": 1, "frp_max": 2.29, "frp_moyen": 2.29, "derniere_detection": "2026-07-30T02:15:00", "fetch_timestamp": "2026-07-30T13:23:00"}, "geometry": {"type": "Polygon", "coordinates": [[[-0.943102965048988, 44.758067375833235], [-0.943102596561746, 44.757758144515066], [-0.943144769740887, 44.75745037652138], [-0.943229077749659, 44.7571470357771], [-0.943354708009446, 44.75685104352262], [-0.943520450050186, 44.75656525018441], [-0.943724707190213, 44.75629240792926], [-0.943965511932206, 44.75603514416627], [-0.944240544926223, 44.75579593625164], [-0.944547157316627, 44.75557708763932], [-0.944882396257295, 44.75538070570711], [-0.945243033349183, 44.75520868147114], [-0.945625595726376, 44.75506267138405], [-0.946026399491443, 44.754944081391336], [-0.946441585178501, 44.75485405339955], [-0.946867154903014, 44.754793454285945], [-0.947299010841303, 44.754762867555584], [-0.947732994670022, 44.75476258772532], [-0.948164927586759, 44.754792617489635], [-0.94859065052732, 44.75485266769459], [-0.949006064193437, 44.75494216012065], [-0.949407168506418, 44.75506023304756], [-0.949790101107729, 44.755205749547706], [-0.950151174536581, 44.75537730842862], [-0.950486911727234, 44.755573257718964], [-0.950794079484707, 44.75579171056894], [-0.951069719616918, 44.75603056341222], [-0.951311177423638, 44.75628751621452], [-0.951516127267897, 44.756560094614755], [-0.951682594983355, 44.75684567374537], [-0.951808976901494, 44.75714150350316], [-0.951894055314775, 44.75744473502737], [-0.951937010226134, 44.75775244813027], [-0.951937427270807, 44.758061679416514], [-0.951895301733226, 44.75836945082027], [-0.951811038619303, 44.75867279828555], [-0.95168544878237, 44.75896880031371], [-0.951519741139063, 44.759254606102665], [-0.951315511049175, 44.759527463007146], [-0.951074724970503, 44.759784743055086], [-0.950799701535768, 44.76002396826446], [-0.950493089233252, 44.76024283451671], [-0.950157840905696, 44.76043923375614], [-0.949797185312881, 44.760611274301496], [-0.9494145960317, 44.7607572990734], [-0.94901375799349, 44.760875901562], [-0.948598531981231, 44.760965939380554], [-0.948172917429133, 44.76102654527413], [-0.947741013883577, 44.76105713547722], [-0.947306981497427, 44.7610574153394], [-0.946875000939129, 44.76102738216503], [-0.946449233103721, 44.76096732523905], [-0.946033779014747, 44.760877823039316], [-0.945632640304333, 44.760759737661694], [-0.945249680652884, 44.760614206512194], [-0.944888588560711, 44.760442631346336], [-0.944552841810776, 44.76024666476124], [-0.944245673965417, 44.76002819427133], [-0.943970043220093, 44.759789324120845], [-0.9437286039143, 44.75953235500914], [-0.94352368097403, 44.75925976192411], [-0.943357247531716, 44.75897417029761], [-0.943230905938778, 44.758678330713046], [-0.94314587235308, 44.75837509240885], [-0.943102965048988, 44.758067375833235]]]}}, {"type": "Feature", "properties": {"nb_detections_cluster": 7, "frp_max": 24.43, "frp_moyen": 5.5, "derniere_detection": "2026-07-30T02:15:00", "fetch_timestamp": "2026-07-30T13:23:00"}, "geometry": {"type": "Polygon", "coordinates": [[[-1.166844540641277, 44.84320994330685], [-1.166920447566333, 44.84322047862205], [-1.167336860922146, 44.84330915492833], [-1.167739053549114, 44.84342644067113], [-1.16812315261193, 44.843571206502936], [-1.168485459420588, 44.84374205845981], [-1.168822485035646, 44.84393735137796], [-1.169130983858127, 44.8441552047286], [-1.169407984880946, 44.84439352071891], [-1.169650820301138, 44.84465000448511], [-1.169857151217311, 44.84492218618376], [-1.170024990164666, 44.84520744476854], [-1.170152720270174, 44.845503033224304], [-1.170239110842855, 44.845806105015356], [-1.170283329248305, 44.84611374149359], [-1.170284948952235, 44.846422980002956], [-1.170243953654628, 44.84673084240948], [-1.170160737473669, 44.84703436378217], [-1.170036101176652, 44.8473306209488], [-1.169871244493128, 44.84761676065135], [-1.16966775458339, 44.847890027029734], [-1.169427590772457, 44.848147788169186], [-1.169153065695846, 44.84838756145503], [-1.168846823038141, 44.84860703749066], [-1.168511812078322, 44.84880410234781], [-1.168151259286803, 44.84897685793467], [-1.167768637247692, 44.84912364028505], [-1.167367631205787, 44.84924303559245], [-1.166952103560831, 44.84933389383375], [-1.166526056651585, 44.849395339851775], [-1.166093594188795, 44.84942678178881], [-1.165658881709387, 44.849427916790425], [-1.165226106433662, 44.84939873392405], [-1.16479943691312, 44.84933951428441], [-1.164382982858535, 44.84925082828449], [-1.163980755536216, 44.84913353015854], [-1.163596629114793, 44.848988749730005], [-1.163234303335648, 44.848817881523715], [-1.162897267867247, 44.84862257132792], [-1.162588768687228, 44.848404700335394], [-1.162311776816412, 44.848166367016916], [-1.16206895970606, 44.84790986690217], [-1.161862655553928, 44.847637670462895], [-1.161805215679603, 44.84754002197979], [-1.161729303877043, 44.84752948315146], [-1.161312868089096, 44.847440785685144], [-1.16091066013878, 44.84732347650317], [-1.16052655400809, 44.84717868553542], [-1.160164249242926, 44.84700780740827], [-1.159827235309312, 44.8468124880055], [-1.159518757977429, 44.84659460860857], [-1.159241788057638, 44.8463562677692], [-1.158998992789751, 44.846099761089505], [-1.158792710161136, 44.845827559104414], [-1.158624926400762, 44.84554228348009], [-1.15849725686554, 44.84524668175769], [-1.158410930502496, 44.844943600886026], [-1.158366778035634, 44.844635959798495], [-1.158365223990444, 44.84432672129828], [-1.15840628263189, 44.84401886352302], [-1.158489557853983, 44.84371535126359], [-1.158614247020965, 44.84341910741346], [-1.158779148722106, 44.84313298482324], [-1.158982674364451, 44.842859738831535], [-1.159222863491031, 44.842602000736434], [-1.159497402676263, 44.84236225246272], [-1.159803647815984, 44.8421428026685], [-1.160138649597074, 44.84194576452128], [-1.160499181901125, 44.841773035356596], [-1.160881772868671, 44.841626278415376], [-1.161282738324947, 44.84150690683493], [-1.161698217245701, 44.84141607004797], [-1.16212420892205, 44.8413546427197], [-1.162556611467195, 44.841323216330025], [-1.162991261295024, 44.841322093480834], [-1.163423973191326, 44.84135128498399], [-1.163850580592747, 44.84141050975704], [-1.164266975686627, 44.8414991975286], [-1.164669148946486, 44.841616494326516], [-1.165053227723466, 44.841761270696786], [-1.165415513522853, 44.84193213257403], [-1.165752517607469, 44.842127434698924], [-1.166060994585622, 44.842345296454], [-1.166337973660548, 44.84258361996551], [-1.166580787240606, 44.842840110297246], [-1.166787096634702, 44.84311229754249], [-1.166844540641277, 44.84320994330685]]]}}, {"type": "Feature", "properties": {"nb_detections_cluster": 1, "frp_max": 0.99, "frp_moyen": 0.99, "derniere_detection": "2026-07-30T02:15:00", "fetch_timestamp": "2026-07-30T13:23:00"}, "geometry": {"type": "Polygon", "coordinates": [[[-0.964544058724119, 44.87204823658576], [-0.96454357140144, 44.87173899358098], [-0.964585712662911, 44.871431205722345], [-0.964670075976304, 44.8711278371262], [-0.964795848227617, 44.87083180930125], [-0.964961817576755, 44.87054597301665], [-0.965166385150664, 44.870273080852854], [-0.96540758046048, 44.87001576069966], [-0.965683080393433, 44.869776490456324], [-0.965990231596076, 44.86955757417702], [-0.966326076032846, 44.86936111989121], [-0.966687379473614, 44.86918901931177], [-0.967070662635891, 44.869042929626424], [-0.96747223468195, 44.86892425754716], [-0.967888228748677, 44.86883414577094], [-0.968314639168544, 44.86877346198181], [-0.968747360023991, 44.86874279050006], [-0.969182224664762, 44.86874242665867], [-0.969615045808579, 44.868772373961065], [-0.970041655839997, 44.86883234404729], [-0.970457946920353, 44.86892175946931], [-0.970859910523551, 44.86903975924836], [-0.971243676017902, 44.869185207161244], [-0.971605547923306, 44.869356702675965], [-0.971942041485699, 44.8695525944314], [-0.972249916226758, 44.8697709961319], [-0.972526207146153, 44.87000980470375], [-0.972768253276044, 44.87026672053912], [-0.972973723312855, 44.87053926963302], [-0.973140638079254, 44.870824827400234], [-0.973267389599642, 44.87112064394344], [-0.973352756604861, 44.871423870529256], [-0.973395916316075, 44.87173158701773], [-0.973396452393473, 44.87204082998099], [-0.973354358972294, 44.87234862124088], [-0.973270040746293, 44.87265199655037], [-0.973144309096788, 44.872948034142716], [-0.97297837430357, 44.87323388287344], [-0.972773833911727, 44.873506789683816], [-0.972532657365534, 44.87376412612115], [-0.972257167056681, 44.874003413660404], [-0.97195001596877, 44.8742223475827], [-0.971614162132953, 44.87441881918062], [-0.971252840140561, 44.87459093607597], [-0.97086952998701, 44.874737040454015], [-0.970467923547288, 44.874855725038124], [-0.970051889006236, 44.874945846650796], [-0.969625433586788, 44.87500653722999], [-0.969192664935813, 44.875037212194435], [-0.968757751540325, 44.87503757607733], [-0.968324882556214, 44.875007625373684], [-0.967898227437403, 44.874947648574135], [-0.967481895755238, 44.87485822338469], [-0.967079897596122, 44.87474021115952], [-0.966696104919704, 44.874594748600046], [-0.966334214250679, 44.87442323680122], [-0.965997711064186, 44.874227327749864], [-0.965689836208395, 44.874008908406346], [-0.965413554688046, 44.8737700825224], [-0.96517152710978, 44.87351315037112], [-0.964966084064242, 44.873240586584515], [-0.964799203691508, 44.87295501631247], [-0.964672492645445, 44.872659189932804], [-0.964587170639805, 44.87235595655693], [-0.964544058724119, 44.87204823658576]]]}}]}