{"type": "FeatureCollection", "name": "zone_active", "crs": {"type": "name", "properties": {"name": "urn:ogc:def:crs:OGC:1.3:CRS84"}}, "features": [{"type": "Feature", "properties": {"nb_detections_cluster": 2, "frp_max": 6.75, "frp_moyen": 6.75, "derniere_detection": "2026-07-28T12:38:00", "fetch_timestamp": "2026-07-28T12:38:00"}, "geometry": {"type": "Polygon", "coordinates": [[[-1.199261591186782, 44.77283825114006], [-1.199517469272508, 44.77298658799362], [-1.199825697809462, 44.77320435082374], [-1.20010247944556, 44.773442584517106], [-1.200345148491517, 44.77369899500255], [-1.200551367649384, 44.77397111314239], [-1.20071915053208, 44.774256318502516], [-1.200846880808139, 44.77455186458048], [-1.200933327786711, 44.77485490524883], [-1.200977658292007, 44.77516252215938], [-1.200979444712002, 44.77547175284476], [-1.200938669142882, 44.775779619246464], [-1.200855723588365, 44.77608315639526], [-1.200731406210895, 44.776379440967176], [-1.200566913669836, 44.77666561944046], [-1.200363829619468, 44.776938935581775], [-1.200124109476704, 44.77719675699729], [-1.199850061604483, 44.77743660049191], [-1.199544325091477, 44.77765615599293], [-1.199209844341682, 44.77785330880685], [-1.198849840718434, 44.778026159994766], [-1.198467781515883, 44.77817304466974], [-1.198067346556975, 44.778292548039744], [-1.197652392739986, 44.778383519040865], [-1.197226916875625, 44.778445081429815], [-1.196795017173325, 44.77847664222799], [-1.196360853748479, 44.778477897436105], [-1.19592860853192, 44.77844883496374], [-1.195502444968751, 44.77838973474591], [-1.195086467895665, 44.778301166045345], [-1.194684683984202, 44.77818398196647], [-1.194300963131823, 44.77803931123418], [-1.193939001173516, 44.777868547316814], [-1.193602284273765, 44.7776733349981], [-1.193294055342395, 44.77745555452813], [-1.193017282798114, 44.77721730350592], [-1.192774631980818, 44.776960876668575], [-1.192568439487936, 44.77668874378218], [-1.192400690681829, 44.77640352584754], [-1.19227300058442, 44.77610796985034], [-1.192186598342515, 44.775804922299216], [-1.192142315412698, 44.77549730180683], [-1.192140577578696, 44.77518807097827], [-1.19218140087719, 44.77488020787747], [-1.192264391470248, 44.77457667734686], [-1.192388749464621, 44.77428040245604], [-1.192428279495033, 44.77421164720216], [-1.192172414533719, 44.77406329392264], [-1.191864210922167, 44.773845509748874], [-1.191587462198921, 44.77360725545424], [-1.191344833474454, 44.773350825807306], [-1.191138661133441, 44.77307869060126], [-1.190970930344199, 44.7727934708592], [-1.190843255955182, 44.77249791358422], [-1.190756866961977, 44.77219486529727], [-1.190712594693647, 44.7718872446181], [-1.190710864831328, 44.77157801415353], [-1.190751693335016, 44.77127015196403], [-1.190834686316747, 44.77096662288321], [-1.190959043860357, 44.77067034996676], [-1.19112356775003, 44.770384186345346], [-1.191326673032229, 44.770110887752956], [-1.19156640329883, 44.76985308599436], [-1.191840449543496, 44.76961326360755], [-1.192146172409163, 44.76939372996448], [-1.192480627611928, 44.76919659904018], [-1.192840594296334, 44.76902376906368], [-1.193222606048923, 44.76887690424671], [-1.193622984271616, 44.76875741876543], [-1.194037873593859, 44.76866646314932], [-1.194463278983101, 44.768604913207824], [-1.19489510419692, 44.76857336160149], [-1.195329191207326, 44.76857211213796], [-1.19576136021853, 44.768601176848186], [-1.19618744989379, 44.76866027587065], [-1.19660335740496, 44.76874884014479], [-1.197005077920053, 44.76886601688758], [-1.1973887431495, 44.769010677801084], [-1.197750658580732, 44.76918142993167], [-1.198087339043239, 44.76937662907685], [-1.198395542262184, 44.76959439561086], [-1.19867230007781, 44.769832632576865], [-1.198914947030229, 44.77008904587221], [-1.199121146034274, 44.77036116633215], [-1.199288910896986, 44.770646373500206], [-1.199416625460485, 44.77094192085653], [-1.199503059185302, 44.77124496226134], [-1.199547379023362, 44.77155257935936], [-1.199549157465451, 44.77186180968135], [-1.199508376684681, 44.772169675172385], [-1.19942542873505, 44.77247321087193], [-1.199301111802164, 44.77276949346997], [-1.199261591186782, 44.77283825114006]]]}}, {"type": "Feature", "properties": {"nb_detections_cluster": 8, "frp_max": 6.07, "frp_moyen": 3.04, "derniere_detection": "2026-07-28T12:38:00", "fetch_timestamp": "2026-07-28T12:38:00"}, "geometry": {"type": "Polygon", "coordinates": [[[-1.21998, 44.77295], [-1.2138, 44.77171], [-1.21473, 44.77166], [-1.21998, 44.77295]]]}}, {"type": "Feature", "properties": {"nb_detections_cluster": 1, "frp_max": 0.67, "frp_moyen": 0.67, "derniere_detection": "2026-07-28T02:34:00", "fetch_timestamp": "2026-07-28T12:38:00"}, "geometry": {"type": "Polygon", "coordinates": [[[-1.141669232133773, 44.81282529258564], [-1.141667770832878, 44.81251605710358], [-1.141708897689998, 44.812208208743385], [-1.141792215943024, 44.81190471220519], [-1.141916922542633, 44.81160849023092], [-1.142081815911036, 44.81132239546043], [-1.142285307536298, 44.81104918296436], [-1.142525437289746, 44.81079148371816], [-1.142799892318174, 44.810551779272416], [-1.143106029328347, 44.8103323778632], [-1.14344090004879, 44.810135392192], [-1.143801279623426, 44.809962719089036], [-1.144183697663629, 44.809816021255365], [-1.144584471659835, 44.809696711259186], [-1.144999742431307, 44.80960593794013], [-1.145425511273263, 44.809544575352305], [-1.14585767844431, 44.80951321435221], [-1.146292082624396, 44.80951215691215], [-1.146724540964241, 44.8095414132141], [-1.147150889341547, 44.80960070155175], [-1.147567022437344, 44.80968945104159], [-1.147968933247518, 44.809806807117155], [-1.148352751649969, 44.8099516397537], [-1.14871478165684, 44.81012255434394], [-1.149051536993793, 44.81031790512099], [-1.149359774664264, 44.81053581099882], [-1.149636526175849, 44.81077417367875], [-1.149879126128322, 44.81103069784729], [-1.150085237887968, 44.81130291327187], [-1.150252876100748, 44.811588198581305], [-1.150380425827159, 44.81188380650293], [-1.150466658113868, 44.812186890313484], [-1.150510741851483, 44.812494531249], [-1.150512251803395, 44.81280376661039], [-1.150471172727392, 44.81311161829384], [-1.150387899549382, 44.81341512147151], [-1.150263233586481, 44.813711353146296], [-1.150098374854832, 44.81399746030556], [-1.149894910535298, 44.814270687402576], [-1.149654799707208, 44.81452840290079], [-1.14938035449648, 44.81476812462506], [-1.149074217819058, 44.81498754367533], [-1.148739337933629, 44.81518454667213], [-1.148378940048477, 44.815357236119446], [-1.147996495255887, 44.815503948688125], [-1.147595687093509, 44.81562327124373], [-1.147180376055061, 44.815714054463946], [-1.146754562392764, 44.815775423914175], [-1.146322347570431, 44.8158067884742], [-1.14588789473933, 44.81580784603492], [-1.145455388618367, 44.8157785864097], [-1.145028995166044, 44.815719291432586], [-1.144612821433538, 44.81563053224225], [-1.144210875986611, 44.815513163777894], [-1.143827030278432, 44.81536831654041], [-1.143464981346202, 44.81519738569814], [-1.143128216191549, 44.81500201764257], [-1.142819978188329, 44.8147840941237], [-1.142543235841731, 44.814545714118175], [-1.142300654199774, 44.81428917360526], [-1.142094569192514, 44.814016943445665], [-1.141926965145908, 44.81373164557683], [-1.141799455686473, 44.81343602775405], [-1.141713268220105, 44.8131329370811], [-1.141669232133773, 44.81282529258564]]]}}, {"type": "Feature", "properties": {"nb_detections_cluster": 1, "frp_max": 1.12, "frp_moyen": 1.12, "derniere_detection": "2026-07-28T02:34:00", "fetch_timestamp": "2026-07-28T12:38:00"}, "geometry": {"type": "Polygon", "coordinates": [[[-1.21784945023581, 44.81292832842391], [-1.217847569811828, 44.81261909407864], [-1.21788827948867, 44.812311217607736], [-1.217971186521644, 44.8120076639825], [-1.218095491821193, 44.81171135649514], [-1.21825999767352, 44.81142514860944], [-1.218463119297732, 44.81115179648575], [-1.218702900127351, 44.81089393244448], [-1.218977030668248, 44.810654039623486], [-1.219282870750861, 44.810434428073066], [-1.219617474961936, 44.810237212518516], [-1.219977621010699, 44.81006429200388], [-1.220359840756257, 44.809917331612716], [-1.2207604535976, 44.8097977464415], [-1.221175601905043, 44.80970668797967], [-1.22160128815244, 44.80964503302695], [-1.222033413393304, 44.809613375255054], [-1.222467816711122, 44.809612019493876], [-1.222900315264912, 44.8096409787979], [-1.223326744545347, 44.809699974320566], [-1.223742998454828, 44.809788437997895], [-1.224145068826479, 44.80990551801556], [-1.224529084002488, 44.81005008700702], [-1.224891346101083, 44.81022075290378], [-1.225228366613998, 44.810415872333806], [-1.225536899992204, 44.810633566439], [-1.225813974896819, 44.81087173896011], [-1.226056922814499, 44.81112809641513], [-1.226263403761678, 44.811400170177166], [-1.226431428829975, 44.81168534023961], [-1.226559379355213, 44.81198086044006], [-1.226646022524907, 44.812283884900424], [-1.226690523273163, 44.81259149542879], [-1.226692452347602, 44.81290072961935], [-1.226651790469643, 44.81320860938009], [-1.226568928547092, 44.813512169613226], [-1.22644466393594, 44.81380848677267], [-1.226280192786351, 44.81409470702287], [-1.226077098545609, 44.814368073728396], [-1.225837336727864, 44.814625954008406], [-1.225563216096626, 44.81486586410102], [-1.225257376440639, 44.81508549329222], [-1.224922763156757, 44.815282726178765], [-1.22456259888442, 44.81545566305054], [-1.224180352464842, 44.815602638195415], [-1.223779705524099, 44.815722235949934], [-1.223364517002299, 44.81581330434108], [-1.222938785971002, 44.81587496618754], [-1.222506613097716, 44.81590662755269], [-1.222072161129441, 44.81590798346858], [-1.221639614776769, 44.81587902087472], [-1.221213140385909, 44.81582001874416], [-1.220796845788033, 44.81573154539476], [-1.220394740713644, 44.81561445301257], [-1.220010698154164, 44.8154698694393], [-1.219648417043696, 44.815299187303786], [-1.21931138662112, 44.81510405060212], [-1.219002852816291, 44.81488633885616], [-1.218725786984481, 44.81464814900306], [-1.218482857290377, 44.81439177519089], [-1.218276403017217, 44.81411968667515], [-1.218108412048321, 44.813834504029415], [-1.217980501737439, 44.81353897389964], [-1.217893903351644, 44.81323594254554], [-1.21784945023581, 44.81292832842391]]]}}, {"type": "Feature", "properties": {"nb_detections_cluster": 9, "frp_max": 30.03, "frp_moyen": 10.75, "derniere_detection": "2026-07-28T12:38:00", "fetch_timestamp": "2026-07-28T12:38:00"}, "geometry": {"type": "Polygon", "coordinates": [[[-1.2141, 44.81687], [-1.21263, 44.81792], [-1.21262, 44.81327], [-1.2141, 44.81687]]]}}, {"type": "Feature", "properties": {"nb_detections_cluster": 2, "frp_max": 4.5, "frp_moyen": 4.13, "derniere_detection": "2026-07-28T12:38:00", "fetch_timestamp": "2026-07-28T12:38:00"}, "geometry": {"type": "Polygon", "coordinates": [[[-1.198626468393684, 44.818078191835475], [-1.198899876306242, 44.81823656852839], [-1.199208350618809, 44.818454336421404], [-1.199485352488238, 44.818692575315744], [-1.199728214104055, 44.818948991090124], [-1.199934596313323, 44.81922111455601], [-1.20010251115806, 44.81950632522794], [-1.200230341035137, 44.81980187655237], [-1.200316854293549, 44.82010492235129], [-1.20036121711816, 44.82041254422718], [-1.200363001584582, 44.820721779664744], [-1.200322189806691, 44.821029650559794], [-1.200239174135808, 44.82133319189979], [-1.200114753408595, 44.82162948032037], [-1.199950125278795, 44.82191566226269], [-1.199746874705685, 44.82218898146006], [-1.199506958709259, 44.82244680548912], [-1.199232687538206, 44.82268665112962], [-1.198926702431465, 44.82290620828819], [-1.198591950187131, 44.823103362255345], [-1.1982316547834, 44.823276214081034], [-1.197849286324861, 44.82342309887219], [-1.197448527613393, 44.823542601835605], [-1.197033238665983, 44.823633571911316], [-1.196607419521771, 44.82369513286493], [-1.1961751716972, 44.82372669173167], [-1.195740658661379, 44.82372794453082], [-1.195308065713214, 44.8236988791952], [-1.19488155964776, 44.823639775687404], [-1.194465248601233, 44.82355120330185], [-1.194063142462457, 44.823434015178435], [-1.193679114232912, 44.82328934008106], [-1.193316862708423, 44.823118571520084], [-1.192979876842584, 44.82292335432402], [-1.192671402135727, 44.822705568789935], [-1.192394409373513, 44.8224673125656], [-1.192151566016432, 44.82221088043827], [-1.191945210515746, 44.82193874222497], [-1.191777329803041, 44.82165351897783], [-1.191649540169771, 44.8213579577337], [-1.191563071720394, 44.82105490505175], [-1.191518756548062, 44.820747279594094], [-1.19151702074591, 44.820438044013585], [-1.191557880329924, 44.820130176419966], [-1.191640941111619, 44.81982664169889], [-1.191765402520749, 44.819530362960315], [-1.191793399524376, 44.8194817068392], [-1.191520005582032, 44.819323312567775], [-1.19121155629229, 44.81910552323525], [-1.190934587462113, 44.81886726365131], [-1.1906917663215, 44.81861082863554], [-1.190485431107768, 44.81833868803277], [-1.190317568557156, 44.81805346291818], [-1.190189794786253, 44.81775790034652], [-1.190103339746811, 44.81745484688982], [-1.190059035402909, 44.81714722121757], [-1.190057307743485, 44.81683798598474], [-1.190098172706191, 44.81653011929767], [-1.190181236050839, 44.816226586033274], [-1.19030569718259, 44.81593030928756], [-1.190470356887083, 44.815644142228024], [-1.190673628902015, 44.81537084062175], [-1.190913555212909, 44.815113036302535], [-1.191187824924989, 44.814873211833], [-1.191493796528856, 44.81465367660516], [-1.191828523345128, 44.81445654460925], [-1.192188781902781, 44.81428371408464], [-1.192571102977894, 44.81413684924833], [-1.192971804994071, 44.81401736427661], [-1.193387029463247, 44.813926409694055], [-1.193812778126163, 44.81386486130018], [-1.194244951435525, 44.813833311740616], [-1.194679388012098, 44.81383206480324], [-1.195111904694709, 44.81386113249478], [-1.195538336799451, 44.81392023492493], [-1.195954578201438, 44.81400880300031], [-1.196356620854068, 44.8141259839014], [-1.196740593366206, 44.81427064929015], [-1.197102798266607, 44.81444140616987], [-1.197439747597442, 44.81463661029233], [-1.197748196494745, 44.814854381983864], [-1.198025174432738, 44.81509262423802], [-1.198268013831414, 44.815349042901204], [-1.198474375751811, 44.815621168756955], [-1.198642272431365, 44.81590638129689], [-1.198770086441933, 44.816201933949436], [-1.198856586285372, 44.81650498052379], [-1.198900938275814, 44.816812602614895], [-1.198902714593289, 44.81712183770545], [-1.198861897430245, 44.81742970769455], [-1.198778879189955, 44.81773324757839], [-1.198654458733921, 44.818029534006634], [-1.198626468393684, 44.818078191835475]]]}}, {"type": "Feature", "properties": {"nb_detections_cluster": 3, "frp_max": 6.69, "frp_moyen": 3.9, "derniere_detection": "2026-07-28T12:19:00", "fetch_timestamp": "2026-07-28T12:38:00"}, "geometry": {"type": "Polygon", "coordinates": [[[-1.16998, 44.84838], [-1.16252, 44.84922], [-1.16329, 44.84716], [-1.16998, 44.84838]]]}}, {"type": "Feature", "properties": {"nb_detections_cluster": 6, "frp_max": 28.01, "frp_moyen": 10.23, "derniere_detection": "2026-07-28T12:38:00", "fetch_timestamp": "2026-07-28T12:38:00"}, "geometry": {"type": "Polygon", "coordinates": [[[-1.1798, 44.87698], [-1.17966, 44.87771], [-1.17282, 44.87419], [-1.17472, 44.87261], [-1.17762, 44.87342], [-1.1798, 44.87698]]]}}, {"type": "Feature", "properties": {"nb_detections_cluster": 7, "frp_max": 5.22, "frp_moyen": 1.78, "derniere_detection": "2026-07-28T02:53:00", "fetch_timestamp": "2026-07-28T12:38:00"}, "geometry": {"type": "Polygon", "coordinates": [[[-1.10879, 44.93298], [-1.10883, 44.93509], [-1.10444, 44.93626], [-1.1015, 44.93747], [-1.10323, 44.9328], [-1.10521, 44.9296], [-1.10879, 44.93298]]]}}, {"type": "Feature", "properties": {"nb_detections_cluster": 1, "frp_max": 16.31, "frp_moyen": 16.31, "derniere_detection": "2026-07-28T12:38:00", "fetch_timestamp": "2026-07-28T12:38:00"}, "geometry": {"type": "Polygon", "coordinates": [[[-1.020163663780233, 44.75194044673948], [-1.020162871825347, 44.751631216490956], [-1.020204618892909, 44.75132341998242], [-1.020288502249741, 44.7510200214139], [-1.020413713406479, 44.750723942583136], [-1.020579045928623, 44.750438034750786], [-1.020782907077542, 44.75016505118661], [-1.021023333168477, 44.749907620660935], [-1.021298008496903, 44.749668222136094], [-1.021604287650391, 44.74944916090187], [-1.021939220990708, 44.749252546383694], [-1.022299583060539, 44.74908027183757], [-1.022681903641262, 44.748933996126546], [-1.02308250116286, 44.74881512775396], [-1.02349751814461, 44.74872481130697], [-1.023922958325815, 44.748663916440435], [-1.024354725129699, 44.74863302950713], [-1.024788661090915, 44.74863244791461], [-1.025220587867882, 44.748662177263], [-1.025646346455648, 44.74872193129101], [-1.026061837213022, 44.74881113463103], [-1.026463059319509, 44.7489289283464], [-1.02684614928301, 44.74907417819817], [-1.027207418128304, 44.74924548556152], [-1.027543386908881, 44.749441200887176], [-1.02785082020073, 44.74965943957848], [-1.028126757255892, 44.7498981001315], [-1.028368540515978, 44.75015488436396], [-1.028573841211041, 44.75042731953837], [-1.028740681797076, 44.75071278216679], [-1.028867455015696, 44.75100852326833], [-1.02895293939181, 44.75131169483645], [-1.02899631101938, 44.75161937726133], [-1.028997151520852, 44.75192860744351], [-1.028955452102696, 44.75223640732828], [-1.028871613666948, 44.752539812585894], [-1.028746442976682, 44.75283590116156], [-1.028581144911291, 44.753121821420116], [-1.028377310885256, 44.75339481961428], [-1.028136903541016, 44.753652266411514], [-1.027862237862671, 44.75389168222411], [-1.027555958891806, 44.754110761098005], [-1.027221016259632, 44.754307392929846], [-1.026860635780546, 44.7544796837983], [-1.026478288380628, 44.75462597421304], [-1.026077656660543, 44.75474485510566], [-1.02566259941524, 44.7548351814079], [-1.025237114452723, 44.754896083086166], [-1.024805300070688, 44.754926973525876], [-1.024371315562885, 44.754927555184736], [-1.023939341136512, 44.75489782246011], [-1.023513537627662, 44.75483806174299], [-1.023098006403815, 44.75474884865808], [-1.022696749840575, 44.75463104251649], [-1.02231363275419, 44.754485778034734], [-1.021952345162203, 44.75431445439986], [-1.021616366731544, 44.754118721786426], [-1.021308933257073, 44.75390046545546], [-1.021033005493767, 44.75366178758877], [-1.020791240642937, 44.75340498703398], [-1.020585966767069, 44.75313253715586], [-1.020419160379522, 44.752847062007405], [-1.020292427424455, 44.7525513110506], [-1.020206987829651, 44.75224813267076], [-1.020163663780233, 44.75194044673948]]]}}, {"type": "Feature", "properties": {"nb_detections_cluster": 4, "frp_max": 38.37, "frp_moyen": 20.39, "derniere_detection": "2026-07-28T12:38:00", "fetch_timestamp": "2026-07-28T12:38:00"}, "geometry": {"type": "Polygon", "coordinates": [[[-0.98124, 44.75686], [-0.97452, 44.75742], [-0.98182, 44.7555], [-0.98124, 44.75686]]]}}, {"type": "Feature", "properties": {"nb_detections_cluster": 1, "frp_max": 24.62, "frp_moyen": 24.62, "derniere_detection": "2026-07-28T12:38:00", "fetch_timestamp": "2026-07-28T12:38:00"}, "geometry": {"type": "Polygon", "coordinates": [[[-0.957693101693018, 44.75684795726661], [-0.957692653022714, 44.75653872613454], [-0.957734745476369, 44.75623095272571], [-0.957818972994645, 44.755927601017284], [-0.957944523774019, 44.755631592355314], [-0.958110188109752, 44.75534577732436], [-0.958314370068359, 44.75507290830022], [-0.958555102876359, 44.75481561294983], [-0.958830067876348, 44.754576368933634], [-0.95913661686726, 44.75435748005329], [-0.959471797613286, 44.75416105407437], [-0.959832382275568, 44.753988982437214], [-0.960214898492868, 44.7538429220509], [-0.960615662812069, 44.75372427934529], [-0.961030816146967, 44.75363419673454], [-0.961456360924426, 44.75357354162184], [-0.961888199560892, 44.75354289805141], [-0.962322173899568, 44.753542561087464], [-0.962754105229404, 44.75357253397465], [-0.963179834501506, 44.75363252810662], [-0.963595262356705, 44.7537219658038], [-0.963996388579775, 44.7538399858729], [-0.964379350601336, 44.75398545189536], [-0.964740460677467, 44.754156963164725], [-0.965076241389718, 44.754352868168155], [-0.96538345912422, 44.754571280482345], [-0.965659155207843, 44.75481009693135], [-0.965900674401776, 44.755067017831394], [-0.966105690478105, 44.755339569128665], [-0.966272228632871, 44.7556251262167], [-0.966398684519393, 44.755920939204614], [-0.966483839717943, 44.756224159393234], [-0.966526873492104, 44.7565318667041], [-0.966527370717697, 44.75684109779773], [-0.966485325906999, 44.757148874610216], [-0.96640114328846, 44.75745223303363], [-0.966275632940126, 44.75774825146383], [-0.966110003012998, 44.75803407894087], [-0.965905848118256, 44.75830696261069], [-0.965665133989331, 44.75856427424349], [-0.965390178565801, 44.75880353555311], [-0.965083629680716, 44.759022442073345], [-0.964748439565815, 44.75921888536069], [-0.964387836419998, 44.75939097330969], [-0.964005293314816, 44.759537048384395], [-0.963604494736672, 44.759655703590475], [-0.963189301088321, 44.759745796033386], [-0.962763711492121, 44.759806457932086], [-0.962331825253987, 44.759837104981585], [-0.961897802360023, 44.75983744198398], [-0.961465823387228, 44.75980746569316], [-0.961040049215389, 44.759747464846214], [-0.96062458092915, 44.759658017380794], [-0.960223420297475, 44.75953998486559], [-0.95984043121205, 44.75939450419746], [-0.959479302456845, 44.75922297664569], [-0.959143512168134, 44.75902705434883], [-0.958836294327806, 44.75880862439475], [-0.958560607613058, 44.75856979063731], [-0.958319106902658, 44.758312853425416], [-0.958114117714212, 44.75804028743975], [-0.95794761381839, 44.75775471785128], [-0.957821198245321, 44.757458895031185], [-0.957736087865511, 44.757155668056576], [-0.957693101693018, 44.75684795726661]]]}}, {"type": "Feature", "properties": {"nb_detections_cluster": 2, "frp_max": 7.57, "frp_moyen": 7.27, "derniere_detection": "2026-07-27T12:57:00", "fetch_timestamp": "2026-07-28T12:38:00"}, "geometry": {"type": "Polygon", "coordinates": [[[-0.892211842854808, 44.770555348176636], [-0.892211754064363, 44.770246115406266], [-0.892254215049283, 44.76993836550152], [-0.892338816200957, 44.76963506221274], [-0.8924647421177, 44.769339126419325], [-0.892630779482355, 44.76905340800369], [-0.892835328769538, 44.76878065841088], [-0.893076419668971, 44.768523504157386], [-0.893351730075575, 44.768284421544685], [-0.893658608462895, 44.7680657128199], [-0.893994099424018, 44.767869484013644], [-0.894354972133748, 44.767697624667406], [-0.894737751457992, 44.76755178964597], [-0.895138751410924, 44.76743338320903], [-0.895554110638121, 44.76734354549565], [-0.895979829584521, 44.76728314155087], [-0.89641180898999, 44.76725275300039], [-0.896845889342604, 44.767252672452905], [-0.897277890910687, 44.76728290068398], [-0.897703653969022, 44.76734314662863], [-0.898119078832933, 44.767432830182585], [-0.898520165315641, 44.76755108778516], [-0.898903051229911, 44.76769678073052], [-0.899264049564003, 44.76786850612704], [-0.899599683974665, 44.76806461039989], [-0.899906722255921, 44.768283205206814], [-0.900182207461717, 44.768522185614316], [-0.900423486382903, 44.7687792503596], [-0.900628235104324, 44.76905192400333], [-0.900794481395639, 44.76933758076056], [-0.90092062371991, 44.76963346978025], [-0.901005446676258, 44.76993674163067], [-0.901048132727176, 44.77024447573544], [-0.90104827009669, 44.77055370849661], [-0.901005856762346, 44.7708614618338], [-0.900921300501566, 44.77116477186475], [-0.900795414990904, 44.771460717450935], [-0.900629411994737, 44.771746448333644], [-0.900424889717682, 44.77201921258873], [-0.900183817432036, 44.7722763831362], [-0.899908516527562, 44.77251548304845], [-0.89960163816555, 44.77273420941352], [-0.899266137751944, 44.77293045552294], [-0.898905246475191, 44.773102331170186], [-0.898522440182905, 44.77324818086411], [-0.898121405897278, 44.773366599781106], [-0.897706006292121, 44.77345644730256], [-0.897280242474196, 44.77351685800649], [-0.89684821542803, 44.77354725000742], [-0.896414086496344, 44.77354733056411], [-0.895982037277686, 44.77351709890059], [-0.895556229328456, 44.77345684621377], [-0.895140764058465, 44.773367152867046], [-0.89473964320727, 44.77324888279739], [-0.894356730282871, 44.77310317518978], [-0.89399571333499, 44.77293143349927], [-0.8936600694222, 44.77273531192686], [-0.893353031115635, 44.77251669947964], [-0.893077555362325, 44.772277701769], [-0.892836295008162, 44.77202062072271], [-0.892631573254784, 44.77174793240649], [-0.892465361296162, 44.77146226316919], [-0.892339259349851, 44.771166364341425], [-0.892254481265026, 44.770863085731875], [-0.892211842854808, 44.770555348176636]]]}}, {"type": "Feature", "properties": {"nb_detections_cluster": 16, "frp_max": 25.09, "frp_moyen": 8.77, "derniere_detection": "2026-07-28T02:34:00", "fetch_timestamp": "2026-07-28T12:38:00"}, "geometry": {"type": "Polygon", "coordinates": [[[-0.87925, 44.77465], [-0.88806, 44.77516], [-0.88329, 44.77831], [-0.87849, 44.7795], [-0.87893, 44.7818], [-0.8758, 44.78067], [-0.86933, 44.7817], [-0.86979, 44.77943], [-0.87369, 44.7774], [-0.87848, 44.77665], [-0.87925, 44.77465]]]}}, {"type": "Feature", "properties": {"nb_detections_cluster": 3, "frp_max": 9.41, "frp_moyen": 6.49, "derniere_detection": "2026-07-28T12:38:00", "fetch_timestamp": "2026-07-28T12:38:00"}, "geometry": {"type": "Polygon", "coordinates": [[[-0.898555638673924, 44.84965560527565], [-0.898555514833728, 44.849346364308005], [-0.898598000855688, 44.84903860380792], [-0.898682686888118, 44.84873528762783], [-0.898808756710022, 44.8484393367713], [-0.898974995616652, 44.84815360126585], [-0.899179802140196, 44.847880832721074], [-0.899421203491855, 44.847623657836024], [-0.899696874575866, 44.847384553110835], [-0.90000416039176, 44.84716582100557], [-0.90034010160875, 44.84696956777593], [-0.900701463065701, 44.84679768319866], [-0.901084764922269, 44.84665182238144], [-0.901486316161356, 44.846533389832345], [-0.901902250120666, 44.846443525941865], [-0.902328561711726, 44.846383096007095], [-0.902761145968689, 44.84635268190398], [-0.90319583755649, 44.84635257648724], [-0.903628450858899, 44.84638278077194], [-0.904054820261314, 44.846443003923646], [-0.9044708402415, 44.846532666057584], [-0.904872504883086, 44.84665090381932], [-0.905255946432325, 44.846796578694104], [-0.905617472527596, 44.84696828796435], [-0.905953601743881, 44.84716437821055], [-0.906261097110452, 44.84738296122554], [-0.906536997279384, 44.847621932189426], [-0.906778645044938, 44.84787898993038], [-0.906983712939132, 44.84815165907658], [-0.90715022565682, 44.84843731388646], [-0.907276579093919, 44.84873320352778], [-0.90736155581484, 44.84903647856281], [-0.907404336799465, 44.84934421838463], [-0.907404509355643, 44.84965345934025], [-0.907362071120082, 44.849961223270405], [-0.90727743010806, 44.85026454619086], [-0.907151400810468, 44.850560506839], [-0.906985196374726, 44.85084625481105], [-0.90678041694395, 44.8511190380183], [-0.906539034265777, 44.85137622919821], [-0.90626337271836, 44.851615351224524], [-0.905956086935681, 44.85183410097225], [-0.905620136247252, 44.85203037150768], [-0.905258756178188, 44.85220227238904], [-0.904875427284089, 44.8523481478821], [-0.904473841621087, 44.85246659291479], [-0.904057867174372, 44.85255646661689], [-0.903631510588323, 44.85261690331425], [-0.903198878557924, 44.85264732087103], [-0.902764138254139, 44.8526474262998], [-0.902331477165333, 44.852617218585024], [-0.901905062742508, 44.85255698869296], [-0.901489002238011, 44.85246731676742], [-0.901087303125537, 44.852349066539084], [-0.900703834483532, 44.852203377001835], [-0.900342289714772, 44.85203165143669], [-0.900006150961894, 44.85183554388938], [-0.899698655562107, 44.851616943231946], [-0.899422764864616, 44.85137795496226], [-0.899181135711174, 44.85112088091722], [-0.898976094854512, 44.85084819709516], [-0.898809616560739, 44.8505625298017], [-0.898683303611045, 44.85026663034876], [-0.898598371885111, 44.84996334855113], [-0.898555638673924, 44.84965560527565]]]}}, {"type": "Feature", "properties": {"nb_detections_cluster": 9, "frp_max": 84.32, "frp_moyen": 25.82, "derniere_detection": "2026-07-28T02:34:00", "fetch_timestamp": "2026-07-28T12:38:00"}, "geometry": {"type": "Polygon", "coordinates": [[[-0.89809, 44.88432], [-0.9031, 44.88482], [-0.89769, 44.88585], [-0.89349, 44.88472], [-0.89468, 44.88178], [-0.89357, 44.87949], [-0.89767, 44.87982], [-0.89809, 44.88432]]]}}, {"type": "Feature", "properties": {"nb_detections_cluster": 1, "frp_max": 10.31, "frp_moyen": 10.31, "derniere_detection": "2026-07-27T14:20:00", "fetch_timestamp": "2026-07-28T12:38:00"}, "geometry": {"type": "Polygon", "coordinates": [[[-0.955241284586383, 44.906887867574014], [-0.95524084822823, 44.906578621169444], [-0.955283066678606, 44.906270833497075], [-0.95536753266109, 44.90596746867139], [-0.955493432072175, 44.90567144816475], [-0.955659551846514, 44.90538562267574], [-0.955864291661877, 44.905112744680785], [-0.956105679370269, 44.9048554419332], [-0.956381390005838, 44.90461619216459], [-0.956688768185943, 44.90439729923193], [-0.957024853689266, 44.904200870939796], [-0.957386409964409, 44.90402879875074], [-0.957769955294435, 44.90388273957908], [-0.958171796317416, 44.903764099842995], [-0.958588063580577, 44.90367402192794], [-0.959014748786176, 44.90361337319194], [-0.959447743371186, 44.90358273761774], [-0.959882878050066, 44.90358241019257], [-0.960315962940804, 44.903612394069214], [-0.960742827888748, 44.90367240053554], [-0.961159362600993, 44.90376185179322], [-0.961561556205767, 44.90387988651841], [-0.961945535856845, 44.90402536815146], [-0.962307604012025, 44.904196895835604], [-0.962644274027438, 44.904392817900025], [-0.96295230372543, 44.904611247757146], [-0.963228726613187, 44.90485008206213], [-0.963470880451611, 44.90510702095932], [-0.963676432899351, 44.90537959022161], [-0.963843403984789, 44.90566516506954], [-0.963970185189213, 44.905960995441255], [-0.964055554956776, 44.90626423247017], [-0.964098690481169, 44.90657195591567], [-0.964099175654626, 44.906881202282875], [-0.964057005101748, 44.90718899336076], [-0.963972584258285, 44.90749236490398], [-0.963846725493074, 44.907788395182024], [-0.963680640309465, 44.90807423312079], [-0.963475927700386, 44.90834712576541], [-0.963234558768308, 44.90860444479959], [-0.962958857757523, 44.90884371186588], [-0.962651479680793, 44.9090626224425], [-0.962315384755466, 44.90925906804687], [-0.961953809895022, 44.90943115655115], [-0.961570237530621, 44.90957723041397], [-0.961168362063105, 44.90969588265268], [-0.960752054268934, 44.90978597040124], [-0.960325324003435, 44.909846625923834], [-0.959892281561264, 44.90987726497684], [-0.959457098067077, 44.90987759243936], [-0.95902396527884, 44.9098476051572], [-0.958597055191877, 44.90978759197334], [-0.958180479833757, 44.90969813094427], [-0.957778251638253, 44.90958008376931], [-0.957394244780892, 44.909434587486615], [-0.957032157849396, 44.90926304351585], [-0.956695478209201, 44.90906710415379], [-0.956387448407834, 44.90884865665267], [-0.956111034942082, 44.90860980503546], [-0.955868899688959, 44.90835284982305], [-0.955663374275595, 44.90808026586959], [-0.955496437634691, 44.90779467851907], [-0.955369696961276, 44.90749883831383], [-0.955284372253612, 44.907195594498326], [-0.955241284586383, 44.906887867574014]]]}}, {"type": "Feature", "properties": {"nb_detections_cluster": 1, "frp_max": 10.31, "frp_moyen": 10.31, "derniere_detection": "2026-07-27T14:20:00", "fetch_timestamp": "2026-07-28T12:38:00"}, "geometry": {"type": "Polygon", "coordinates": [[[-0.96472130495974, 44.90696824542885], [-0.964720816357004, 44.90665899905612], [-0.964762982870593, 44.906351207776375], [-0.964847397724226, 44.90604783573885], [-0.964973247306732, 44.90575180448547], [-0.965139319032544, 44.90546596481836], [-0.965344013042046, 44.90519306935052], [-0.965585357628235, 44.904935746003574], [-0.965861028240396, 44.90469647270754], [-0.966168369881168, 44.90447755354599], [-0.966504422680959, 44.904281096576064], [-0.966865950403157, 44.90410899353653], [-0.967249471605649, 44.903962901638785], [-0.967651293158734, 44.9038442276161], [-0.968067545797019, 44.903754114184146], [-0.968494221363518, 44.903693429042896], [-0.96892721138797, 44.90366275652568], [-0.969362346628726, 44.90366239197542], [-0.96979543719836, 44.90369233890237], [-0.970222312887565, 44.9037523089502], [-0.970638863300059, 44.90384172467126], [-0.971041077412964, 44.90395972508389], [-0.971425082182669, 44.90410517395883], [-0.97178717982521, 44.90427667075478], [-0.972123883412888, 44.904472564098356], [-0.972431950444904, 44.904690967678576], [-0.972708414069061, 44.90492977840366], [-0.972950611654114, 44.90518669664504], [-0.973156210437562, 44.905459248374555], [-0.973323230001691, 44.90574480898165], [-0.973450061361028, 44.90604062854167], [-0.9735354824768, 44.90634385829217], [-0.97357867004825, 44.90665157806271], [-0.973579207466402, 44.906960824393835], [-0.97353708885271, 44.90726861907496], [-0.973452719142688, 44.90757199782608], [-0.973326910212661, 44.90786803884734], [-0.973160873085947, 44.908153890961216], [-0.972956206292538, 44.90842680107635], [-0.972714880493535, 44.90868414070828], [-0.972439219517676, 44.90892343130113], [-0.972131877992002, 44.909142368106664], [-0.971795815781681, 44.90933884238963], [-0.971434269484969, 44.90951096174599], [-0.971050721257784, 44.90965706833728], [-0.970648865268373, 44.909775754865535], [-0.970232572105497, 44.90986587813453], [-0.969805851483479, 44.90992657006629], [-0.96937281360404, 44.90995724606649], [-0.968937629547867, 44.90995761065834], [-0.968504491078335, 44.90992766033001], [-0.968077570245519, 44.90986768356856], [-0.967660979180545, 44.909778258079626], [-0.967258730468542, 44.909660245220245], [-0.966874698482745, 44.909514781698], [-0.966512582053017, 44.90934326861706], [-0.966175868829038, 44.90914735797667], [-0.965867801681924, 44.90892893675248], [-0.965591347468298, 44.90869010871436], [-0.96534916845776, 44.90843317415615], [-0.965143596699004, 44.908160607733095], [-0.964976611571202, 44.90787503462041], [-0.964849820736456, 44.90757920522334], [-0.964764444676201, 44.90727596868237], [-0.96472130495974, 44.90696824542885]]]}}, {"type": "Feature", "properties": {"nb_detections_cluster": 2, "frp_max": 8.52, "frp_moyen": 8.23, "derniere_detection": "2026-07-28T12:19:00", "fetch_timestamp": "2026-07-28T12:38:00"}, "geometry": {"type": "Polygon", "coordinates": [[[-0.948215358189291, 44.906172407052956], [-0.948260109142052, 44.90618202254023], [-0.948662292954914, 44.906300104045336], [-0.949046255719766, 44.90644563036366], [-0.949408300056876, 44.90661720020821], [-0.949744939551561, 44.90681316150209], [-0.95005293231989, 44.90703162728001], [-0.95032931222447, 44.90727049385115], [-0.950571417439921, 44.90752746104911], [-0.950776916092919, 44.90780005437422], [-0.950943828729696, 44.90808564881522], [-0.951070547394225, 44.908381494121485], [-0.951155851132775, 44.90868474128259], [-0.951198917774788, 44.908992469960204], [-0.951199331875768, 44.909301716609], [-0.951157088744723, 44.909609503015176], [-0.951072594516353, 44.90991286497828], [-0.950946662266266, 44.91020888086], [-0.950780504205586, 44.910494699724794], [-0.950575720029206, 44.91076756880141], [-0.950334281528989, 44.91102486000053], [-0.950058513619392, 44.911264095232696], [-0.949751071957665, 44.9114829702827], [-0.949414917373739, 44.911679377010095], [-0.949053287355881, 44.911851423661474], [-0.94866966486668, 44.911997453098586], [-0.948267744789933, 44.912116058766614], [-0.947851398331918, 44.91220609824815], [-0.947424635720491, 44.912266704272206], [-0.946991567561963, 44.912297293072], [-0.946556365228761, 44.91229757001065], [-0.946123220660335, 44.912267532420614], [-0.945696305965479, 44.91220746962943], [-0.945279733216107, 44.91211796017147], [-0.944877514820788, 44.91199986621248], [-0.94449352486055, 44.91185432524121], [-0.944131461760233, 44.91168273910778], [-0.943794812655574, 44.91148676051505], [-0.94348681979981, 44.911268277093065], [-0.943210449333697, 44.91102939321074], [-0.942968362719899, 44.91077240969971], [-0.942904397086116, 44.91068754406442], [-0.942859643457888, 44.91067792640685], [-0.94245744047876, 44.910559823740215], [-0.942073466650665, 44.9104142744704], [-0.941711420243024, 44.91024268052749], [-0.941374788230763, 44.910046694689505], [-0.941066812702461, 44.909828204656314], [-0.940790459631956, 44.9095893148605], [-0.94054839031435, 44.90933232619063], [-0.940342935741516, 44.90905971382297], [-0.940176074163681, 44.90877410337513], [-0.940049412052764, 44.90847824561183], [-0.939964168650257, 44.908174989946566], [-0.939921164247701, 44.90786725699478], [-0.939920812311778, 44.90755801044299], [-0.939963115528882, 44.90725022850497], [-0.94004766580627, 44.90694687523986], [-0.940173648228712, 44.90665087200862], [-0.940339848931545, 44.90636506934339], [-0.94054466681333, 44.90609221950071], [-0.940786128974462, 44.905834949962696], [-0.941061909732311, 44.90559573814111], [-0.941369353029181, 44.905376887527474], [-0.94170549801692, 44.90518050551877], [-0.942067107571533, 44.90500848313184], [-0.942450699463232, 44.90486247680146], [-0.942852579881919, 44.90474389243692], [-0.943268878995626, 44.904653871890524], [-0.943695588200044, 44.904593281967855], [-0.94412859870115, 44.904562706085365], [-0.944563741060208, 44.90456243865553], [-0.944996825321258, 44.9045924822534], [-0.945423681335687, 44.90465254759184], [-0.945840198896543, 44.90474205630561], [-0.946242367297102, 44.90486014651762], [-0.946626313933693, 44.90500568113393], [-0.946988341581851, 44.905177258787575], [-0.947324963987564, 44.90537322732653], [-0.94763293943143, 44.905591699715686], [-0.947909301942854, 44.90583057220057], [-0.948151389863926, 44.90608754455783], [-0.948215358189291, 44.906172407052956]]]}}, {"type": "Feature", "properties": {"nb_detections_cluster": 1, "frp_max": 9.2, "frp_moyen": 9.2, "derniere_detection": "2026-07-28T12:38:00", "fetch_timestamp": "2026-07-28T12:38:00"}, "geometry": {"type": "Polygon", "coordinates": [[[-1.050868231806841, 44.9489916810415], [-1.050867267730789, 44.94868243132517], [-1.050908992953554, 44.94837460364691], [-1.050993004947405, 44.948071162507105], [-1.051118493979369, 44.94777503011359], [-1.051284250934451, 44.94748905824301], [-1.051488678982622, 44.94721600078195], [-1.051729808976371, 44.946958487212406], [-1.052005318429799, 44.94671899729655], [-1.05231255389588, 44.946499837204186], [-1.052648556526008, 44.94630311731279], [-1.053010090565421, 44.94613073189302], [-1.053393674510156, 44.945984340875555], [-1.053795614625568, 44.945865353874055], [-1.054212040504101, 44.9457749166179], [-1.054638942320387, 44.945713899925224], [-1.055072209425632, 44.94568289132183], [-1.055507669910481, 44.94568218938686], [-1.055941130756276, 44.94571180087914], [-1.056368418189077, 44.94577144067227], [-1.056785417848841, 44.945860534498564], [-1.057188114387921, 44.94597822447599], [-1.057572630118508, 44.94612337736455], [-1.057935262337665, 44.94629459547315], [-1.058272518971255, 44.946490230112104], [-1.058581152194051, 44.94670839746185], [-1.058858189702673, 44.946946996705606], [-1.059100963340356, 44.94720373025161], [-1.05930713479792, 44.947476125850706], [-1.059474718143183, 44.947761560396216], [-1.059602098961497, 44.948057285177924], [-1.059688049922484, 44.948360452346655], [-1.059731742622305, 44.94866814233517], [-1.059732755586597, 44.94897739197139], [-1.059691078355995, 44.94928522301345], [-1.059607111613923, 44.94958867083169], [-1.059481663354351, 44.949884812961606], [-1.059315941125414, 44.95017079725243], [-1.059111540422635, 44.950443869340255], [-1.058870429342659, 44.95070139918097], [-1.058594929644536, 44.95094090638715], [-1.058287694400401, 44.95116008412449], [-1.057951682450335, 44.95135682133745], [-1.057590129907252, 44.9515292230897], [-1.057206518986211, 44.95167562882295], [-1.056804544458534, 44.95179462835799], [-1.056388078054222, 44.951885075483766], [-1.05596113115603, 44.9519460990029], [-1.055527816145218, 44.95197711112722], [-1.055092306772131, 44.9519778131423], [-1.05465879793417, 44.95194819828621], [-1.054231465249591, 44.951888551814655], [-1.053814424817434, 44.95179944825194], [-1.053411693552208, 44.95168174585426], [-1.053027150476229, 44.951536578338946], [-1.052664499343301, 44.95136534395917], [-1.052327232954408, 44.95116969202991], [-1.052018599509665, 44.950951507035185], [-1.051741571320984, 44.950712890469866], [-1.051498816186966, 44.950456140591356], [-1.051292671705711, 44.9501837302765], [-1.051125122772714, 44.94989828319746], [-1.050997782480176, 44.949602548546125], [-1.050911876601099, 44.94929937455093], [-1.050868231806841, 44.9489916810415]]]}}, {"type": "Feature", "properties": {"nb_detections_cluster": 12, "frp_max": 18.89, "frp_moyen": 5.65, "derniere_detection": "2026-07-28T12:38:00", "fetch_timestamp": "2026-07-28T12:38:00"}, "geometry": {"type": "Polygon", "coordinates": [[[-0.86136, 44.72448], [-0.86437, 44.72418], [-0.85288, 44.72599], [-0.85073, 44.72193], [-0.85332, 44.72034], [-0.85238, 44.7216], [-0.86136, 44.72448]]]}}, {"type": "Feature", "properties": {"nb_detections_cluster": 1, "frp_max": 2.56, "frp_moyen": 2.56, "derniere_detection": "2026-07-28T02:34:00", "fetch_timestamp": "2026-07-28T12:38:00"}, "geometry": {"type": "Polygon", "coordinates": [[[-0.800184706582481, 44.73087167791212], [-0.800185123425578, 44.73056244960821], [-0.800228057587476, 44.73025473947376], [-0.800313094903896, 44.72995151087554], [-0.800439415774185, 44.72965568397311], [-0.80060580307929, 44.72937010759969], [-0.800810653925562, 44.72909753183199], [-0.801051995100445, 44.72884058151216], [-0.801327502090452, 44.72860173097745], [-0.801634521477714, 44.72838328023988], [-0.801970096499038, 44.728187332845465], [-0.802330995521086, 44.72801577562575], [-0.802713743157493, 44.72787026053605], [-0.803114653728408, 44.727752188755346], [-0.803529866740661, 44.72766269720013], [-0.8039553840474, 44.72760264758233], [-0.804387108330103, 44.72757261811581], [-0.804820882533173, 44.72757289795164], [-0.80525252987233, 44.727603484395324], [-0.805677894032491, 44.72766408293268], [-0.806092879169052, 44.727754110064275], [-0.806493489328324, 44.727872698921104], [-0.806875866908481, 44.72801870760755], [-0.807236329791411, 44.728190730191585], [-0.807571406788671, 44.72838711023648], [-0.807877871060691, 44.72860595674428], [-0.808152771187806, 44.72884516235741], [-0.808393459594095, 44.72910242364411], [-0.808597618050254, 44.729375263272], [-0.808763280009714, 44.72966105385727], [-0.808888849562517, 44.72995704325964], [-0.808973116823802, 44.73026038108012], [-0.809015269607998, 44.730568146106414], [-0.80901490127543, 44.73087737444225], [-0.808972014674817, 44.73118508804925], [-0.808887022142682, 44.731488323427186], [-0.808760741558644, 44.731784160155996], [-0.808594388493577, 44.73206974902476], [-0.808389564525305, 44.732342339476666], [-0.808148241833478, 44.73259930610519], [-0.80787274422129, 44.732838173946384], [-0.807565724746224, 44.73305664232317], [-0.807230140174848, 44.733252607011586], [-0.806869222507502, 44.73342418051558], [-0.806486447847082, 44.73356971025398], [-0.806085502911955, 44.733687794484915], [-0.80567024951589, 44.733777295813375], [-0.805244687357663, 44.733837352151916], [-0.804812915479415, 44.73386738502836], [-0.804379092765816, 44.733867105160606], [-0.803947397865374, 44.73383651524437], [-0.803521988920928, 44.7337759099273], [-0.803106963498117, 44.73368587296934], [-0.802706319098805, 44.73356727161715], [-0.802323914640649, 44.7334212482465], [-0.801963433274662, 44.73324920935376], [-0.801628346899585, 44.733052812002384], [-0.80132188271537, 44.7328339478554], [-0.801046992138306, 44.73259472494822], [-0.800806322377314, 44.73233744737727], [-0.800602190945168, 44.732064593100674], [-0.800436563349921, 44.731778790065185], [-0.800311034180931, 44.73148279088953], [-0.800226811771133, 44.73117944634834], [-0.800184706582481, 44.73087167791212]]]}}, {"type": "Feature", "properties": {"nb_detections_cluster": 1, "frp_max": 8.43, "frp_moyen": 8.43, "derniere_detection": "2026-07-28T12:38:00", "fetch_timestamp": "2026-07-28T12:38:00"}, "geometry": {"type": "Polygon", "coordinates": [[[-0.87702457438142, 44.73522474086603], [-0.877024569087714, 44.7349155119374], [-0.877067086458229, 44.7346077716865], [-0.877151716342248, 44.73430448377067], [-0.87727764306229, 44.7340085689211], [-0.877443653294341, 44.73372287681852], [-0.877648147775131, 44.73345015865441], [-0.877889156722909, 44.733193040642654], [-0.878164358822416, 44.73295399873558], [-0.878471103590693, 44.732735334788316], [-0.878806436907918, 44.73253915440025], [-0.879167129467186, 44.732367346646654], [-0.879549707869264, 44.73222156589545], [-0.879950488063052, 44.732103215883775], [-0.880365610810097, 44.73201343620734], [-0.880791078832191, 44.73195309135236], [-0.881222795285027, 44.73192276237557], [-0.881656603188257, 44.73192274131202], [-0.882088325433159, 44.73195302836452], [-0.882513804983637, 44.732013331901705], [-0.882928944884439, 44.732103071264724], [-0.883329747692256, 44.7322213823555], [-0.88371235395099, 44.73236712595312], [-0.88407307934142, 44.73253889867823], [-0.884408450148307, 44.73273504650022], [-0.884715236703892, 44.7329536806574], [-0.884990484486102, 44.73319269583733], [-0.885231542572217, 44.73344979044228], [-0.885436089173929, 44.733722488745336], [-0.885602154007688, 44.734008164723946], [-0.885728137284516, 44.73430406734196], [-0.885812825135831, 44.734607347036516], [-0.885855401325969, 44.73491508315564], [-0.885855455137785, 44.73522431208187], [-0.885812985354404, 44.73553205577166], [-0.885728400297802, 44.735835350435565], [-0.885602513922764, 44.73613127508302], [-0.885436538002871, 44.7364169796568], [-0.885232070482794, 44.73668971248614], [-0.8849910801082, 44.7369468467936], [-0.884715887480589, 44.737185906000626], [-0.884409142718922, 44.73740458758721], [-0.884073799942767, 44.737600785276165], [-0.88371308882253, 44.737772609327294], [-0.883330483470732, 44.737918404746395], [-0.882929668974135, 44.73803676723267], [-0.882514505889429, 44.738126556711], [-0.882088993044977, 44.73818690831849], [-0.881657229007584, 44.738217240738884], [-0.881223372586247, 44.738217261804856], [-0.88079160275421, 44.738186971313446], [-0.880366078376312, 44.73812666102818], [-0.879950898130506, 44.73803691186729], [-0.87955006101053, 44.73791858830531], [-0.879167427791085, 44.73777283004245], [-0.878806683827473, 44.73760104102164], [-0.878471303548688, 44.73740487589971], [-0.878164516986494, 44.73718622410319], [-0.877889278663214, 44.736947191622384], [-0.877648239138067, 44.7366900807199], [-0.877443719486075, 44.73641736774894], [-0.877277688955127, 44.736131679295724], [-0.87715174601596, 44.73583576687582], [-0.877067102987002, 44.735532480428766], [-0.87702457438142, 44.73522474086603]]]}}, {"type": "Feature", "properties": {"nb_detections_cluster": 1, "frp_max": 1.26, "frp_moyen": 1.26, "derniere_detection": "2026-07-28T01:13:00", "fetch_timestamp": "2026-07-28T12:38:00"}, "geometry": {"type": "Polygon", "coordinates": [[[-0.808044097797093, 44.73890199162958], [-0.808044471516258, 44.73859276240983], [-0.808087368833069, 44.73828504834699], [-0.808172375937866, 44.73798181284576], [-0.808298673520712, 44.737685976132155], [-0.808465044686581, 44.73740038713401], [-0.808669886697017, 44.73712779604957], [-0.808911226424329, 44.73687082786861], [-0.809186739368767, 44.73663195710032], [-0.809493772054943, 44.73641348395161], [-0.80982936759145, 44.73621751218437], [-0.81019029414728, 44.7360459288648], [-0.81057307607085, 44.7359003861996], [-0.810974027352102, 44.73578228563321], [-0.811389287105843, 44.7356927643594], [-0.81181485673517, 44.73563268437618], [-0.812246638417791, 44.73560262418985], [-0.812680474545487, 44.73560287324726], [-0.813112187737812, 44.73563342915029], [-0.813537621045702, 44.735693997678815], [-0.813952677958858, 44.735783995622384], [-0.81435336183259, 44.735902556393015], [-0.814735814355395, 44.73604853836556], [-0.815096352687655, 44.736220535865215], [-0.815431504914509, 44.736416892696866], [-0.815738043472061, 44.73663571808605], [-0.816013016225376, 44.7368749048786], [-0.816253774899199, 44.737132149824], [-0.816458000587561, 44.73740497574734], [-0.816623726096417, 44.73769075539674], [-0.816749354903751, 44.73798673673731], [-0.816833676553959, 44.73829006944773], [-0.816875878337542, 44.73859783236501], [-0.816875553142768, 44.738907061613176], [-0.816832703402716, 44.73921477914515], [-0.816747741098696, 44.73951802142296], [-0.816621483818979, 44.739813867960116], [-0.816455146909762, 44.740099469451316], [-0.816250331793038, 44.740372075218154], [-0.816009010562987, 44.74062905970671], [-0.815733507008522, 44.74086794778102], [-0.815426474244178, 44.741086438569134], [-0.815090869164364, 44.74128242763131], [-0.814729923966836, 44.7414540272367], [-0.814347115019563, 44.74159958455277], [-0.813946129371112, 44.74171769757199], [-0.813530829227385, 44.74180722862211], [-0.813105214737453, 44.74186731532937], [-0.812673385447573, 44.741897378929124], [-0.812239500795485, 44.741897129843295], [-0.811807740026403, 44.741866570471124], [-0.811382261917736, 44.741805995166025], [-0.810967164701451, 44.74171598739891], [-0.810566446571067, 44.74159741413524], [-0.810183967154549, 44.74145141748027], [-0.809823410325028, 44.741279403673026], [-0.809488248708201, 44.74108302953536], [-0.809181710228819, 44.74086418650678], [-0.80890674701881, 44.74062498241928], [-0.808666006986686, 44.74036772118806], [-0.808461808322026, 44.74009488061389], [-0.80829611718037, 44.73980908851161], [-0.808170528763021, 44.739513097394735], [-0.808086251973419, 44.73920975796025], [-0.808044097797093, 44.73890199162958]]]}}, {"type": "Feature", "properties": {"nb_detections_cluster": 6, "frp_max": 288.9, "frp_moyen": 202.08, "derniere_detection": "2026-07-28T12:38:00", "fetch_timestamp": "2026-07-28T12:38:00"}, "geometry": {"type": "Polygon", "coordinates": [[[-0.8749, 44.86497], [-0.88006, 44.86923], [-0.86775, 44.86685], [-0.87251, 44.86035], [-0.87966, 44.85846], [-0.8749, 44.86497]]]}}]}