{"type": "FeatureCollection", "name": "zone_active", "crs": {"type": "name", "properties": {"name": "urn:ogc:def:crs:OGC:1.3:CRS84"}}, "features": [{"type": "Feature", "properties": {"nb_detections_cluster": 14, "frp_max": 49.51, "frp_moyen": 14.79, "derniere_detection": "2026-07-29T13:40:00", "fetch_timestamp": "2026-07-29T13:40:00"}, "geometry": {"type": "Polygon", "coordinates": [[[-1.21664, 44.76895], [-1.21611, 44.7723], [-1.20995, 44.77279], [-1.21179, 44.76986], [-1.20928, 44.76832], [-1.21128, 44.76894], [-1.21544, 44.76784], [-1.21762, 44.76735], [-1.21795, 44.76941], [-1.21664, 44.76895]]]}}, {"type": "Feature", "properties": {"nb_detections_cluster": 9, "frp_max": 6.19, "frp_moyen": 2.37, "derniere_detection": "2026-07-29T02:34:00", "fetch_timestamp": "2026-07-29T13:40:00"}, "geometry": {"type": "Polygon", "coordinates": [[[-1.21776, 44.81698], [-1.22391, 44.8173], [-1.21721, 44.81834], [-1.20847, 44.81828], [-1.21247, 44.81717], [-1.21776, 44.81698]]]}}, {"type": "Feature", "properties": {"nb_detections_cluster": 5, "frp_max": 1.79, "frp_moyen": 1.24, "derniere_detection": "2026-07-29T02:34:00", "fetch_timestamp": "2026-07-29T13:40:00"}, "geometry": {"type": "Polygon", "coordinates": [[[-1.162877692735993, 44.833186138925896], [-1.162876114180831, 44.83287690164673], [-1.162917139739826, 44.83256904335581], [-1.163000373625854, 44.83226552884904], [-1.163125013601482, 44.83196928104155], [-1.163289858729915, 44.83168315282205], [-1.163493320963169, 44.83140989958345], [-1.163733440455035, 44.8311521526936], [-1.164007904450587, 44.83091239416198], [-1.164314069569762, 44.83069293274555], [-1.16464898727, 44.830495881723714], [-1.165009432242506, 44.83032313855603], [-1.165391933468683, 44.83017636661824], [-1.165792807637802, 44.8300569791921], [-1.166208194604497, 44.82996612586284], [-1.166634094545172, 44.82990468145506], [-1.167066406456198, 44.82987323761303], [-1.167500967624023, 44.82987209710673], [-1.167933593687993, 44.82990127091803], [-1.168360118911105, 44.82996047813486], [-1.16877643627188, 44.83004914865484], [-1.16917853699226, 44.83016642867195], [-1.169562549121833, 44.83031118889379], [-1.169924774807641, 44.83048203541045], [-1.170261725891396, 44.830677323110514], [-1.170570157491856, 44.83089517151548], [-1.170847099249342, 44.83113348288009], [-1.171089883931736, 44.83138996238516], [-1.171296173126426, 44.831662140228254], [-1.171463979770616, 44.831947395400206], [-1.171591687302626, 44.832242980918735], [-1.171678065249158, 44.83254605027642], [-1.17172228109772, 44.83285368484861], [-1.171723908338976, 44.83316292199763], [-1.171682930600654, 44.8334707836026], [-1.171599741832152, 44.83377430474027], [-1.171475142537064, 44.83407056224067], [-1.171310332088855, 44.834356702842584], [-1.171106897202766, 44.83462997067727], [-1.17086679667407, 44.83488773381596], [-1.170592342528949, 44.83512750962474], [-1.170286177768922, 44.83534698868268], [-1.169951250922743, 44.83554405703245], [-1.169590787650683, 44.83571681654857], [-1.169208259674579, 44.83586360322706], [-1.168807351333147, 44.83598300321967], [-1.168391924084974, 44.83607386645822], [-1.167965979301652, 44.83613531773736], [-1.167533619710085, 44.836166765148725], [-1.167099009856166, 44.83616790578515], [-1.166666335971523, 44.8361387286598], [-1.166239765630884, 44.836079514812084], [-1.165823407589569, 44.8359908345992], [-1.165421272188965, 44.835873542199685], [-1.165037232712228, 44.83572876738176], [-1.164674988063249, 44.83555790461626], [-1.164338027129063, 44.835362599639026], [-1.164029595169457, 44.83514473359254], [-1.163752662557912, 44.834906404899996], [-1.163509896175071, 44.834649909046476], [-1.163303633730308, 44.834377716462704], [-1.163135861258432, 44.83409244872429], [-1.1630081940079, 44.83379685329645], [-1.162921860904015, 44.83349377706742], [-1.162877692735993, 44.833186138925896]]]}}, {"type": "Feature", "properties": {"nb_detections_cluster": 6, "frp_max": 24.43, "frp_moyen": 8.02, "derniere_detection": "2026-07-29T13:40:00", "fetch_timestamp": "2026-07-29T13:40:00"}, "geometry": {"type": "Polygon", "coordinates": [[[-1.1667, 44.84558], [-1.16915, 44.84577], [-1.16614, 44.84729], [-1.16499, 44.84886], [-1.16392, 44.84512], [-1.1667, 44.84558]]]}}, {"type": "Feature", "properties": {"nb_detections_cluster": 7, "frp_max": 13.67, "frp_moyen": 8.19, "derniere_detection": "2026-07-28T13:59:00", "fetch_timestamp": "2026-07-29T13:40:00"}, "geometry": {"type": "Polygon", "coordinates": [[[-1.17843, 44.87534], [-1.17741, 44.87697], [-1.17175, 44.87146], [-1.1728, 44.86985], [-1.17818, 44.86965], [-1.18251, 44.87111], [-1.17714, 44.87128], [-1.17843, 44.87534]]]}}, {"type": "Feature", "properties": {"nb_detections_cluster": 1, "frp_max": 3.3, "frp_moyen": 3.3, "derniere_detection": "2026-07-28T13:59:00", "fetch_timestamp": "2026-07-29T13:40:00"}, "geometry": {"type": "Polygon", "coordinates": [[[-1.167963783173588, 44.883006344353376], [-1.167962175200447, 44.882697102198364], [-1.16800320927588, 44.88238923709955], [-1.168086489529505, 44.882085713918435], [-1.168211213276159, 44.8817894556537], [-1.168376178771192, 44.88150331529482], [-1.168579796806479, 44.881230048351576], [-1.168820106034574, 44.88097228632381], [-1.169094791872723, 44.880732511366816], [-1.169401208804055, 44.880513032395704], [-1.169736405860821, 44.88031596285893], [-1.170097155044018, 44.880143200394315], [-1.170479982405716, 44.87999640856343], [-1.17088120149493, 44.87987700083955], [-1.171296948845335, 44.87978612700341], [-1.171723221163621, 44.879724662076995], [-1.172155913861073, 44.87969319790217], [-1.172590860558154, 44.8796920374447], [-1.173023873182602, 44.87972119187856], [-1.173450782275859, 44.879780380478266], [-1.173867477120757, 44.8798690333207], [-1.174269945304948, 44.87998629677009], [-1.174654311340095, 44.88013104169355], [-1.175016873965708, 44.880301874328524], [-1.175354141779152, 44.8804971496973], [-1.175662866849247, 44.88071498744011], [-1.175940075990142, 44.880953289914444], [-1.176183099394524, 44.881209762386725], [-1.176389596350375, 44.881481935122274], [-1.176557577793436, 44.88176718716118], [-1.176685425477811, 44.88206277155133], [-1.176771907579479, 44.882365841796236], [-1.176816190581766, 44.88267347926274], [-1.176817847327407, 44.882982721285344], [-1.176776861158744, 44.883290589696216], [-1.176693626105122, 44.88359411950663], [-1.1765689431147, 44.883890387463104], [-1.176404012365884, 44.88417654020375], [-1.176200421731526, 44.88444982174292], [-1.175960131506064, 44.884707600019865], [-1.175685455541997, 44.884947392254894], [-1.175379038976738, 44.885166888868866], [-1.175043832763967, 44.88536397573535], [-1.174683065254548, 44.88553675455052], [-1.174300211100679, 44.885683561124495], [-1.17389895778295, 44.88580298141737], [-1.173483170083071, 44.88589386516547], [-1.173056852844959, 44.885955336965864], [-1.172624112383573, 44.88598680471253], [-1.17218911691399, 44.885987965302405], [-1.171756056382776, 44.88595880755648], [-1.171329102089513, 44.88589961232747], [-1.170912366488383, 44.88581094979329], [-1.170509863557974, 44.885693673962166], [-1.1701254701219, 44.885548914442765], [-1.169762888493652, 44.88537806555858], [-1.169425610806126, 44.885182772911776], [-1.16911688536996, 44.884964917526105], [-1.168839685385071, 44.884726597722086], [-1.16859668030691, 44.88447010889925], [-1.168390210143232, 44.88419792142063], [-1.168222262928685, 44.883912656812704], [-1.168094455593784, 44.883617062510595], [-1.168008018411941, 44.883313985391716], [-1.167963783173588, 44.883006344353376]]]}}, {"type": "Feature", "properties": {"nb_detections_cluster": 35, "frp_max": 30.29, "frp_moyen": 9.23, "derniere_detection": "2026-07-29T13:40:00", "fetch_timestamp": "2026-07-29T13:40:00"}, "geometry": {"type": "Polygon", "coordinates": [[[-0.98704, 44.75491], [-0.99247, 44.75471], [-0.99219, 44.75576], [-0.98675, 44.75592], [-0.98128, 44.75608], [-0.97582, 44.75624], [-0.97036, 44.75641], [-0.95944, 44.75673], [-0.95541, 44.75585], [-0.9491, 44.75632], [-0.94844, 44.75179], [-0.95474, 44.75133], [-0.95976, 44.75586], [-0.9661, 44.75157], [-0.97066, 44.75548], [-0.97545, 44.75051], [-0.97612, 44.75529], [-0.98159, 44.7551], [-0.98704, 44.75491]]]}}, {"type": "Feature", "properties": {"nb_detections_cluster": 9, "frp_max": 23.68, "frp_moyen": 9.4, "derniere_detection": "2026-07-29T13:40:00", "fetch_timestamp": "2026-07-29T13:40:00"}, "geometry": {"type": "Polygon", "coordinates": [[[-1.02682, 44.75474], [-1.02876, 44.75586], [-1.02526, 44.7552], [-1.0249, 44.75477], [-1.02517, 44.75356], [-1.02665, 44.75151], [-1.02682, 44.75474]]]}}, {"type": "Feature", "properties": {"nb_detections_cluster": 2, "frp_max": 4.08, "frp_moyen": 3.21, "derniere_detection": "2026-07-28T13:59:00", "fetch_timestamp": "2026-07-29T13:40:00"}, "geometry": {"type": "Polygon", "coordinates": [[[-0.968564623787707, 44.86905310134841], [-0.968662169162963, 44.86902427350388], [-0.969078162060992, 44.868934157266885], [-0.969504571954299, 44.86887346890627], [-0.969937292930388, 44.86884279278635], [-0.97037215833784, 44.868842424284786], [-0.970804980886998, 44.86887236694985], [-0.971231592948888, 44.86893233246628], [-0.971647886665301, 44.86902174343], [-0.972049853484769, 44.869139738905176], [-0.972433622744647, 44.869285182710094], [-0.972795498928588, 44.869456674352264], [-0.973131997241343, 44.86965256250791], [-0.973439877158866, 44.86987096091602], [-0.973716173630993, 44.870109766534576], [-0.973958225636428, 44.8703666797842], [-0.974163701815029, 44.87063922668482], [-0.974330622930332, 44.870924782672326], [-0.974457380945608, 44.87122059786656], [-0.974542754529159, 44.871523823547136], [-0.974585920838802, 44.8718315395828], [-0.974586463471181, 44.8721407825501], [-0.974544376498407, 44.87244857427079], [-0.974460064552123, 44.872751950493445], [-0.974334338953161, 44.87304798944253], [-0.97416840992303, 44.87333383996051], [-0.973963874951296, 44.87360674897143], [-0.973722703430017, 44.873864088001426], [-0.973447217702474, 44.87410337850051], [-0.973140070708123, 44.874322315721265], [-0.972804220438676, 44.87451879092452], [-0.972442901451092, 44.87469091169738], [-0.972059593711834, 44.87483702018773], [-0.971657989072621, 44.87495570907936], [-0.971241955700942, 44.875045835153244], [-0.97081550080846, 44.87510653030442], [-0.970382732036963, 44.87513720990755], [-0.969947817874623, 44.87513757845117], [-0.969514947484718, 44.875107632385365], [-0.969088290334716, 44.8750476601561], [-0.968671956015536, 44.87495823942541], [-0.968269954638989, 44.874840231504464], [-0.967886158195728, 44.87469477305327], [-0.967595314999223, 44.874556937887924], [-0.967497759464076, 44.874585764845826], [-0.967081722156246, 44.87467587532346], [-0.966655265577128, 44.87473655449147], [-0.966222497384778, 44.874767217878485], [-0.965787586061792, 44.8747675701292], [-0.965354720744098, 44.874737607850655], [-0.964928070850291, 44.874677619645006], [-0.964511745901372, 44.874588183328115], [-0.964109755918862, 44.874470160361305], [-0.963725972783626, 44.874324687549546], [-0.963364092928422, 44.874153166086415], [-0.963027601724195, 44.87395724805191], [-0.962719739903667, 44.87373882049286], [-0.962443472345988, 44.87349998724013], [-0.96220145952328, 44.8732430486378], [-0.96199603188404, 44.87297047938], [-0.961829167419929, 44.87268490466923], [-0.961702472631574, 44.87238907492612], [-0.961617167076135, 44.872085839294414], [-0.9615740716447, 44.871778118196765], [-0.96157360068157, 44.87146887520567], [-0.961615758020341, 44.87116108850072], [-0.961700136973969, 44.87085772218714], [-0.961825924277854, 44.87056169775167], [-0.961991907946972, 44.870275865930736], [-0.962196488970403, 44.87000297926185], [-0.9624376967298, 44.86974566558184], [-0.962713207992554, 44.86950640272766], [-0.963020369296156, 44.869287494682304], [-0.963356222507817, 44.86909104939592], [-0.963717533312952, 44.86891895849469], [-0.964100822358196, 44.86877287907321], [-0.964502398749207, 44.868654217744584], [-0.964918395581057, 44.868564117102274], [-0.965344807159614, 44.86850344472309], [-0.965777527556175, 44.86847278481748], [-0.966212390124901, 44.86847243260695], [-0.96664520760347, 44.868502391482934], [-0.967071812411713, 44.868562372974054], [-0.967488096761245, 44.86865179952242], [-0.967890052190756, 44.86876981004215], [-0.968273808147232, 44.868915268206635], [-0.968564623787707, 44.86905310134841]]]}}, {"type": "Feature", "properties": {"nb_detections_cluster": 3, "frp_max": 7.68, "frp_moyen": 7.36, "derniere_detection": "2026-07-28T13:59:00", "fetch_timestamp": "2026-07-29T13:40:00"}, "geometry": {"type": "Polygon", "coordinates": [[[-0.9724, 44.91221], [-0.96141, 44.91256], [-0.9669, 44.91238], [-0.9724, 44.91221]]]}}, {"type": "Feature", "properties": {"nb_detections_cluster": 3, "frp_max": 1.94, "frp_moyen": 1.8, "derniere_detection": "2026-07-29T02:34:00", "fetch_timestamp": "2026-07-29T13:40:00"}, "geometry": {"type": "Polygon", "coordinates": [[[-1.095809164074797, 44.93884347166383], [-1.095807952365651, 44.93853422331583], [-1.095849423366106, 44.938226379748336], [-1.095933176996824, 44.93792290561499], [-1.096058406012947, 44.93762672344169], [-1.096223903803345, 44.93734068548471], [-1.096428076033502, 44.93706754626731], [-1.096668956019053, 44.93680993605897], [-1.096944223681177, 44.93657033555269], [-1.097251227900695, 44.93635105198339], [-1.097587012055232, 44.93615419691769], [-1.097948342493232, 44.935981665928004], [-1.098331739670684, 44.9358351203468], [-1.098733511650808, 44.935715971276146], [-1.099149789644533, 44.935625366006036], [-1.099576565250044, 44.93556417697239], [-1.100009729033482, 44.93553299336058], [-1.100445110080123, 44.93553211543477], [-1.100878516136087, 44.93556155164846], [-1.101305773954993, 44.93562101856296], [-1.101722769462061, 44.935709943575276], [-1.102125487349866, 44.93582747042886], [-1.102510049725381, 44.9359724674545], [-1.102872753436974, 44.936143538461955], [-1.103210105722637, 44.93633903617812], [-1.103518857836697, 44.936557078102], [-1.103796036331583, 44.93679556462472], [-1.104038971693592, 44.937052199240156], [-1.104245324056886, 44.93732451065197], [-1.104413105747871, 44.93760987656444], [-1.104540700442473, 44.93790554892855], [-1.104626878751224, 44.93820868040012], [-1.104670810081352, 44.938516351755986], [-1.104672070660758, 44.938825600003796], [-1.104630647645672, 44.939133446915335], [-1.104546939271379, 44.93943692770841], [-1.10442175104356, 44.939733119601215], [-1.104256288005873, 44.94001916996396], [-1.104052143157306, 44.94029232379667], [-1.103811282129964, 44.94054995026813], [-1.103536024274118, 44.94078956806043], [-1.103229020332092, 44.94100886927433], [-1.102893226915605, 44.941205741665144], [-1.102531878032135, 44.94137828899467], [-1.102148453934549, 44.94152484930247], [-1.10174664759415, 44.94164401092058], [-1.101330329120455, 44.9417346260768], [-1.100903508470904, 44.941795821955296], [-1.10047029681037, 44.9418270091077], [-1.100034866893468, 44.941827887133684], [-1.099601412852134, 44.941798447575955], [-1.099174109776803, 44.94173897400173], [-1.098757073481432, 44.9416500392699], [-1.098354320840916, 44.94153250001054], [-1.097969731083811, 44.941387488369635], [-1.097607008414007, 44.941216401099034], [-1.097269646322068, 44.94102088609684], [-1.096960893930514, 44.94080282652836], [-1.096683724697582, 44.940564322680544], [-1.096440807781041, 44.940307671725265], [-1.096234482337881, 44.94003534558686], [-1.096066735007171, 44.93974996712691], [-1.095939180792538, 44.939454284876696], [-1.095853047527829, 44.93915114656025], [-1.095809164074797, 44.93884347166383]]]}}, {"type": "Feature", "properties": {"nb_detections_cluster": 1, "frp_max": 11.01, "frp_moyen": 11.01, "derniere_detection": "2026-07-28T13:59:00", "fetch_timestamp": "2026-07-29T13:40:00"}, "geometry": {"type": "Polygon", "coordinates": [[[-1.052278173432156, 44.94978173727463], [-1.052277201566477, 44.94947248749869], [-1.052318919636935, 44.94916465921982], [-1.05240292518465, 44.948861216944195], [-1.052528408538703, 44.94856508289064], [-1.052694160638751, 44.94827910885175], [-1.052898584701488, 44.94800604873503], [-1.053139711617755, 44.947748532048024], [-1.053415218931256, 44.94750903858294], [-1.053722453215551, 44.9472898745438], [-1.054058455633384, 44.94709315034604], [-1.054419990432023, 44.94692076030182], [-1.054803576100172, 44.94677436438635], [-1.055205518886579, 44.94665537226041], [-1.055621948357965, 44.94656492970279], [-1.056048854654359, 44.94650390758266], [-1.056482127083833, 44.946472893478045], [-1.056917593685769, 44.94647218602107], [-1.057351061382618, 44.94650179202376], [-1.057778356334485, 44.94656142641254], [-1.058195364108944, 44.9466505149718], [-1.058598069280227, 44.94676819987019], [-1.058982594077424, 44.94691334791663], [-1.059345235710315, 44.94708456146666], [-1.059682502014133, 44.9472801918745], [-1.059991145070553, 44.94749835536132], [-1.060268192481512, 44.94773695114752], [-1.060510975994907, 44.9479936816747], [-1.060717157206461, 44.94826607472271], [-1.060884750090065, 44.948551507209494], [-1.06101214013922, 44.94884723044464], [-1.061098099934643, 44.949150396593915], [-1.06114180098741, 44.94945808609985], [-1.061142821742696, 44.949767335795066], [-1.061101151666088, 44.95007516743711], [-1.061017191372088, 44.95037861639059], [-1.060891748792539, 44.95067476018006], [-1.060726031420843, 44.950960746638756], [-1.060521634705717, 44.95123382138192], [-1.060280526705365, 44.95149135433986], [-1.060005029149153, 44.95173086509515], [-1.059697795088558, 44.951950046779295], [-1.059361783352236, 44.95214678829876], [-1.059000230051025, 44.95231919467573], [-1.058616617407265, 44.95246560530735], [-1.058214640208862, 44.95258460996726], [-1.057798170211534, 44.952675062395045], [-1.057371218832637, 44.95273609134224], [-1.056937898496596, 44.95276710896839], [-1.056502383005052, 44.9527678165061], [-1.056068867314352, 44.95273820714023], [-1.05564152710877, 44.95267856607358], [-1.055224478559808, 44.95258946777841], [-1.054821738660171, 44.952471770460214], [-1.054437186515365, 44.952326607787356], [-1.054074525966559, 44.95215537796636], [-1.053737249905452, 44.95195973026833], [-1.053428606625332, 44.951741549136514], [-1.053151568532862, 44.95150293602859], [-1.052908803522039, 44.951246189168664], [-1.052702649286098, 44.95097378140453], [-1.052535090814488, 44.95068833638376], [-1.052407741291276, 44.95039260327844], [-1.052321826578355, 44.950089430302135], [-1.052278173432156, 44.94978173727463]]]}}, {"type": "Feature", "properties": {"nb_detections_cluster": 6, "frp_max": 7.81, "frp_moyen": 3.88, "derniere_detection": "2026-07-29T13:40:00", "fetch_timestamp": "2026-07-29T13:40:00"}, "geometry": {"type": "Polygon", "coordinates": [[[-0.85197, 44.7214], [-0.84807, 44.72242], [-0.85111, 44.72105], [-0.85197, 44.7214]]]}}, {"type": "Feature", "properties": {"nb_detections_cluster": 3, "frp_max": 1.79, "frp_moyen": 1.56, "derniere_detection": "2026-07-29T02:34:00", "fetch_timestamp": "2026-07-29T13:40:00"}, "geometry": {"type": "Polygon", "coordinates": [[[-0.878554447570587, 44.73689480193771], [-0.878554433871135, 44.73658557282475], [-0.87859694413823, 44.736277831803136], [-0.878681568289518, 44.735974542537605], [-0.878807490702682, 44.7356786257724], [-0.878973498095133, 44.73539293120668], [-0.879177991230901, 44.73512021005566], [-0.87941900034114, 44.734863088561994], [-0.879694204108989, 44.73462404271152], [-0.880000952035386, 44.734405374397404], [-0.880336289970067, 44.734209189261044], [-0.880696988561642, 44.73403737642343], [-0.881079574352771, 44.733891590301475], [-0.881480363221195, 44.73377323468403], [-0.881895495844934, 44.73368344922074], [-0.882320974850675, 44.733623098453606], [-0.882752703288365, 44.733592763496254], [-0.883186524062266, 44.7335927364413], [-0.883618259939751, 44.73362301754929], [-0.88404375375348, 44.733683315246076], [-0.884458908410883, 44.73377304892905], [-0.88485972632659, 44.73389135455484], [-0.885242347899051, 44.73403709295513], [-0.885603088661613, 44.73420886080063], [-0.885938474751038, 44.73440500410771], [-0.886245276352418, 44.734623634158176], [-0.886520538798811, 44.73486264567914], [-0.886761611026291, 44.73511973710808], [-0.886966171110369, 44.73539243274871], [-0.88713224863765, 44.73567810660412], [-0.887258243696905, 44.73597400765857], [-0.887342942306059, 44.73627728636434], [-0.887385528125816, 44.73658502207895], [-0.887385590346256, 44.7368942511888], [-0.887343127669487, 44.73720199564867], [-0.887258548348994, 44.73750529166165], [-0.887132666284275, 44.73780121822418], [-0.886966693207348, 44.73808692526066], [-0.886762227035456, 44.738359661076565], [-0.886521236501238, 44.738616798865735], [-0.886246042207692, 44.73885586201605], [-0.885939294289786, 44.739074547969544], [-0.885603946897458, 44.73927075040695], [-0.88524322974555, 44.739442579542406], [-0.884860617004665, 44.7395883803327], [-0.884459793832724, 44.73970674842525], [-0.884044620869977, 44.73979654369101], [-0.883619097039938, 44.739856901211304], [-0.883187321015235, 44.73988723961297], [-0.882753451720345, 44.73988726667099], [-0.882321668252534, 44.73985698212475], [-0.881896129608009, 44.739796677680516], [-0.881480934602163, 44.73970693420019], [-0.881080082370932, 44.73958861610368], [-0.880697433834595, 44.73944286303848], [-0.88033667449601, 44.7392710788975], [-0.880001278932283, 44.73907491829059], [-0.879694477322412, 44.738856270600714], [-0.879419224333667, 44.73861724177873], [-0.87917817066652, 44.73836013405193], [-0.878973637532199, 44.738087423742975], [-0.878807594308434, 44.737801737412454], [-0.878681639588187, 44.737505826555505], [-0.878596985803331, 44.73720254109659], [-0.878554447570587, 44.73689480193771]]]}}, {"type": "Feature", "properties": {"nb_detections_cluster": 1, "frp_max": 5.08, "frp_moyen": 5.08, "derniere_detection": "2026-07-29T12:19:00", "fetch_timestamp": "2026-07-29T13:40:00"}, "geometry": {"type": "Polygon", "coordinates": [[[-0.882171303773632, 44.77706494834355], [-0.882171270178092, 44.77675571487103], [-0.88221379101702, 44.77644796812138], [-0.882298456105257, 44.77614467181451], [-0.882424449425293, 44.775848746762485], [-0.882590557010801, 44.77556304274428], [-0.882795178660149, 44.77529031106619], [-0.883036343366225, 44.775033178072185], [-0.883311728313252, 44.77479411985892], [-0.883618681257058, 44.774575438438525], [-0.883954246072887, 44.774379239578685], [-0.884315191224485, 44.77420741253252], [-0.884698040880333, 44.77406161185371], [-0.885099108377512, 44.773943241471294], [-0.885514531711349, 44.77385344117712], [-0.885940310709634, 44.77379307565594], [-0.886372345534115, 44.77376272616346], [-0.886806476139353, 44.77376268493228], [-0.887238522309869, 44.77379295235939], [-0.887664323891027, 44.77385323700243], [-0.888079780827233, 44.77394295838443], [-0.888480892622874, 44.77406125258054], [-0.888863796846926, 44.77420698053248], [-0.889224806311255, 44.77437873901159], [-0.88956044456532, 44.77457487412443], [-0.889867479365986, 44.77479349723178], [-0.89014295380054, 44.77503250312758], [-0.890384214763363, 44.77528959030353], [-0.890588938512019, 44.775562283104314], [-0.890755153056433, 44.77584795556041], [-0.890881257165165, 44.77614385666958], [-0.89096603580514, 44.77644713688356], [-0.891008671865424, 44.776754875545436], [-0.891008754051287, 44.77706410901326], [-0.890966280871559, 44.77737185919978], [-0.890881660679884, 44.777675162253026], [-0.890755707768424, 44.77797109710165], [-0.890589634550625, 44.77825681359023], [-0.890385039907389, 44.778529559933226], [-0.890143893807996, 44.778786709223105], [-0.889868518353179, 44.77902578473699], [-0.88956156542233, 44.77924448379784], [-0.88922599113971, 44.779440699960105], [-0.888865027405372, 44.779612543305745], [-0.888482150764962, 44.77975835865468], [-0.8880810489184, 44.779876741514144], [-0.887665585190387, 44.77996655161274], [-0.887239761305457, 44.780026923889], [-0.88680767882683, 44.78005727682756], [-0.88637349963127, 44.78005731806347], [-0.885941405801552, 44.78002704719947], [-0.885515559323833, 44.779966755810065], [-0.88510006197905, 44.77987702463144], [-0.8846989158157, 44.77975871796497], [-0.884315984585538, 44.779612975348115], [-0.883954956514525, 44.77944120057314], [-0.883619308768251, 44.77924504815969], [-0.883312273954627, 44.779026407411855], [-0.883036808986865, 44.778787384213636], [-0.88279556660678, 44.77853028073821], [-0.882590869842688, 44.7782575732673], [-0.882424689647656, 44.777971888334186], [-0.882298625933101, 44.77767597742057], [-0.882213892179772, 44.77737269045152], [-0.882171303773632, 44.77706494834355]]]}}, {"type": "Feature", "properties": {"nb_detections_cluster": 4, "frp_max": 23.08, "frp_moyen": 9.94, "derniere_detection": "2026-07-29T02:34:00", "fetch_timestamp": "2026-07-29T13:40:00"}, "geometry": {"type": "Polygon", "coordinates": [[[-0.90408, 44.8507], [-0.89853, 44.85088], [-0.90141, 44.84927], [-0.90408, 44.8507]]]}}, {"type": "Feature", "properties": {"nb_detections_cluster": 21, "frp_max": 56.27, "frp_moyen": 16.76, "derniere_detection": "2026-07-29T02:34:00", "fetch_timestamp": "2026-07-29T13:40:00"}, "geometry": {"type": "Polygon", "coordinates": [[[-0.87863, 44.86896], [-0.88126, 44.86885], [-0.87469, 44.87027], [-0.87164, 44.86913], [-0.87133, 44.86335], [-0.8747, 44.86324], [-0.87317, 44.85842], [-0.87471, 44.85622], [-0.87658, 44.8574], [-0.87537, 44.86324], [-0.87319, 44.86544], [-0.8757, 44.86901], [-0.8772, 44.86893], [-0.87863, 44.86896]]]}}, {"type": "Feature", "properties": {"nb_detections_cluster": 17, "frp_max": 4.24, "frp_moyen": 2.57, "derniere_detection": "2026-07-29T02:34:00", "fetch_timestamp": "2026-07-29T13:40:00"}, "geometry": {"type": "Polygon", "coordinates": [[[-0.856984950688429, 44.85693394868496], [-0.856985055722374, 44.856624706987596], [-0.857027775036127, 44.85631696171849], [-0.857112696531243, 44.8560136765831], [-0.857239001719203, 44.85571777228577], [-0.857405473628815, 44.85543209840542], [-0.857610508548714, 44.85515940595794], [-0.857852131491035, 44.85490232090943], [-0.858128015226586, 44.85466331889466], [-0.858435502707639, 44.85444470138453], [-0.858771632661996, 44.854248573531144], [-0.859133168111642, 44.85407682390383], [-0.859516627541338, 44.85393110631072], [-0.859918318417185, 44.853812823880716], [-0.860334372732761, 44.85372311555876], [-0.860760784241059, 44.853662845143965], [-0.86119344701442, 44.853632592976275], [-0.861628194961952, 44.853632650351116], [-0.862060841924826, 44.85366301671604], [-0.862487221964311, 44.85372339967599], [-0.862903229455614, 44.85381321780738], [-0.86330485860238, 44.85393160625368], [-0.863688241992303, 44.85407742504911], [-0.864049687823356, 44.85424927009024], [-0.864385715442896, 44.85444548665012], [-0.864693088857938, 44.85466418530515], [-0.86496884789428, 44.85490326012178], [-0.865210336704604, 44.85516040892795], [-0.865415229351005, 44.855433155474756], [-0.865581552215352, 44.85571887327506], [-0.865707703021303, 44.8560148108898], [-0.865792466284156, 44.85631811841907], [-0.86583502503906, 44.85662587494269], [-0.865834968733733, 44.85693511664656], [-0.865792297208766, 44.85724286536403], [-0.865707420726105, 44.85754615725699], [-0.865581156044466, 44.8578420713615], [-0.865414718578405, 44.85812775772173], [-0.865209710715641, 44.858400464842155], [-0.86496810640425, 44.85865756619287], [-0.864692232157445, 44.858896585512554], [-0.86438474465831, 44.85911522066532], [-0.864048605179735, 44.859311365821085], [-0.863687051065748, 44.85948313174559], [-0.863303564548847, 44.859628864004385], [-0.862901839203874, 44.85974715890499], [-0.862485744361885, 44.85983687702322], [-0.862059287827294, 44.85989715418352], [-0.861626577258092, 44.8599274097867], [-0.861191780581939, 44.859927352405315], [-0.860759085830278, 44.85989698259206], [-0.860332660778338, 44.8598365928745], [-0.859916612780716, 44.859746764935956], [-0.859514949190398, 44.85962836400979], [-0.85913153874334, 44.85948253054139], [-0.858770074281357, 44.85931066919807], [-0.85843403717307, 44.859114435333275], [-0.858126663776111, 44.858895719035594], [-0.857850914263987, 44.85865662691659], [-0.857609444118005, 44.858399461813256], [-0.85740457855881, 44.85812670060075], [-0.857238290163587, 44.85784097032984], [-0.857112179884049, 44.85754502291881], [-0.857027461647491, 44.85724170864405], [-0.856984950688429, 44.85693394868496]]]}}, {"type": "Feature", "properties": {"nb_detections_cluster": 4, "frp_max": 2.4, "frp_moyen": 2.15, "derniere_detection": "2026-07-29T02:34:00", "fetch_timestamp": "2026-07-29T13:40:00"}, "geometry": {"type": "Polygon", "coordinates": [[[-0.889544139547626, 44.86836524705201], [-0.889544065294011, 44.86805600421937], [-0.889586614861366, 44.86774824532187], [-0.889671377785602, 44.86744493419646], [-0.88979753710484, 44.867148991797954], [-0.889963877252125, 44.86686326807237], [-0.890168795784424, 44.86659051451583], [-0.890410318834106, 44.866333357683004], [-0.89068612013336, 44.866094273900075], [-0.890993543427736, 44.86587556542548], [-0.891329628062615, 44.865679338287336], [-0.891691137495918, 44.86550748201108], [-0.892074590462534, 44.86536165143185], [-0.892476294490485, 44.865243250766554], [-0.892892381446479, 44.86515342009867], [-0.893318844769078, 44.86509302440537], [-0.893751578031669, 44.8650626452329], [-0.894186414464677, 44.865062575099614], [-0.894619167057395, 44.86509281468084], [-0.895045668854209, 44.865153072802315], [-0.895461813058223, 44.86524276924247], [-0.895863592557024, 44.865361040316614], [-0.896247138490944, 44.86550674718918], [-0.89660875749321, 44.865678486834476], [-0.896944967244086, 44.865874605540476], [-0.897252529997188, 44.866093214825995], [-0.897528483755464, 44.86633220961811], [-0.897770170796829, 44.86658928851551], [-0.89797526327473, 44.86686197594264], [-0.898141785646871, 44.86714764598181], [-0.898268133715751, 44.86744354765411], [-0.898353090097, 44.86774683140591], [-0.898395835965889, 44.86805457654626], [-0.898395958967961, 44.8683638193709], [-0.898353457216691, 44.86867158170252], [-0.898268739338619, 44.86897489957221], [-0.898142620564528, 44.86927085176596], [-0.897976314903243, 44.869556587961334], [-0.897771423472523, 44.86982935618302], [-0.897529919098497, 44.870086529312765], [-0.897254127331284, 44.870325630398064], [-0.89694670405902, 44.87054435651562], [-0.896610609935477, 44.870740600959294], [-0.896249081867376, 44.870912473538596], [-0.895865601835955, 44.87105831879184], [-0.895463863353274, 44.87117673193824], [-0.895047735876704, 44.87126657241468], [-0.894621227524863, 44.87132697486704], [-0.894188446454816, 44.87135735748932], [-0.89375356127335, 44.871357427630606], [-0.893320760864549, 44.87132718461527], [-0.892894214021569, 44.87126691974953], [-0.892478029272408, 44.871177213514116], [-0.892076215287607, 44.8710589299702], [-0.891692642252108, 44.87091320843248], [-0.891331004574186, 44.87074145249028], [-0.890994785291269, 44.87054531648187], [-0.890687222516054, 44.8703266895534], [-0.890411278246444, 44.87008767745579], [-0.890169609839876, 44.86983058225536], [-0.889964544426783, 44.86955788015418], [-0.88979805650937, 44.869272197633904], [-0.889671748961067, 44.86897628615305], [-0.889586837609058, 44.86867299564217], [-0.889544139547626, 44.86836524705201]]]}}, {"type": "Feature", "properties": {"nb_detections_cluster": 2, "frp_max": 1.52, "frp_moyen": 1.25, "derniere_detection": "2026-07-29T02:34:00", "fetch_timestamp": "2026-07-29T13:40:00"}, "geometry": {"type": "Polygon", "coordinates": [[[-0.910401205787579, 44.906296080296194], [-0.910401016542756, 44.90598683382157], [-0.910443480481455, 44.90567906329214], [-0.910528187963238, 44.90537573265702], [-0.910654322559145, 44.905079763059014], [-0.910820668939326, 44.90479400470621], [-0.911025624599787, 44.904521209428275], [-0.911267215314499, 44.904264004181734], [-0.911543114163288, 44.904024865759084], [-0.911850663951706, 44.90380609694497], [-0.912186902806549, 44.903609804348584], [-0.912548592700342, 44.90343787812575], [-0.912932250630056, 44.90329197378514], [-0.913334182150028, 44.90317349625396], [-0.913750516936497, 44.90308358635583], [-0.91417724604187, 44.903023109830826], [-0.914610260480632, 44.90299264900352], [-0.915045390776185, 44.90299249717853], [-0.915478447088715, 44.90302265581777], [-0.915905259538623, 44.90308283452635], [-0.916321718338274, 44.9031724538474], [-0.91672381334652, 44.90329065083879], [-0.917107672666102, 44.90343628737838], [-0.917469599913004, 44.903607961117714], [-0.917806109799634, 44.903804018979486], [-0.918113961689688, 44.90402257306839], [-0.918390190801935, 44.904261518843136], [-0.918632136762664, 44.90451855537454], [-0.918837469231767, 44.90479120749508], [-0.919004210355484, 44.90507684962719], [-0.919130753829205, 44.905372731060815], [-0.919215880386128, 44.90567600243739], [-0.9192587695619, 44.90598374318522], [-0.919259007621087, 44.90629298964251], [-0.919216591568147, 44.90660076359712], [-0.919131929203299, 44.906904100968305], [-0.919005835221682, 44.90720008035437], [-0.918839523392362, 44.90748585117112], [-0.918634594891564, 44.90775866110985], [-0.918393022901586, 44.9080158826507], [-0.918117133623019, 44.90825503837491], [-0.917809583882536, 44.90847382483302], [-0.917473335551494, 44.90867013473774], [-0.917111627021539, 44.90884207726814], [-0.916727942011873, 44.908987996288815], [-0.916325976008829, 44.90910648630842], [-0.915909600661331, 44.90919640602344], [-0.91548282647571, 44.90925688931651], [-0.91504976416989, 44.90928735360297], [-0.914614585059973, 44.909287505445285], [-0.914181480861683, 44.90925734338088], [-0.913754623294841, 44.90919715793624], [-0.9133381238809, 44.90910752882713], [-0.912935994321791, 44.90898931937177], [-0.912552107842548, 44.908843668171386], [-0.912190161870912, 44.908671978137754], [-0.91185364241406, 44.908475902974416], [-0.911545790476073, 44.90825733124152], [-0.911269570840023, 44.90801836815843], [-0.911027643515457, 44.90776131531948], [-0.910822338126306, 44.90748864851887], [-0.910655631485662, 44.90720299389834], [-0.910529128572969, 44.90690710264782], [-0.910444047096295, 44.90660382450319], [-0.910401205787579, 44.906296080296194]]]}}]}