{
"type": "FeatureCollection",
"name": "zone_active_points",
"crs": { "type": "name", "properties": { "name": "urn:ogc:def:crs:OGC:1.3:CRS84" } },
"features": [
{ "type": "Feature", "properties": { "lat": 44.7214, "lon": -0.85197, "frp": 2.59, "fetch_timestamp": "2026-07-30T01:58:00" }, "geometry": { "type": "Point", "coordinates": [ -0.85197, 44.7214 ] } },
{ "type": "Feature", "properties": { "lat": 44.73674, "lon": -0.88297, "frp": 1.53, "fetch_timestamp": "2026-07-30T01:58:00" }, "geometry": { "type": "Point", "coordinates": [ -0.88297, 44.73674 ] } },
{ "type": "Feature", "properties": { "lat": 44.75157, "lon": -0.9661, "frp": 1.96, "fetch_timestamp": "2026-07-30T01:58:00" }, "geometry": { "type": "Point", "coordinates": [ -0.9661, 44.75157 ] } },
{ "type": "Feature", "properties": { "lat": 44.76895, "lon": -1.21664, "frp": 2.48, "fetch_timestamp": "2026-07-30T01:58:00" }, "geometry": { "type": "Point", "coordinates": [ -1.21664, 44.76895 ] } },
{ "type": "Feature", "properties": { "lat": 44.81834, "lon": -1.21721, "frp": 3.06, "fetch_timestamp": "2026-07-30T01:58:00" }, "geometry": { "type": "Point", "coordinates": [ -1.21721, 44.81834 ] } },
{ "type": "Feature", "properties": { "lat": 44.83302, "lon": -1.1673, "frp": 1.43, "fetch_timestamp": "2026-07-30T01:58:00" }, "geometry": { "type": "Point", "coordinates": [ -1.1673, 44.83302 ] } },
{ "type": "Feature", "properties": { "lat": 44.84577, "lon": -1.16915, "frp": 2.11, "fetch_timestamp": "2026-07-30T01:58:00" }, "geometry": { "type": "Point", "coordinates": [ -1.16915, 44.84577 ] } },
{ "type": "Feature", "properties": { "lat": 44.84927, "lon": -0.90141, "frp": 1.52, "fetch_timestamp": "2026-07-30T01:58:00" }, "geometry": { "type": "Point", "coordinates": [ -0.90141, 44.84927 ] } },
{ "type": "Feature", "properties": { "lat": 44.85678, "lon": -0.86141, "frp": 3.76, "fetch_timestamp": "2026-07-30T01:58:00" }, "geometry": { "type": "Point", "coordinates": [ -0.86141, 44.85678 ] } },
{ "type": "Feature", "properties": { "lat": 44.86821, "lon": -0.89397, "frp": 2.4, "fetch_timestamp": "2026-07-30T01:58:00" }, "geometry": { "type": "Point", "coordinates": [ -0.89397, 44.86821 ] } },
{ "type": "Feature", "properties": { "lat": 44.86896, "lon": -0.87863, "frp": 3.69, "fetch_timestamp": "2026-07-30T01:58:00" }, "geometry": { "type": "Point", "coordinates": [ -0.87863, 44.86896 ] } },
{ "type": "Feature", "properties": { "lat": 44.90614, "lon": -0.91483, "frp": 0.99, "fetch_timestamp": "2026-07-30T01:58:00" }, "geometry": { "type": "Point", "coordinates": [ -0.91483, 44.90614 ] } },
{ "type": "Feature", "properties": { "lat": 44.93868, "lon": -1.10024, "frp": 1.88, "fetch_timestamp": "2026-07-30T01:58:00" }, "geometry": { "type": "Point", "coordinates": [ -1.10024, 44.93868 ] } },
{ "type": "Feature", "properties": { "lat": 44.72105, "lon": -0.85111, "frp": 7.81, "fetch_timestamp": "2026-07-30T01:58:00" }, "geometry": { "type": "Point", "coordinates": [ -0.85111, 44.72105 ] } },
{ "type": "Feature", "properties": { "lat": 44.75151, "lon": -1.02665, "frp": 23.68, "fetch_timestamp": "2026-07-30T01:58:00" }, "geometry": { "type": "Point", "coordinates": [ -1.02665, 44.75151 ] } },
{ "type": "Feature", "properties": { "lat": 44.75586, "lon": -1.02876, "frp": 14.43, "fetch_timestamp": "2026-07-30T01:58:00" }, "geometry": { "type": "Point", "coordinates": [ -1.02876, 44.75586 ] } },
{ "type": "Feature", "properties": { "lat": 44.76735, "lon": -1.21762, "frp": 5.13, "fetch_timestamp": "2026-07-30T01:58:00" }, "geometry": { "type": "Point", "coordinates": [ -1.21762, 44.76735 ] } },
{ "type": "Feature", "properties": { "lat": 44.76894, "lon": -1.21128, "frp": 5.13, "fetch_timestamp": "2026-07-30T01:58:00" }, "geometry": { "type": "Point", "coordinates": [ -1.21128, 44.76894 ] } },
{ "type": "Feature", "properties": { "lat": 44.77691, "lon": -0.88659, "frp": 5.08, "fetch_timestamp": "2026-07-30T01:58:00" }, "geometry": { "type": "Point", "coordinates": [ -0.88659, 44.77691 ] } },
{ "type": "Feature", "properties": { "lat": 44.84512, "lon": -1.16392, "frp": 4.7, "fetch_timestamp": "2026-07-30T01:58:00" }, "geometry": { "type": "Point", "coordinates": [ -1.16392, 44.84512 ] } },
{ "type": "Feature", "properties": { "lat": 44.71843, "lon": -0.85086, "frp": 2.77, "fetch_timestamp": "2026-07-30T01:58:00" }, "geometry": { "type": "Point", "coordinates": [ -0.85086, 44.71843 ] } },
{ "type": "Feature", "properties": { "lat": 44.75246, "lon": -0.95232, "frp": 16.36, "fetch_timestamp": "2026-07-30T01:58:00" }, "geometry": { "type": "Point", "coordinates": [ -0.95232, 44.75246 ] } },
{ "type": "Feature", "properties": { "lat": 44.77151, "lon": -1.21107, "frp": 19.34, "fetch_timestamp": "2026-07-30T01:58:00" }, "geometry": { "type": "Point", "coordinates": [ -1.21107, 44.77151 ] } },
{ "type": "Feature", "properties": { "lat": 44.84628, "lon": -1.16586, "frp": 9.87, "fetch_timestamp": "2026-07-30T01:58:00" }, "geometry": { "type": "Point", "coordinates": [ -1.16586, 44.84628 ] } },
{ "type": "Feature", "properties": { "lat": 44.75474, "lon": -1.02682, "frp": 0.95, "fetch_timestamp": "2026-07-30T01:58:00" }, "geometry": { "type": "Point", "coordinates": [ -1.02682, 44.75474 ] } },
{ "type": "Feature", "properties": { "lat": 44.8173, "lon": -1.22391, "frp": 0.87, "fetch_timestamp": "2026-07-30T01:58:00" }, "geometry": { "type": "Point", "coordinates": [ -1.22391, 44.8173 ] } },
{ "type": "Feature", "properties": { "lat": 44.81828, "lon": -1.20847, "frp": 1.83, "fetch_timestamp": "2026-07-30T01:58:00" }, "geometry": { "type": "Point", "coordinates": [ -1.20847, 44.81828 ] } },
{ "type": "Feature", "properties": { "lat": 44.7552, "lon": -1.02526, "frp": 7.96, "fetch_timestamp": "2026-07-30T01:58:00" }, "geometry": { "type": "Point", "coordinates": [ -1.02526, 44.7552 ] } },
{ "type": "Feature", "properties": { "lat": 44.76941, "lon": -1.21795, "frp": 42.16, "fetch_timestamp": "2026-07-30T01:58:00" }, "geometry": { "type": "Point", "coordinates": [ -1.21795, 44.76941 ] } },
{ "type": "Feature", "properties": { "lat": 44.77111, "lon": -1.20914, "frp": 1.95, "fetch_timestamp": "2026-07-30T01:58:00" }, "geometry": { "type": "Point", "coordinates": [ -1.20914, 44.77111 ] } },
{ "type": "Feature", "properties": { "lat": 44.77181, "lon": -1.21508, "frp": 1.24, "fetch_timestamp": "2026-07-30T01:58:00" }, "geometry": { "type": "Point", "coordinates": [ -1.21508, 44.77181 ] } },
{ "type": "Feature", "properties": { "lat": 44.77475, "lon": -1.20828, "frp": 1.95, "fetch_timestamp": "2026-07-30T01:58:00" }, "geometry": { "type": "Point", "coordinates": [ -1.20828, 44.77475 ] } },
{ "type": "Feature", "properties": { "lat": 44.81676, "lon": -1.22246, "frp": 1.0, "fetch_timestamp": "2026-07-30T01:58:00" }, "geometry": { "type": "Point", "coordinates": [ -1.22246, 44.81676 ] } },
{ "type": "Feature", "properties": { "lat": 44.81761, "lon": -1.2229, "frp": 2.02, "fetch_timestamp": "2026-07-30T01:58:00" }, "geometry": { "type": "Point", "coordinates": [ -1.2229, 44.81761 ] } }
]
}
