{"type": "FeatureCollection", "name": "zone_active", "crs": {"type": "name", "properties": {"name": "urn:ogc:def:crs:OGC:1.3:CRS84"}}, "features": [{"type": "Feature", "properties": {"nb_detections_cluster": 7, "frp_max": 6.07, "frp_moyen": 2.89, "derniere_detection": "2026-07-28T02:53:00", "fetch_timestamp": "2026-07-28T12:19:00"}, "geometry": {"type": "Polygon", "coordinates": [[[-1.217711335378593, 44.77024582406564], [-1.21807130838592, 44.770107330763516], [-1.218471642562376, 44.76998775548258], [-1.218886500757951, 44.76989670682454], [-1.21931188823964, 44.76983506149477], [-1.219743708937335, 44.769803413072296], [-1.22017780486648, 44.76980206629699], [-1.22060999614542, 44.76983103413683], [-1.221036121223076, 44.769890037663046], [-1.221452076930551, 44.7699785087346], [-1.221853857971966, 44.770095595465946], [-1.222237595475183, 44.770240170425886], [-1.222599594231978, 44.77041084148846], [-1.222936368269787, 44.770605965231866], [-1.223244674413028, 44.77082366275644], [-1.22352154351117, 44.771061837770006], [-1.223764309033037, 44.77131819676651], [-1.223970632751973, 44.77159027110423], [-1.224138527274297, 44.77187544077095], [-1.224266375193728, 44.77217095960808], [-1.224352944686726, 44.77247398175065], [-1.224397401397844, 44.772781589029016], [-1.224399316499762, 44.77309081906869], [-1.224358670849458, 44.77339869381759], [-1.224275855199435, 44.7737022482262], [-1.22415166646099, 44.77399855880449], [-1.223987300054441, 44.77428477178036], [-1.223784338419078, 44.774558130588325], [-1.22354473579258, 44.774816002423705], [-1.223270799405781, 44.775055903605924], [-1.222965167273292, 44.77527552350676], [-1.222630782793455, 44.77547274681245], [-1.222270866402053, 44.77564567390524], [-1.221888884552741, 44.77579263916712], [-1.221488516323129, 44.77591222702986], [-1.221073617968516, 44.77600328561575], [-1.220648185765198, 44.77606493783791], [-1.220216317501909, 44.77609658985243], [-1.219782172991126, 44.776097936781404], [-1.219349933981465, 44.776068965650936], [-1.218923763858276, 44.776009955516265], [-1.218507767521526, 44.77592147477239], [-1.218105951828455, 44.77580437567655], [-1.217722186982845, 44.7756597861351], [-1.217360169243674, 44.77548909883437], [-1.217023385312986, 44.77529395782019], [-1.216715078746542, 44.77507624265592], [-1.216438218711138, 44.77483805031162], [-1.21619547138967, 44.774581674959336], [-1.21606853562631, 44.774414257353335], [-1.215708530122638, 44.77455274435812], [-1.21530815757958, 44.77467230984883], [-1.214893258366949, 44.774763345265015], [-1.214467828769336, 44.774824973742916], [-1.214035966550399, 44.77485660166736], [-1.213601831464395, 44.774857924392485], [-1.213169605169145, 44.7748289291775], [-1.212743450927499, 44.77476989530967], [-1.212327473486411, 44.774681391412564], [-1.211925679521055, 44.77456426996644], [-1.211541939025868, 44.77441965909295], [-1.211179948025209, 44.774248951683816], [-1.210843192963505, 44.77405379197861], [-1.210534917118379, 44.77383605972068], [-1.210258089360654, 44.773597852044716], [-1.210015375562272, 44.7733414632704], [-1.209809112927526, 44.77306936279727], [-1.209641287494584, 44.77278417131406], [-1.209513515023608, 44.77248863555177], [-1.209427025454956, 44.772185601824255], [-1.209382651086415, 44.771877988611195], [-1.209380818582469, 44.771568758447614], [-1.209421544891613, 44.7712608893912], [-1.209504437110011, 44.77095734634182], [-1.20962869629178, 44.77066105248977], [-1.209793125168199, 44.77037486116748], [-1.209996139700534, 44.77010152837576], [-1.210235784354353, 44.76984368624883], [-1.210509750947518, 44.76960381771349], [-1.210815400889723, 44.76938423258617], [-1.211149790599031, 44.7691870453377], [-1.211509699850395, 44.76901415473954], [-1.211891662783166, 44.768867225587194], [-1.212292001269144, 44.7687476726763], [-1.21270686032023, 44.768656647185665], [-1.213132245195214, 44.768595025597605], [-1.213564059849107, 44.76856340126249], [-1.213998146355549, 44.768562078688284], [-1.214430324923603, 44.768591070609915], [-1.21485643412455, 44.76865009786676], [-1.215272370942324, 44.76873859208926], [-1.215674130262883, 44.76885570116894], [-1.216057843423169, 44.7690002974594], [-1.216419815449288, 44.76917098862932], [-1.216756560625995, 44.76936613106323], [-1.217064836055541, 44.76958384568146], [-1.217341672883075, 44.769822036027264], [-1.217584404888105, 44.77007840844689], [-1.217711335378593, 44.77024582406564]]]}}, {"type": "Feature", "properties": {"nb_detections_cluster": 1, "frp_max": 0.67, "frp_moyen": 0.67, "derniere_detection": "2026-07-28T02:34:00", "fetch_timestamp": "2026-07-28T12:19:00"}, "geometry": {"type": "Polygon", "coordinates": [[[-1.141669232133773, 44.81282529258564], [-1.141667770832878, 44.81251605710358], [-1.141708897689998, 44.812208208743385], [-1.141792215943024, 44.81190471220519], [-1.141916922542633, 44.81160849023092], [-1.142081815911036, 44.81132239546043], [-1.142285307536298, 44.81104918296436], [-1.142525437289746, 44.81079148371816], [-1.142799892318174, 44.810551779272416], [-1.143106029328347, 44.8103323778632], [-1.14344090004879, 44.810135392192], [-1.143801279623426, 44.809962719089036], [-1.144183697663629, 44.809816021255365], [-1.144584471659835, 44.809696711259186], [-1.144999742431307, 44.80960593794013], [-1.145425511273263, 44.809544575352305], [-1.14585767844431, 44.80951321435221], [-1.146292082624396, 44.80951215691215], [-1.146724540964241, 44.8095414132141], [-1.147150889341547, 44.80960070155175], [-1.147567022437344, 44.80968945104159], [-1.147968933247518, 44.809806807117155], [-1.148352751649969, 44.8099516397537], [-1.14871478165684, 44.81012255434394], [-1.149051536993793, 44.81031790512099], [-1.149359774664264, 44.81053581099882], [-1.149636526175849, 44.81077417367875], [-1.149879126128322, 44.81103069784729], [-1.150085237887968, 44.81130291327187], [-1.150252876100748, 44.811588198581305], [-1.150380425827159, 44.81188380650293], [-1.150466658113868, 44.812186890313484], [-1.150510741851483, 44.812494531249], [-1.150512251803395, 44.81280376661039], [-1.150471172727392, 44.81311161829384], [-1.150387899549382, 44.81341512147151], [-1.150263233586481, 44.813711353146296], [-1.150098374854832, 44.81399746030556], [-1.149894910535298, 44.814270687402576], [-1.149654799707208, 44.81452840290079], [-1.14938035449648, 44.81476812462506], [-1.149074217819058, 44.81498754367533], [-1.148739337933629, 44.81518454667213], [-1.148378940048477, 44.815357236119446], [-1.147996495255887, 44.815503948688125], [-1.147595687093509, 44.81562327124373], [-1.147180376055061, 44.815714054463946], [-1.146754562392764, 44.815775423914175], [-1.146322347570431, 44.8158067884742], [-1.14588789473933, 44.81580784603492], [-1.145455388618367, 44.8157785864097], [-1.145028995166044, 44.815719291432586], [-1.144612821433538, 44.81563053224225], [-1.144210875986611, 44.815513163777894], [-1.143827030278432, 44.81536831654041], [-1.143464981346202, 44.81519738569814], [-1.143128216191549, 44.81500201764257], [-1.142819978188329, 44.8147840941237], [-1.142543235841731, 44.814545714118175], [-1.142300654199774, 44.81428917360526], [-1.142094569192514, 44.814016943445665], [-1.141926965145908, 44.81373164557683], [-1.141799455686473, 44.81343602775405], [-1.141713268220105, 44.8131329370811], [-1.141669232133773, 44.81282529258564]]]}}, {"type": "Feature", "properties": {"nb_detections_cluster": 1, "frp_max": 1.12, "frp_moyen": 1.12, "derniere_detection": "2026-07-28T02:34:00", "fetch_timestamp": "2026-07-28T12:19:00"}, "geometry": {"type": "Polygon", "coordinates": [[[-1.21784945023581, 44.81292832842391], [-1.217847569811828, 44.81261909407864], [-1.21788827948867, 44.812311217607736], [-1.217971186521644, 44.8120076639825], [-1.218095491821193, 44.81171135649514], [-1.21825999767352, 44.81142514860944], [-1.218463119297732, 44.81115179648575], [-1.218702900127351, 44.81089393244448], [-1.218977030668248, 44.810654039623486], [-1.219282870750861, 44.810434428073066], [-1.219617474961936, 44.810237212518516], [-1.219977621010699, 44.81006429200388], [-1.220359840756257, 44.809917331612716], [-1.2207604535976, 44.8097977464415], [-1.221175601905043, 44.80970668797967], [-1.22160128815244, 44.80964503302695], [-1.222033413393304, 44.809613375255054], [-1.222467816711122, 44.809612019493876], [-1.222900315264912, 44.8096409787979], [-1.223326744545347, 44.809699974320566], [-1.223742998454828, 44.809788437997895], [-1.224145068826479, 44.80990551801556], [-1.224529084002488, 44.81005008700702], [-1.224891346101083, 44.81022075290378], [-1.225228366613998, 44.810415872333806], [-1.225536899992204, 44.810633566439], [-1.225813974896819, 44.81087173896011], [-1.226056922814499, 44.81112809641513], [-1.226263403761678, 44.811400170177166], [-1.226431428829975, 44.81168534023961], [-1.226559379355213, 44.81198086044006], [-1.226646022524907, 44.812283884900424], [-1.226690523273163, 44.81259149542879], [-1.226692452347602, 44.81290072961935], [-1.226651790469643, 44.81320860938009], [-1.226568928547092, 44.813512169613226], [-1.22644466393594, 44.81380848677267], [-1.226280192786351, 44.81409470702287], [-1.226077098545609, 44.814368073728396], [-1.225837336727864, 44.814625954008406], [-1.225563216096626, 44.81486586410102], [-1.225257376440639, 44.81508549329222], [-1.224922763156757, 44.815282726178765], [-1.22456259888442, 44.81545566305054], [-1.224180352464842, 44.815602638195415], [-1.223779705524099, 44.815722235949934], [-1.223364517002299, 44.81581330434108], [-1.222938785971002, 44.81587496618754], [-1.222506613097716, 44.81590662755269], [-1.222072161129441, 44.81590798346858], [-1.221639614776769, 44.81587902087472], [-1.221213140385909, 44.81582001874416], [-1.220796845788033, 44.81573154539476], [-1.220394740713644, 44.81561445301257], [-1.220010698154164, 44.8154698694393], [-1.219648417043696, 44.815299187303786], [-1.21931138662112, 44.81510405060212], [-1.219002852816291, 44.81488633885616], [-1.218725786984481, 44.81464814900306], [-1.218482857290377, 44.81439177519089], [-1.218276403017217, 44.81411968667515], [-1.218108412048321, 44.813834504029415], [-1.217980501737439, 44.81353897389964], [-1.217893903351644, 44.81323594254554], [-1.21784945023581, 44.81292832842391]]]}}, {"type": "Feature", "properties": {"nb_detections_cluster": 2, "frp_max": 2.69, "frp_moyen": 1.86, "derniere_detection": "2026-07-28T02:53:00", "fetch_timestamp": "2026-07-28T12:19:00"}, "geometry": {"type": "Polygon", "coordinates": [[[-1.208209015551662, 44.818087944552055], [-1.208207187998572, 44.81777870951313], [-1.208247954222446, 44.817470836052024], [-1.208330920933922, 44.81716728911106], [-1.208455288468651, 44.816870991917945], [-1.208619858513462, 44.81658479783731], [-1.208823045669285, 44.81631146289649], [-1.2090628927386, 44.81605361925041], [-1.209337089589467, 44.815813749840444], [-1.20964299541386, 44.81559416449145], [-1.209977664165565, 44.815396977676336], [-1.210337872932443, 44.81522408816243], [-1.210720152969793, 44.815077160734745], [-1.21112082309618, 44.814957610172335], [-1.211536025130441, 44.81486658763132], [-1.211961761029216, 44.81480496956565], [-1.212393931368033, 44.81477334929177], [-1.212828374796223, 44.81477203127853], [-1.213260908086647, 44.814801028216934], [-1.213687366395541, 44.81486006089805], [-1.214103643345801, 44.8149485609001], [-1.21450573054867, 44.815065676058985], [-1.214889756184214, 44.815210278669774], [-1.215252022269858, 44.81538097634027], [-1.215589040258836, 44.815576125392425], [-1.215897564626281, 44.81579384668288], [-1.216174624119924, 44.816032043690605], [-1.21641755037464, 44.81628842269774], [-1.216624003615286, 44.81656051486983], [-1.216791995200093, 44.81684570002292], [-1.21691990678714, 44.817141231849234], [-1.217006505938733, 44.817444264358684], [-1.217050958012712, 44.81775187928175], [-1.217052834225297, 44.81806111417031], [-1.217012115806865, 44.81836899092548], [-1.216929194209643, 44.81867254447841], [-1.216804867364269, 44.81896885134728], [-1.216640332020237, 44.81925505779561], [-1.216437172243094, 44.819528407320774], [-1.216197344178206, 44.81978626720743], [-1.215923157227186, 44.82002615389005], [-1.215617251817616, 44.82024575688], [-1.215282573979765, 44.820442961026416], [-1.214922346974952, 44.82061586689599], [-1.214540040248746, 44.82076280907514], [-1.214139336008226, 44.82088237221794], [-1.213724093745537, 44.820973404684764], [-1.213298313049996, 44.821035029640285], [-1.212866095067591, 44.82106665350324], [-1.212431602979908, 44.821067971666885], [-1.211999021884041, 44.82103897143438], [-1.211572518460891, 44.82097993214131], [-1.211156200821278, 44.82089142246352], [-1.210754078917628, 44.82077429493693], [-1.210370025903406, 44.82062967774178], [-1.210007740813333, 44.820458963830724], [-1.209670712924509, 44.82026379750592], [-1.209362188142242, 44.82004605857452], [-1.209085137734745, 44.81980784423548], [-1.208842229717966, 44.819551448872666], [-1.208635803166175, 44.81927934194912], [-1.208467845695502, 44.81899414421566], [-1.208339974336882, 44.818698602463506], [-1.208253419982055, 44.81839556306422], [-1.208209015551662, 44.818087944552055]]]}}, {"type": "Feature", "properties": {"nb_detections_cluster": 3, "frp_max": 6.69, "frp_moyen": 3.9, "derniere_detection": "2026-07-28T12:19:00", "fetch_timestamp": "2026-07-28T12:19:00"}, "geometry": {"type": "Polygon", "coordinates": [[[-1.16998, 44.84838], [-1.16252, 44.84922], [-1.16329, 44.84716], [-1.16998, 44.84838]]]}}, {"type": "Feature", "properties": {"nb_detections_cluster": 6, "frp_max": 28.01, "frp_moyen": 10.23, "derniere_detection": "2026-07-28T12:38:00", "fetch_timestamp": "2026-07-28T12:19:00"}, "geometry": {"type": "Polygon", "coordinates": [[[-1.1798, 44.87698], [-1.17966, 44.87771], [-1.17282, 44.87419], [-1.17472, 44.87261], [-1.17762, 44.87342], [-1.1798, 44.87698]]]}}, {"type": "Feature", "properties": {"nb_detections_cluster": 7, "frp_max": 5.22, "frp_moyen": 1.78, "derniere_detection": "2026-07-28T02:53:00", "fetch_timestamp": "2026-07-28T12:19:00"}, "geometry": {"type": "Polygon", "coordinates": [[[-1.10879, 44.93298], [-1.10883, 44.93509], [-1.10444, 44.93626], [-1.1015, 44.93747], [-1.10323, 44.9328], [-1.10521, 44.9296], [-1.10879, 44.93298]]]}}, {"type": "Feature", "properties": {"nb_detections_cluster": 4, "frp_max": 38.37, "frp_moyen": 20.39, "derniere_detection": "2026-07-28T12:38:00", "fetch_timestamp": "2026-07-28T12:19:00"}, "geometry": {"type": "Polygon", "coordinates": [[[-0.98124, 44.75686], [-0.97452, 44.75742], [-0.98182, 44.7555], [-0.98124, 44.75686]]]}}, {"type": "Feature", "properties": {"nb_detections_cluster": 2, "frp_max": 7.57, "frp_moyen": 7.27, "derniere_detection": "2026-07-27T12:57:00", "fetch_timestamp": "2026-07-28T12:19:00"}, "geometry": {"type": "Polygon", "coordinates": [[[-0.892211842854808, 44.770555348176636], [-0.892211754064363, 44.770246115406266], [-0.892254215049283, 44.76993836550152], [-0.892338816200957, 44.76963506221274], [-0.8924647421177, 44.769339126419325], [-0.892630779482355, 44.76905340800369], [-0.892835328769538, 44.76878065841088], [-0.893076419668971, 44.768523504157386], [-0.893351730075575, 44.768284421544685], [-0.893658608462895, 44.7680657128199], [-0.893994099424018, 44.767869484013644], [-0.894354972133748, 44.767697624667406], [-0.894737751457992, 44.76755178964597], [-0.895138751410924, 44.76743338320903], [-0.895554110638121, 44.76734354549565], [-0.895979829584521, 44.76728314155087], [-0.89641180898999, 44.76725275300039], [-0.896845889342604, 44.767252672452905], [-0.897277890910687, 44.76728290068398], [-0.897703653969022, 44.76734314662863], [-0.898119078832933, 44.767432830182585], [-0.898520165315641, 44.76755108778516], [-0.898903051229911, 44.76769678073052], [-0.899264049564003, 44.76786850612704], [-0.899599683974665, 44.76806461039989], [-0.899906722255921, 44.768283205206814], [-0.900182207461717, 44.768522185614316], [-0.900423486382903, 44.7687792503596], [-0.900628235104324, 44.76905192400333], [-0.900794481395639, 44.76933758076056], [-0.90092062371991, 44.76963346978025], [-0.901005446676258, 44.76993674163067], [-0.901048132727176, 44.77024447573544], [-0.90104827009669, 44.77055370849661], [-0.901005856762346, 44.7708614618338], [-0.900921300501566, 44.77116477186475], [-0.900795414990904, 44.771460717450935], [-0.900629411994737, 44.771746448333644], [-0.900424889717682, 44.77201921258873], [-0.900183817432036, 44.7722763831362], [-0.899908516527562, 44.77251548304845], [-0.89960163816555, 44.77273420941352], [-0.899266137751944, 44.77293045552294], [-0.898905246475191, 44.773102331170186], [-0.898522440182905, 44.77324818086411], [-0.898121405897278, 44.773366599781106], [-0.897706006292121, 44.77345644730256], [-0.897280242474196, 44.77351685800649], [-0.89684821542803, 44.77354725000742], [-0.896414086496344, 44.77354733056411], [-0.895982037277686, 44.77351709890059], [-0.895556229328456, 44.77345684621377], [-0.895140764058465, 44.773367152867046], [-0.89473964320727, 44.77324888279739], [-0.894356730282871, 44.77310317518978], [-0.89399571333499, 44.77293143349927], [-0.8936600694222, 44.77273531192686], [-0.893353031115635, 44.77251669947964], [-0.893077555362325, 44.772277701769], [-0.892836295008162, 44.77202062072271], [-0.892631573254784, 44.77174793240649], [-0.892465361296162, 44.77146226316919], [-0.892339259349851, 44.771166364341425], [-0.892254481265026, 44.770863085731875], [-0.892211842854808, 44.770555348176636]]]}}, {"type": "Feature", "properties": {"nb_detections_cluster": 16, "frp_max": 25.09, "frp_moyen": 8.77, "derniere_detection": "2026-07-28T02:34:00", "fetch_timestamp": "2026-07-28T12:19:00"}, "geometry": {"type": "Polygon", "coordinates": [[[-0.87925, 44.77465], [-0.88806, 44.77516], [-0.88329, 44.77831], [-0.87849, 44.7795], [-0.87893, 44.7818], [-0.8758, 44.78067], [-0.86933, 44.7817], [-0.86979, 44.77943], [-0.87369, 44.7774], [-0.87848, 44.77665], [-0.87925, 44.77465]]]}}, {"type": "Feature", "properties": {"nb_detections_cluster": 9, "frp_max": 84.32, "frp_moyen": 25.82, "derniere_detection": "2026-07-28T02:34:00", "fetch_timestamp": "2026-07-28T12:19:00"}, "geometry": {"type": "Polygon", "coordinates": [[[-0.89809, 44.88432], [-0.9031, 44.88482], [-0.89769, 44.88585], [-0.89349, 44.88472], [-0.89468, 44.88178], [-0.89357, 44.87949], [-0.89767, 44.87982], [-0.89809, 44.88432]]]}}, {"type": "Feature", "properties": {"nb_detections_cluster": 1, "frp_max": 10.31, "frp_moyen": 10.31, "derniere_detection": "2026-07-27T14:20:00", "fetch_timestamp": "2026-07-28T12:19:00"}, "geometry": {"type": "Polygon", "coordinates": [[[-0.955241284586383, 44.906887867574014], [-0.95524084822823, 44.906578621169444], [-0.955283066678606, 44.906270833497075], [-0.95536753266109, 44.90596746867139], [-0.955493432072175, 44.90567144816475], [-0.955659551846514, 44.90538562267574], [-0.955864291661877, 44.905112744680785], [-0.956105679370269, 44.9048554419332], [-0.956381390005838, 44.90461619216459], [-0.956688768185943, 44.90439729923193], [-0.957024853689266, 44.904200870939796], [-0.957386409964409, 44.90402879875074], [-0.957769955294435, 44.90388273957908], [-0.958171796317416, 44.903764099842995], [-0.958588063580577, 44.90367402192794], [-0.959014748786176, 44.90361337319194], [-0.959447743371186, 44.90358273761774], [-0.959882878050066, 44.90358241019257], [-0.960315962940804, 44.903612394069214], [-0.960742827888748, 44.90367240053554], [-0.961159362600993, 44.90376185179322], [-0.961561556205767, 44.90387988651841], [-0.961945535856845, 44.90402536815146], [-0.962307604012025, 44.904196895835604], [-0.962644274027438, 44.904392817900025], [-0.96295230372543, 44.904611247757146], [-0.963228726613187, 44.90485008206213], [-0.963470880451611, 44.90510702095932], [-0.963676432899351, 44.90537959022161], [-0.963843403984789, 44.90566516506954], [-0.963970185189213, 44.905960995441255], [-0.964055554956776, 44.90626423247017], [-0.964098690481169, 44.90657195591567], [-0.964099175654626, 44.906881202282875], [-0.964057005101748, 44.90718899336076], [-0.963972584258285, 44.90749236490398], [-0.963846725493074, 44.907788395182024], [-0.963680640309465, 44.90807423312079], [-0.963475927700386, 44.90834712576541], [-0.963234558768308, 44.90860444479959], [-0.962958857757523, 44.90884371186588], [-0.962651479680793, 44.9090626224425], [-0.962315384755466, 44.90925906804687], [-0.961953809895022, 44.90943115655115], [-0.961570237530621, 44.90957723041397], [-0.961168362063105, 44.90969588265268], [-0.960752054268934, 44.90978597040124], [-0.960325324003435, 44.909846625923834], [-0.959892281561264, 44.90987726497684], [-0.959457098067077, 44.90987759243936], [-0.95902396527884, 44.9098476051572], [-0.958597055191877, 44.90978759197334], [-0.958180479833757, 44.90969813094427], [-0.957778251638253, 44.90958008376931], [-0.957394244780892, 44.909434587486615], [-0.957032157849396, 44.90926304351585], [-0.956695478209201, 44.90906710415379], [-0.956387448407834, 44.90884865665267], [-0.956111034942082, 44.90860980503546], [-0.955868899688959, 44.90835284982305], [-0.955663374275595, 44.90808026586959], [-0.955496437634691, 44.90779467851907], [-0.955369696961276, 44.90749883831383], [-0.955284372253612, 44.907195594498326], [-0.955241284586383, 44.906887867574014]]]}}, {"type": "Feature", "properties": {"nb_detections_cluster": 1, "frp_max": 10.31, "frp_moyen": 10.31, "derniere_detection": "2026-07-27T14:20:00", "fetch_timestamp": "2026-07-28T12:19:00"}, "geometry": {"type": "Polygon", "coordinates": [[[-0.96472130495974, 44.90696824542885], [-0.964720816357004, 44.90665899905612], [-0.964762982870593, 44.906351207776375], [-0.964847397724226, 44.90604783573885], [-0.964973247306732, 44.90575180448547], [-0.965139319032544, 44.90546596481836], [-0.965344013042046, 44.90519306935052], [-0.965585357628235, 44.904935746003574], [-0.965861028240396, 44.90469647270754], [-0.966168369881168, 44.90447755354599], [-0.966504422680959, 44.904281096576064], [-0.966865950403157, 44.90410899353653], [-0.967249471605649, 44.903962901638785], [-0.967651293158734, 44.9038442276161], [-0.968067545797019, 44.903754114184146], [-0.968494221363518, 44.903693429042896], [-0.96892721138797, 44.90366275652568], [-0.969362346628726, 44.90366239197542], [-0.96979543719836, 44.90369233890237], [-0.970222312887565, 44.9037523089502], [-0.970638863300059, 44.90384172467126], [-0.971041077412964, 44.90395972508389], [-0.971425082182669, 44.90410517395883], [-0.97178717982521, 44.90427667075478], [-0.972123883412888, 44.904472564098356], [-0.972431950444904, 44.904690967678576], [-0.972708414069061, 44.90492977840366], [-0.972950611654114, 44.90518669664504], [-0.973156210437562, 44.905459248374555], [-0.973323230001691, 44.90574480898165], [-0.973450061361028, 44.90604062854167], [-0.9735354824768, 44.90634385829217], [-0.97357867004825, 44.90665157806271], [-0.973579207466402, 44.906960824393835], [-0.97353708885271, 44.90726861907496], [-0.973452719142688, 44.90757199782608], [-0.973326910212661, 44.90786803884734], [-0.973160873085947, 44.908153890961216], [-0.972956206292538, 44.90842680107635], [-0.972714880493535, 44.90868414070828], [-0.972439219517676, 44.90892343130113], [-0.972131877992002, 44.909142368106664], [-0.971795815781681, 44.90933884238963], [-0.971434269484969, 44.90951096174599], [-0.971050721257784, 44.90965706833728], [-0.970648865268373, 44.909775754865535], [-0.970232572105497, 44.90986587813453], [-0.969805851483479, 44.90992657006629], [-0.96937281360404, 44.90995724606649], [-0.968937629547867, 44.90995761065834], [-0.968504491078335, 44.90992766033001], [-0.968077570245519, 44.90986768356856], [-0.967660979180545, 44.909778258079626], [-0.967258730468542, 44.909660245220245], [-0.966874698482745, 44.909514781698], [-0.966512582053017, 44.90934326861706], [-0.966175868829038, 44.90914735797667], [-0.965867801681924, 44.90892893675248], [-0.965591347468298, 44.90869010871436], [-0.96534916845776, 44.90843317415615], [-0.965143596699004, 44.908160607733095], [-0.964976611571202, 44.90787503462041], [-0.964849820736456, 44.90757920522334], [-0.964764444676201, 44.90727596868237], [-0.96472130495974, 44.90696824542885]]]}}, {"type": "Feature", "properties": {"nb_detections_cluster": 2, "frp_max": 8.52, "frp_moyen": 8.23, "derniere_detection": "2026-07-28T12:19:00", "fetch_timestamp": "2026-07-28T12:19:00"}, "geometry": {"type": "Polygon", "coordinates": [[[-0.948215358189291, 44.906172407052956], [-0.948260109142052, 44.90618202254023], [-0.948662292954914, 44.906300104045336], [-0.949046255719766, 44.90644563036366], [-0.949408300056876, 44.90661720020821], [-0.949744939551561, 44.90681316150209], [-0.95005293231989, 44.90703162728001], [-0.95032931222447, 44.90727049385115], [-0.950571417439921, 44.90752746104911], [-0.950776916092919, 44.90780005437422], [-0.950943828729696, 44.90808564881522], [-0.951070547394225, 44.908381494121485], [-0.951155851132775, 44.90868474128259], [-0.951198917774788, 44.908992469960204], [-0.951199331875768, 44.909301716609], [-0.951157088744723, 44.909609503015176], [-0.951072594516353, 44.90991286497828], [-0.950946662266266, 44.91020888086], [-0.950780504205586, 44.910494699724794], [-0.950575720029206, 44.91076756880141], [-0.950334281528989, 44.91102486000053], [-0.950058513619392, 44.911264095232696], [-0.949751071957665, 44.9114829702827], [-0.949414917373739, 44.911679377010095], [-0.949053287355881, 44.911851423661474], [-0.94866966486668, 44.911997453098586], [-0.948267744789933, 44.912116058766614], [-0.947851398331918, 44.91220609824815], [-0.947424635720491, 44.912266704272206], [-0.946991567561963, 44.912297293072], [-0.946556365228761, 44.91229757001065], [-0.946123220660335, 44.912267532420614], [-0.945696305965479, 44.91220746962943], [-0.945279733216107, 44.91211796017147], [-0.944877514820788, 44.91199986621248], [-0.94449352486055, 44.91185432524121], [-0.944131461760233, 44.91168273910778], [-0.943794812655574, 44.91148676051505], [-0.94348681979981, 44.911268277093065], [-0.943210449333697, 44.91102939321074], [-0.942968362719899, 44.91077240969971], [-0.942904397086116, 44.91068754406442], [-0.942859643457888, 44.91067792640685], [-0.94245744047876, 44.910559823740215], [-0.942073466650665, 44.9104142744704], [-0.941711420243024, 44.91024268052749], [-0.941374788230763, 44.910046694689505], [-0.941066812702461, 44.909828204656314], [-0.940790459631956, 44.9095893148605], [-0.94054839031435, 44.90933232619063], [-0.940342935741516, 44.90905971382297], [-0.940176074163681, 44.90877410337513], [-0.940049412052764, 44.90847824561183], [-0.939964168650257, 44.908174989946566], [-0.939921164247701, 44.90786725699478], [-0.939920812311778, 44.90755801044299], [-0.939963115528882, 44.90725022850497], [-0.94004766580627, 44.90694687523986], [-0.940173648228712, 44.90665087200862], [-0.940339848931545, 44.90636506934339], [-0.94054466681333, 44.90609221950071], [-0.940786128974462, 44.905834949962696], [-0.941061909732311, 44.90559573814111], [-0.941369353029181, 44.905376887527474], [-0.94170549801692, 44.90518050551877], [-0.942067107571533, 44.90500848313184], [-0.942450699463232, 44.90486247680146], [-0.942852579881919, 44.90474389243692], [-0.943268878995626, 44.904653871890524], [-0.943695588200044, 44.904593281967855], [-0.94412859870115, 44.904562706085365], [-0.944563741060208, 44.90456243865553], [-0.944996825321258, 44.9045924822534], [-0.945423681335687, 44.90465254759184], [-0.945840198896543, 44.90474205630561], [-0.946242367297102, 44.90486014651762], [-0.946626313933693, 44.90500568113393], [-0.946988341581851, 44.905177258787575], [-0.947324963987564, 44.90537322732653], [-0.94763293943143, 44.905591699715686], [-0.947909301942854, 44.90583057220057], [-0.948151389863926, 44.90608754455783], [-0.948215358189291, 44.906172407052956]]]}}, {"type": "Feature", "properties": {"nb_detections_cluster": 10, "frp_max": 7.78, "frp_moyen": 3.41, "derniere_detection": "2026-07-28T02:53:00", "fetch_timestamp": "2026-07-28T12:19:00"}, "geometry": {"type": "Polygon", "coordinates": [[[-0.86136, 44.72448], [-0.86437, 44.72418], [-0.85288, 44.72599], [-0.85238, 44.7216], [-0.85332, 44.72034], [-0.86136, 44.72448]]]}}, {"type": "Feature", "properties": {"nb_detections_cluster": 1, "frp_max": 2.56, "frp_moyen": 2.56, "derniere_detection": "2026-07-28T02:34:00", "fetch_timestamp": "2026-07-28T12:19:00"}, "geometry": {"type": "Polygon", "coordinates": [[[-0.800184706582481, 44.73087167791212], [-0.800185123425578, 44.73056244960821], [-0.800228057587476, 44.73025473947376], [-0.800313094903896, 44.72995151087554], [-0.800439415774185, 44.72965568397311], [-0.80060580307929, 44.72937010759969], [-0.800810653925562, 44.72909753183199], [-0.801051995100445, 44.72884058151216], [-0.801327502090452, 44.72860173097745], [-0.801634521477714, 44.72838328023988], [-0.801970096499038, 44.728187332845465], [-0.802330995521086, 44.72801577562575], [-0.802713743157493, 44.72787026053605], [-0.803114653728408, 44.727752188755346], [-0.803529866740661, 44.72766269720013], [-0.8039553840474, 44.72760264758233], [-0.804387108330103, 44.72757261811581], [-0.804820882533173, 44.72757289795164], [-0.80525252987233, 44.727603484395324], [-0.805677894032491, 44.72766408293268], [-0.806092879169052, 44.727754110064275], [-0.806493489328324, 44.727872698921104], [-0.806875866908481, 44.72801870760755], [-0.807236329791411, 44.728190730191585], [-0.807571406788671, 44.72838711023648], [-0.807877871060691, 44.72860595674428], [-0.808152771187806, 44.72884516235741], [-0.808393459594095, 44.72910242364411], [-0.808597618050254, 44.729375263272], [-0.808763280009714, 44.72966105385727], [-0.808888849562517, 44.72995704325964], [-0.808973116823802, 44.73026038108012], [-0.809015269607998, 44.730568146106414], [-0.80901490127543, 44.73087737444225], [-0.808972014674817, 44.73118508804925], [-0.808887022142682, 44.731488323427186], [-0.808760741558644, 44.731784160155996], [-0.808594388493577, 44.73206974902476], [-0.808389564525305, 44.732342339476666], [-0.808148241833478, 44.73259930610519], [-0.80787274422129, 44.732838173946384], [-0.807565724746224, 44.73305664232317], [-0.807230140174848, 44.733252607011586], [-0.806869222507502, 44.73342418051558], [-0.806486447847082, 44.73356971025398], [-0.806085502911955, 44.733687794484915], [-0.80567024951589, 44.733777295813375], [-0.805244687357663, 44.733837352151916], [-0.804812915479415, 44.73386738502836], [-0.804379092765816, 44.733867105160606], [-0.803947397865374, 44.73383651524437], [-0.803521988920928, 44.7337759099273], [-0.803106963498117, 44.73368587296934], [-0.802706319098805, 44.73356727161715], [-0.802323914640649, 44.7334212482465], [-0.801963433274662, 44.73324920935376], [-0.801628346899585, 44.733052812002384], [-0.80132188271537, 44.7328339478554], [-0.801046992138306, 44.73259472494822], [-0.800806322377314, 44.73233744737727], [-0.800602190945168, 44.732064593100674], [-0.800436563349921, 44.731778790065185], [-0.800311034180931, 44.73148279088953], [-0.800226811771133, 44.73117944634834], [-0.800184706582481, 44.73087167791212]]]}}, {"type": "Feature", "properties": {"nb_detections_cluster": 1, "frp_max": 1.26, "frp_moyen": 1.26, "derniere_detection": "2026-07-28T01:13:00", "fetch_timestamp": "2026-07-28T12:19:00"}, "geometry": {"type": "Polygon", "coordinates": [[[-0.808044097797093, 44.73890199162958], [-0.808044471516258, 44.73859276240983], [-0.808087368833069, 44.73828504834699], [-0.808172375937866, 44.73798181284576], [-0.808298673520712, 44.737685976132155], [-0.808465044686581, 44.73740038713401], [-0.808669886697017, 44.73712779604957], [-0.808911226424329, 44.73687082786861], [-0.809186739368767, 44.73663195710032], [-0.809493772054943, 44.73641348395161], [-0.80982936759145, 44.73621751218437], [-0.81019029414728, 44.7360459288648], [-0.81057307607085, 44.7359003861996], [-0.810974027352102, 44.73578228563321], [-0.811389287105843, 44.7356927643594], [-0.81181485673517, 44.73563268437618], [-0.812246638417791, 44.73560262418985], [-0.812680474545487, 44.73560287324726], [-0.813112187737812, 44.73563342915029], [-0.813537621045702, 44.735693997678815], [-0.813952677958858, 44.735783995622384], [-0.81435336183259, 44.735902556393015], [-0.814735814355395, 44.73604853836556], [-0.815096352687655, 44.736220535865215], [-0.815431504914509, 44.736416892696866], [-0.815738043472061, 44.73663571808605], [-0.816013016225376, 44.7368749048786], [-0.816253774899199, 44.737132149824], [-0.816458000587561, 44.73740497574734], [-0.816623726096417, 44.73769075539674], [-0.816749354903751, 44.73798673673731], [-0.816833676553959, 44.73829006944773], [-0.816875878337542, 44.73859783236501], [-0.816875553142768, 44.738907061613176], [-0.816832703402716, 44.73921477914515], [-0.816747741098696, 44.73951802142296], [-0.816621483818979, 44.739813867960116], [-0.816455146909762, 44.740099469451316], [-0.816250331793038, 44.740372075218154], [-0.816009010562987, 44.74062905970671], [-0.815733507008522, 44.74086794778102], [-0.815426474244178, 44.741086438569134], [-0.815090869164364, 44.74128242763131], [-0.814729923966836, 44.7414540272367], [-0.814347115019563, 44.74159958455277], [-0.813946129371112, 44.74171769757199], [-0.813530829227385, 44.74180722862211], [-0.813105214737453, 44.74186731532937], [-0.812673385447573, 44.741897378929124], [-0.812239500795485, 44.741897129843295], [-0.811807740026403, 44.741866570471124], [-0.811382261917736, 44.741805995166025], [-0.810967164701451, 44.74171598739891], [-0.810566446571067, 44.74159741413524], [-0.810183967154549, 44.74145141748027], [-0.809823410325028, 44.741279403673026], [-0.809488248708201, 44.74108302953536], [-0.809181710228819, 44.74086418650678], [-0.80890674701881, 44.74062498241928], [-0.808666006986686, 44.74036772118806], [-0.808461808322026, 44.74009488061389], [-0.80829611718037, 44.73980908851161], [-0.808170528763021, 44.739513097394735], [-0.808086251973419, 44.73920975796025], [-0.808044097797093, 44.73890199162958]]]}}, {"type": "Feature", "properties": {"nb_detections_cluster": 5, "frp_max": 288.9, "frp_moyen": 240.46, "derniere_detection": "2026-07-28T12:38:00", "fetch_timestamp": "2026-07-28T12:19:00"}, "geometry": {"type": "Polygon", "coordinates": [[[-0.87251, 44.86035], [-0.87966, 44.85846], [-0.8749, 44.86497], [-0.86775, 44.86685], [-0.87251, 44.86035]]]}}]}