{
"type": "FeatureCollection",
"name": "zone_active_points",
"crs": { "type": "name", "properties": { "name": "urn:ogc:def:crs:OGC:1.3:CRS84" } },
"features": [
{ "type": "Feature", "properties": { "lat": 44.72418, "lon": -0.86437, "frp": 5.13, "fetch_timestamp": "2026-07-28T12:19:00" }, "geometry": { "type": "Point", "coordinates": [ -0.86437, 44.72418 ] } },
{ "type": "Feature", "properties": { "lat": 44.7704, "lon": -0.89663, "frp": 7.57, "fetch_timestamp": "2026-07-28T12:19:00" }, "geometry": { "type": "Point", "coordinates": [ -0.89663, 44.7704 ] } },
{ "type": "Feature", "properties": { "lat": 44.77171, "lon": -1.2138, "frp": 4.22, "fetch_timestamp": "2026-07-28T12:19:00" }, "geometry": { "type": "Point", "coordinates": [ -1.2138, 44.77171 ] } },
{ "type": "Feature", "properties": { "lat": 44.77516, "lon": -0.88806, "frp": 2.47, "fetch_timestamp": "2026-07-28T12:19:00" }, "geometry": { "type": "Point", "coordinates": [ -0.88806, 44.77516 ] } },
{ "type": "Feature", "properties": { "lat": 44.77665, "lon": -0.87848, "frp": 5.36, "fetch_timestamp": "2026-07-28T12:19:00" }, "geometry": { "type": "Point", "coordinates": [ -0.87848, 44.77665 ] } },
{ "type": "Feature", "properties": { "lat": 44.7774, "lon": -0.87369, "frp": 11.61, "fetch_timestamp": "2026-07-28T12:19:00" }, "geometry": { "type": "Point", "coordinates": [ -0.87369, 44.7774 ] } },
{ "type": "Feature", "properties": { "lat": 44.87342, "lon": -1.17762, "frp": 4.19, "fetch_timestamp": "2026-07-28T12:19:00" }, "geometry": { "type": "Point", "coordinates": [ -1.17762, 44.87342 ] } },
{ "type": "Feature", "properties": { "lat": 44.87419, "lon": -1.17282, "frp": 6.03, "fetch_timestamp": "2026-07-28T12:19:00" }, "geometry": { "type": "Point", "coordinates": [ -1.17282, 44.87419 ] } },
{ "type": "Feature", "properties": { "lat": 44.87982, "lon": -0.89767, "frp": 6.9, "fetch_timestamp": "2026-07-28T12:19:00" }, "geometry": { "type": "Point", "coordinates": [ -0.89767, 44.87982 ] } },
{ "type": "Feature", "properties": { "lat": 44.93626, "lon": -1.10444, "frp": 5.22, "fetch_timestamp": "2026-07-28T12:19:00" }, "geometry": { "type": "Point", "coordinates": [ -1.10444, 44.93626 ] } },
{ "type": "Feature", "properties": { "lat": 44.72034, "lon": -0.85332, "frp": 1.22, "fetch_timestamp": "2026-07-28T12:19:00" }, "geometry": { "type": "Point", "coordinates": [ -0.85332, 44.72034 ] } },
{ "type": "Feature", "properties": { "lat": 44.72599, "lon": -0.85288, "frp": 1.22, "fetch_timestamp": "2026-07-28T12:19:00" }, "geometry": { "type": "Point", "coordinates": [ -0.85288, 44.72599 ] } },
{ "type": "Feature", "properties": { "lat": 44.73875, "lon": -0.81246, "frp": 1.26, "fetch_timestamp": "2026-07-28T12:19:00" }, "geometry": { "type": "Point", "coordinates": [ -0.81246, 44.73875 ] } },
{ "type": "Feature", "properties": { "lat": 44.87698, "lon": -1.1798, "frp": 2.17, "fetch_timestamp": "2026-07-28T12:19:00" }, "geometry": { "type": "Point", "coordinates": [ -1.1798, 44.87698 ] } },
{ "type": "Feature", "properties": { "lat": 44.87771, "lon": -1.17966, "frp": 1.76, "fetch_timestamp": "2026-07-28T12:19:00" }, "geometry": { "type": "Point", "coordinates": [ -1.17966, 44.87771 ] } },
{ "type": "Feature", "properties": { "lat": 44.88585, "lon": -0.89769, "frp": 1.33, "fetch_timestamp": "2026-07-28T12:19:00" }, "geometry": { "type": "Point", "coordinates": [ -0.89769, 44.88585 ] } },
{ "type": "Feature", "properties": { "lat": 44.9328, "lon": -1.10323, "frp": 1.07, "fetch_timestamp": "2026-07-28T12:19:00" }, "geometry": { "type": "Point", "coordinates": [ -1.10323, 44.9328 ] } },
{ "type": "Feature", "properties": { "lat": 44.93298, "lon": -1.10879, "frp": 0.83, "fetch_timestamp": "2026-07-28T12:19:00" }, "geometry": { "type": "Point", "coordinates": [ -1.10879, 44.93298 ] } },
{ "type": "Feature", "properties": { "lat": 44.7216, "lon": -0.85238, "frp": 3.6, "fetch_timestamp": "2026-07-28T12:19:00" }, "geometry": { "type": "Point", "coordinates": [ -0.85238, 44.7216 ] } },
{ "type": "Feature", "properties": { "lat": 44.77295, "lon": -1.21998, "frp": 0.86, "fetch_timestamp": "2026-07-28T12:19:00" }, "geometry": { "type": "Point", "coordinates": [ -1.21998, 44.77295 ] } },
{ "type": "Feature", "properties": { "lat": 44.81792, "lon": -1.21263, "frp": 1.03, "fetch_timestamp": "2026-07-28T12:19:00" }, "geometry": { "type": "Point", "coordinates": [ -1.21263, 44.81792 ] } },
{ "type": "Feature", "properties": { "lat": 44.9296, "lon": -1.10521, "frp": 0.92, "fetch_timestamp": "2026-07-28T12:19:00" }, "geometry": { "type": "Point", "coordinates": [ -1.10521, 44.9296 ] } },
{ "type": "Feature", "properties": { "lat": 44.75686, "lon": -0.98124, "frp": 18.25, "fetch_timestamp": "2026-07-28T12:19:00" }, "geometry": { "type": "Point", "coordinates": [ -0.98124, 44.75686 ] } },
{ "type": "Feature", "properties": { "lat": 44.7795, "lon": -0.87849, "frp": 25.09, "fetch_timestamp": "2026-07-28T12:19:00" }, "geometry": { "type": "Point", "coordinates": [ -0.87849, 44.7795 ] } },
{ "type": "Feature", "properties": { "lat": 44.72448, "lon": -0.86136, "frp": 4.25, "fetch_timestamp": "2026-07-28T12:19:00" }, "geometry": { "type": "Point", "coordinates": [ -0.86136, 44.72448 ] } },
{ "type": "Feature", "properties": { "lat": 44.77465, "lon": -0.87925, "frp": 11.32, "fetch_timestamp": "2026-07-28T12:19:00" }, "geometry": { "type": "Point", "coordinates": [ -0.87925, 44.77465 ] } },
{ "type": "Feature", "properties": { "lat": 44.7817, "lon": -0.86933, "frp": 15.55, "fetch_timestamp": "2026-07-28T12:19:00" }, "geometry": { "type": "Point", "coordinates": [ -0.86933, 44.7817 ] } },
{ "type": "Feature", "properties": { "lat": 44.7818, "lon": -0.87893, "frp": 11.32, "fetch_timestamp": "2026-07-28T12:19:00" }, "geometry": { "type": "Point", "coordinates": [ -0.87893, 44.7818 ] } },
{ "type": "Feature", "properties": { "lat": 44.88178, "lon": -0.89468, "frp": 61.53, "fetch_timestamp": "2026-07-28T12:19:00" }, "geometry": { "type": "Point", "coordinates": [ -0.89468, 44.88178 ] } },
{ "type": "Feature", "properties": { "lat": 44.88472, "lon": -0.89349, "frp": 84.32, "fetch_timestamp": "2026-07-28T12:19:00" }, "geometry": { "type": "Point", "coordinates": [ -0.89349, 44.88472 ] } },
{ "type": "Feature", "properties": { "lat": 44.88482, "lon": -0.9031, "frp": 35.61, "fetch_timestamp": "2026-07-28T12:19:00" }, "geometry": { "type": "Point", "coordinates": [ -0.9031, 44.88482 ] } },
{ "type": "Feature", "properties": { "lat": 44.90673, "lon": -0.95967, "frp": 10.31, "fetch_timestamp": "2026-07-28T12:19:00" }, "geometry": { "type": "Point", "coordinates": [ -0.95967, 44.90673 ] } },
{ "type": "Feature", "properties": { "lat": 44.90681, "lon": -0.96915, "frp": 10.31, "fetch_timestamp": "2026-07-28T12:19:00" }, "geometry": { "type": "Point", "coordinates": [ -0.96915, 44.90681 ] } },
{ "type": "Feature", "properties": { "lat": 44.73072, "lon": -0.8046, "frp": 2.56, "fetch_timestamp": "2026-07-28T12:19:00" }, "geometry": { "type": "Point", "coordinates": [ -0.8046, 44.73072 ] } },
{ "type": "Feature", "properties": { "lat": 44.77831, "lon": -0.88329, "frp": 1.41, "fetch_timestamp": "2026-07-28T12:19:00" }, "geometry": { "type": "Point", "coordinates": [ -0.88329, 44.77831 ] } },
{ "type": "Feature", "properties": { "lat": 44.77943, "lon": -0.86979, "frp": 1.54, "fetch_timestamp": "2026-07-28T12:19:00" }, "geometry": { "type": "Point", "coordinates": [ -0.86979, 44.77943 ] } },
{ "type": "Feature", "properties": { "lat": 44.78067, "lon": -0.8758, "frp": 1.54, "fetch_timestamp": "2026-07-28T12:19:00" }, "geometry": { "type": "Point", "coordinates": [ -0.8758, 44.78067 ] } },
{ "type": "Feature", "properties": { "lat": 44.81266, "lon": -1.14609, "frp": 0.67, "fetch_timestamp": "2026-07-28T12:19:00" }, "geometry": { "type": "Point", "coordinates": [ -1.14609, 44.81266 ] } },
{ "type": "Feature", "properties": { "lat": 44.81276, "lon": -1.22227, "frp": 1.12, "fetch_timestamp": "2026-07-28T12:19:00" }, "geometry": { "type": "Point", "coordinates": [ -1.22227, 44.81276 ] } },
{ "type": "Feature", "properties": { "lat": 44.84838, "lon": -1.16998, "frp": 0.33, "fetch_timestamp": "2026-07-28T12:19:00" }, "geometry": { "type": "Point", "coordinates": [ -1.16998, 44.84838 ] } },
{ "type": "Feature", "properties": { "lat": 44.87949, "lon": -0.89357, "frp": 1.13, "fetch_timestamp": "2026-07-28T12:19:00" }, "geometry": { "type": "Point", "coordinates": [ -0.89357, 44.87949 ] } },
{ "type": "Feature", "properties": { "lat": 44.88432, "lon": -0.89809, "frp": 1.53, "fetch_timestamp": "2026-07-28T12:19:00" }, "geometry": { "type": "Point", "coordinates": [ -0.89809, 44.88432 ] } },
{ "type": "Feature", "properties": { "lat": 44.93509, "lon": -1.10883, "frp": 0.97, "fetch_timestamp": "2026-07-28T12:19:00" }, "geometry": { "type": "Point", "coordinates": [ -1.10883, 44.93509 ] } },
{ "type": "Feature", "properties": { "lat": 44.93747, "lon": -1.1015, "frp": 1.63, "fetch_timestamp": "2026-07-28T12:19:00" }, "geometry": { "type": "Point", "coordinates": [ -1.1015, 44.93747 ] } },
{ "type": "Feature", "properties": { "lat": 44.7555, "lon": -0.98182, "frp": 12.47, "fetch_timestamp": "2026-07-28T12:19:00" }, "geometry": { "type": "Point", "coordinates": [ -0.98182, 44.7555 ] } },
{ "type": "Feature", "properties": { "lat": 44.75742, "lon": -0.97452, "frp": 12.47, "fetch_timestamp": "2026-07-28T12:19:00" }, "geometry": { "type": "Point", "coordinates": [ -0.97452, 44.75742 ] } },
{ "type": "Feature", "properties": { "lat": 44.84716, "lon": -1.16329, "frp": 6.69, "fetch_timestamp": "2026-07-28T12:19:00" }, "geometry": { "type": "Point", "coordinates": [ -1.16329, 44.84716 ] } },
{ "type": "Feature", "properties": { "lat": 44.84922, "lon": -1.16252, "frp": 4.69, "fetch_timestamp": "2026-07-28T12:19:00" }, "geometry": { "type": "Point", "coordinates": [ -1.16252, 44.84922 ] } },
{ "type": "Feature", "properties": { "lat": 44.85846, "lon": -0.87966, "frp": 274.52, "fetch_timestamp": "2026-07-28T12:19:00" }, "geometry": { "type": "Point", "coordinates": [ -0.87966, 44.85846 ] } },
{ "type": "Feature", "properties": { "lat": 44.86035, "lon": -0.87251, "frp": 274.52, "fetch_timestamp": "2026-07-28T12:19:00" }, "geometry": { "type": "Point", "coordinates": [ -0.87251, 44.86035 ] } },
{ "type": "Feature", "properties": { "lat": 44.86497, "lon": -0.8749, "frp": 274.52, "fetch_timestamp": "2026-07-28T12:19:00" }, "geometry": { "type": "Point", "coordinates": [ -0.8749, 44.86497 ] } },
{ "type": "Feature", "properties": { "lat": 44.86685, "lon": -0.86775, "frp": 89.84, "fetch_timestamp": "2026-07-28T12:19:00" }, "geometry": { "type": "Point", "coordinates": [ -0.86775, 44.86685 ] } },
{ "type": "Feature", "properties": { "lat": 44.87261, "lon": -1.17472, "frp": 28.01, "fetch_timestamp": "2026-07-28T12:19:00" }, "geometry": { "type": "Point", "coordinates": [ -1.17472, 44.87261 ] } },
{ "type": "Feature", "properties": { "lat": 44.90771, "lon": -0.94435, "frp": 7.95, "fetch_timestamp": "2026-07-28T12:19:00" }, "geometry": { "type": "Point", "coordinates": [ -0.94435, 44.90771 ] } },
{ "type": "Feature", "properties": { "lat": 44.90915, "lon": -0.94677, "frp": 8.52, "fetch_timestamp": "2026-07-28T12:19:00" }, "geometry": { "type": "Point", "coordinates": [ -0.94677, 44.90915 ] } }
]
}
