{
"type": "FeatureCollection",
"name": "zone_active_points",
"crs": { "type": "name", "properties": { "name": "urn:ogc:def:crs:OGC:1.3:CRS84" } },
"features": [
{ "type": "Feature", "properties": { "lat": 44.72034, "lon": -0.85332, "frp": 1.22, "fetch_timestamp": "2026-07-28T13:59:00" }, "geometry": { "type": "Point", "coordinates": [ -0.85332, 44.72034 ] } },
{ "type": "Feature", "properties": { "lat": 44.72599, "lon": -0.85288, "frp": 1.22, "fetch_timestamp": "2026-07-28T13:59:00" }, "geometry": { "type": "Point", "coordinates": [ -0.85288, 44.72599 ] } },
{ "type": "Feature", "properties": { "lat": 44.73875, "lon": -0.81246, "frp": 1.26, "fetch_timestamp": "2026-07-28T13:59:00" }, "geometry": { "type": "Point", "coordinates": [ -0.81246, 44.73875 ] } },
{ "type": "Feature", "properties": { "lat": 44.87698, "lon": -1.1798, "frp": 2.17, "fetch_timestamp": "2026-07-28T13:59:00" }, "geometry": { "type": "Point", "coordinates": [ -1.1798, 44.87698 ] } },
{ "type": "Feature", "properties": { "lat": 44.87771, "lon": -1.17966, "frp": 1.76, "fetch_timestamp": "2026-07-28T13:59:00" }, "geometry": { "type": "Point", "coordinates": [ -1.17966, 44.87771 ] } },
{ "type": "Feature", "properties": { "lat": 44.88585, "lon": -0.89769, "frp": 1.33, "fetch_timestamp": "2026-07-28T13:59:00" }, "geometry": { "type": "Point", "coordinates": [ -0.89769, 44.88585 ] } },
{ "type": "Feature", "properties": { "lat": 44.9328, "lon": -1.10323, "frp": 1.07, "fetch_timestamp": "2026-07-28T13:59:00" }, "geometry": { "type": "Point", "coordinates": [ -1.10323, 44.9328 ] } },
{ "type": "Feature", "properties": { "lat": 44.93298, "lon": -1.10879, "frp": 0.83, "fetch_timestamp": "2026-07-28T13:59:00" }, "geometry": { "type": "Point", "coordinates": [ -1.10879, 44.93298 ] } },
{ "type": "Feature", "properties": { "lat": 44.7216, "lon": -0.85238, "frp": 3.6, "fetch_timestamp": "2026-07-28T13:59:00" }, "geometry": { "type": "Point", "coordinates": [ -0.85238, 44.7216 ] } },
{ "type": "Feature", "properties": { "lat": 44.77295, "lon": -1.21998, "frp": 0.86, "fetch_timestamp": "2026-07-28T13:59:00" }, "geometry": { "type": "Point", "coordinates": [ -1.21998, 44.77295 ] } },
{ "type": "Feature", "properties": { "lat": 44.81792, "lon": -1.21263, "frp": 1.03, "fetch_timestamp": "2026-07-28T13:59:00" }, "geometry": { "type": "Point", "coordinates": [ -1.21263, 44.81792 ] } },
{ "type": "Feature", "properties": { "lat": 44.9296, "lon": -1.10521, "frp": 0.92, "fetch_timestamp": "2026-07-28T13:59:00" }, "geometry": { "type": "Point", "coordinates": [ -1.10521, 44.9296 ] } },
{ "type": "Feature", "properties": { "lat": 44.72193, "lon": -0.85073, "frp": 18.89, "fetch_timestamp": "2026-07-28T13:59:00" }, "geometry": { "type": "Point", "coordinates": [ -0.85073, 44.72193 ] } },
{ "type": "Feature", "properties": { "lat": 44.73507, "lon": -0.88144, "frp": 8.43, "fetch_timestamp": "2026-07-28T13:59:00" }, "geometry": { "type": "Point", "coordinates": [ -0.88144, 44.73507 ] } },
{ "type": "Feature", "properties": { "lat": 44.75178, "lon": -1.02458, "frp": 16.31, "fetch_timestamp": "2026-07-28T13:59:00" }, "geometry": { "type": "Point", "coordinates": [ -1.02458, 44.75178 ] } },
{ "type": "Feature", "properties": { "lat": 44.75669, "lon": -0.96211, "frp": 24.62, "fetch_timestamp": "2026-07-28T13:59:00" }, "geometry": { "type": "Point", "coordinates": [ -0.96211, 44.75669 ] } },
{ "type": "Feature", "properties": { "lat": 44.77166, "lon": -1.21473, "frp": 4.05, "fetch_timestamp": "2026-07-28T13:59:00" }, "geometry": { "type": "Point", "coordinates": [ -1.21473, 44.77166 ] } },
{ "type": "Feature", "properties": { "lat": 44.77172, "lon": -1.19513, "frp": 6.75, "fetch_timestamp": "2026-07-28T13:59:00" }, "geometry": { "type": "Point", "coordinates": [ -1.19513, 44.77172 ] } },
{ "type": "Feature", "properties": { "lat": 44.77533, "lon": -1.19656, "frp": 6.75, "fetch_timestamp": "2026-07-28T13:59:00" }, "geometry": { "type": "Point", "coordinates": [ -1.19656, 44.77533 ] } },
{ "type": "Feature", "properties": { "lat": 44.81327, "lon": -1.21262, "frp": 4.05, "fetch_timestamp": "2026-07-28T13:59:00" }, "geometry": { "type": "Point", "coordinates": [ -1.21262, 44.81327 ] } },
{ "type": "Feature", "properties": { "lat": 44.81687, "lon": -1.2141, "frp": 30.03, "fetch_timestamp": "2026-07-28T13:59:00" }, "geometry": { "type": "Point", "coordinates": [ -1.2141, 44.81687 ] } },
{ "type": "Feature", "properties": { "lat": 44.81698, "lon": -1.19448, "frp": 3.76, "fetch_timestamp": "2026-07-28T13:59:00" }, "geometry": { "type": "Point", "coordinates": [ -1.19448, 44.81698 ] } },
{ "type": "Feature", "properties": { "lat": 44.82058, "lon": -1.19594, "frp": 4.5, "fetch_timestamp": "2026-07-28T13:59:00" }, "geometry": { "type": "Point", "coordinates": [ -1.19594, 44.82058 ] } },
{ "type": "Feature", "properties": { "lat": 44.8495, "lon": -0.90298, "frp": 9.41, "fetch_timestamp": "2026-07-28T13:59:00" }, "geometry": { "type": "Point", "coordinates": [ -0.90298, 44.8495 ] } },
{ "type": "Feature", "properties": { "lat": 44.86923, "lon": -0.88006, "frp": 10.2, "fetch_timestamp": "2026-07-28T13:59:00" }, "geometry": { "type": "Point", "coordinates": [ -0.88006, 44.86923 ] } },
{ "type": "Feature", "properties": { "lat": 44.94883, "lon": -1.0553, "frp": 9.2, "fetch_timestamp": "2026-07-28T13:59:00" }, "geometry": { "type": "Point", "coordinates": [ -1.0553, 44.94883 ] } },
{ "type": "Feature", "properties": { "lat": 44.7795, "lon": -0.87849, "frp": 25.09, "fetch_timestamp": "2026-07-28T13:59:00" }, "geometry": { "type": "Point", "coordinates": [ -0.87849, 44.7795 ] } },
{ "type": "Feature", "properties": { "lat": 44.72448, "lon": -0.86136, "frp": 4.25, "fetch_timestamp": "2026-07-28T13:59:00" }, "geometry": { "type": "Point", "coordinates": [ -0.86136, 44.72448 ] } },
{ "type": "Feature", "properties": { "lat": 44.77465, "lon": -0.87925, "frp": 11.32, "fetch_timestamp": "2026-07-28T13:59:00" }, "geometry": { "type": "Point", "coordinates": [ -0.87925, 44.77465 ] } },
{ "type": "Feature", "properties": { "lat": 44.7817, "lon": -0.86933, "frp": 15.55, "fetch_timestamp": "2026-07-28T13:59:00" }, "geometry": { "type": "Point", "coordinates": [ -0.86933, 44.7817 ] } },
{ "type": "Feature", "properties": { "lat": 44.7818, "lon": -0.87893, "frp": 11.32, "fetch_timestamp": "2026-07-28T13:59:00" }, "geometry": { "type": "Point", "coordinates": [ -0.87893, 44.7818 ] } },
{ "type": "Feature", "properties": { "lat": 44.88178, "lon": -0.89468, "frp": 61.53, "fetch_timestamp": "2026-07-28T13:59:00" }, "geometry": { "type": "Point", "coordinates": [ -0.89468, 44.88178 ] } },
{ "type": "Feature", "properties": { "lat": 44.88472, "lon": -0.89349, "frp": 84.32, "fetch_timestamp": "2026-07-28T13:59:00" }, "geometry": { "type": "Point", "coordinates": [ -0.89349, 44.88472 ] } },
{ "type": "Feature", "properties": { "lat": 44.88482, "lon": -0.9031, "frp": 35.61, "fetch_timestamp": "2026-07-28T13:59:00" }, "geometry": { "type": "Point", "coordinates": [ -0.9031, 44.88482 ] } },
{ "type": "Feature", "properties": { "lat": 44.90673, "lon": -0.95967, "frp": 10.31, "fetch_timestamp": "2026-07-28T13:59:00" }, "geometry": { "type": "Point", "coordinates": [ -0.95967, 44.90673 ] } },
{ "type": "Feature", "properties": { "lat": 44.90681, "lon": -0.96915, "frp": 10.31, "fetch_timestamp": "2026-07-28T13:59:00" }, "geometry": { "type": "Point", "coordinates": [ -0.96915, 44.90681 ] } },
{ "type": "Feature", "properties": { "lat": 44.73072, "lon": -0.8046, "frp": 2.56, "fetch_timestamp": "2026-07-28T13:59:00" }, "geometry": { "type": "Point", "coordinates": [ -0.8046, 44.73072 ] } },
{ "type": "Feature", "properties": { "lat": 44.77831, "lon": -0.88329, "frp": 1.41, "fetch_timestamp": "2026-07-28T13:59:00" }, "geometry": { "type": "Point", "coordinates": [ -0.88329, 44.77831 ] } },
{ "type": "Feature", "properties": { "lat": 44.77943, "lon": -0.86979, "frp": 1.54, "fetch_timestamp": "2026-07-28T13:59:00" }, "geometry": { "type": "Point", "coordinates": [ -0.86979, 44.77943 ] } },
{ "type": "Feature", "properties": { "lat": 44.78067, "lon": -0.8758, "frp": 1.54, "fetch_timestamp": "2026-07-28T13:59:00" }, "geometry": { "type": "Point", "coordinates": [ -0.8758, 44.78067 ] } },
{ "type": "Feature", "properties": { "lat": 44.81266, "lon": -1.14609, "frp": 0.67, "fetch_timestamp": "2026-07-28T13:59:00" }, "geometry": { "type": "Point", "coordinates": [ -1.14609, 44.81266 ] } },
{ "type": "Feature", "properties": { "lat": 44.81276, "lon": -1.22227, "frp": 1.12, "fetch_timestamp": "2026-07-28T13:59:00" }, "geometry": { "type": "Point", "coordinates": [ -1.22227, 44.81276 ] } },
{ "type": "Feature", "properties": { "lat": 44.84838, "lon": -1.16998, "frp": 0.33, "fetch_timestamp": "2026-07-28T13:59:00" }, "geometry": { "type": "Point", "coordinates": [ -1.16998, 44.84838 ] } },
{ "type": "Feature", "properties": { "lat": 44.87949, "lon": -0.89357, "frp": 1.13, "fetch_timestamp": "2026-07-28T13:59:00" }, "geometry": { "type": "Point", "coordinates": [ -0.89357, 44.87949 ] } },
{ "type": "Feature", "properties": { "lat": 44.88432, "lon": -0.89809, "frp": 1.53, "fetch_timestamp": "2026-07-28T13:59:00" }, "geometry": { "type": "Point", "coordinates": [ -0.89809, 44.88432 ] } },
{ "type": "Feature", "properties": { "lat": 44.93509, "lon": -1.10883, "frp": 0.97, "fetch_timestamp": "2026-07-28T13:59:00" }, "geometry": { "type": "Point", "coordinates": [ -1.10883, 44.93509 ] } },
{ "type": "Feature", "properties": { "lat": 44.93747, "lon": -1.1015, "frp": 1.63, "fetch_timestamp": "2026-07-28T13:59:00" }, "geometry": { "type": "Point", "coordinates": [ -1.1015, 44.93747 ] } },
{ "type": "Feature", "properties": { "lat": 44.7555, "lon": -0.98182, "frp": 12.47, "fetch_timestamp": "2026-07-28T13:59:00" }, "geometry": { "type": "Point", "coordinates": [ -0.98182, 44.7555 ] } },
{ "type": "Feature", "properties": { "lat": 44.75742, "lon": -0.97452, "frp": 12.47, "fetch_timestamp": "2026-07-28T13:59:00" }, "geometry": { "type": "Point", "coordinates": [ -0.97452, 44.75742 ] } },
{ "type": "Feature", "properties": { "lat": 44.84716, "lon": -1.16329, "frp": 6.69, "fetch_timestamp": "2026-07-28T13:59:00" }, "geometry": { "type": "Point", "coordinates": [ -1.16329, 44.84716 ] } },
{ "type": "Feature", "properties": { "lat": 44.84922, "lon": -1.16252, "frp": 4.69, "fetch_timestamp": "2026-07-28T13:59:00" }, "geometry": { "type": "Point", "coordinates": [ -1.16252, 44.84922 ] } },
{ "type": "Feature", "properties": { "lat": 44.85846, "lon": -0.87966, "frp": 274.52, "fetch_timestamp": "2026-07-28T13:59:00" }, "geometry": { "type": "Point", "coordinates": [ -0.87966, 44.85846 ] } },
{ "type": "Feature", "properties": { "lat": 44.86035, "lon": -0.87251, "frp": 274.52, "fetch_timestamp": "2026-07-28T13:59:00" }, "geometry": { "type": "Point", "coordinates": [ -0.87251, 44.86035 ] } },
{ "type": "Feature", "properties": { "lat": 44.86497, "lon": -0.8749, "frp": 274.52, "fetch_timestamp": "2026-07-28T13:59:00" }, "geometry": { "type": "Point", "coordinates": [ -0.8749, 44.86497 ] } },
{ "type": "Feature", "properties": { "lat": 44.86685, "lon": -0.86775, "frp": 89.84, "fetch_timestamp": "2026-07-28T13:59:00" }, "geometry": { "type": "Point", "coordinates": [ -0.86775, 44.86685 ] } },
{ "type": "Feature", "properties": { "lat": 44.87261, "lon": -1.17472, "frp": 28.01, "fetch_timestamp": "2026-07-28T13:59:00" }, "geometry": { "type": "Point", "coordinates": [ -1.17472, 44.87261 ] } },
{ "type": "Feature", "properties": { "lat": 44.90771, "lon": -0.94435, "frp": 7.95, "fetch_timestamp": "2026-07-28T13:59:00" }, "geometry": { "type": "Point", "coordinates": [ -0.94435, 44.90771 ] } },
{ "type": "Feature", "properties": { "lat": 44.90915, "lon": -0.94677, "frp": 8.52, "fetch_timestamp": "2026-07-28T13:59:00" }, "geometry": { "type": "Point", "coordinates": [ -0.94677, 44.90915 ] } },
{ "type": "Feature", "properties": { "lat": 44.75051, "lon": -0.97545, "frp": 20.86, "fetch_timestamp": "2026-07-28T13:59:00" }, "geometry": { "type": "Point", "coordinates": [ -0.97545, 44.75051 ] } },
{ "type": "Feature", "properties": { "lat": 44.75356, "lon": -1.02517, "frp": 10.44, "fetch_timestamp": "2026-07-28T13:59:00" }, "geometry": { "type": "Point", "coordinates": [ -1.02517, 44.75356 ] } },
{ "type": "Feature", "properties": { "lat": 44.75471, "lon": -0.99247, "frp": 6.16, "fetch_timestamp": "2026-07-28T13:59:00" }, "geometry": { "type": "Point", "coordinates": [ -0.99247, 44.75471 ] } },
{ "type": "Feature", "properties": { "lat": 44.75477, "lon": -1.0249, "frp": 11.56, "fetch_timestamp": "2026-07-28T13:59:00" }, "geometry": { "type": "Point", "coordinates": [ -1.0249, 44.75477 ] } },
{ "type": "Feature", "properties": { "lat": 44.75491, "lon": -0.98704, "frp": 27.29, "fetch_timestamp": "2026-07-28T13:59:00" }, "geometry": { "type": "Point", "coordinates": [ -0.98704, 44.75491 ] } },
{ "type": "Feature", "properties": { "lat": 44.7551, "lon": -0.98159, "frp": 27.29, "fetch_timestamp": "2026-07-28T13:59:00" }, "geometry": { "type": "Point", "coordinates": [ -0.98159, 44.7551 ] } },
{ "type": "Feature", "properties": { "lat": 44.75529, "lon": -0.97612, "frp": 20.61, "fetch_timestamp": "2026-07-28T13:59:00" }, "geometry": { "type": "Point", "coordinates": [ -0.97612, 44.75529 ] } },
{ "type": "Feature", "properties": { "lat": 44.75548, "lon": -0.97066, "frp": 20.61, "fetch_timestamp": "2026-07-28T13:59:00" }, "geometry": { "type": "Point", "coordinates": [ -0.97066, 44.75548 ] } },
{ "type": "Feature", "properties": { "lat": 44.75576, "lon": -0.99219, "frp": 16.45, "fetch_timestamp": "2026-07-28T13:59:00" }, "geometry": { "type": "Point", "coordinates": [ -0.99219, 44.75576 ] } },
{ "type": "Feature", "properties": { "lat": 44.75586, "lon": -0.95976, "frp": 6.91, "fetch_timestamp": "2026-07-28T13:59:00" }, "geometry": { "type": "Point", "coordinates": [ -0.95976, 44.75586 ] } },
{ "type": "Feature", "properties": { "lat": 44.75592, "lon": -0.98675, "frp": 16.45, "fetch_timestamp": "2026-07-28T13:59:00" }, "geometry": { "type": "Point", "coordinates": [ -0.98675, 44.75592 ] } },
{ "type": "Feature", "properties": { "lat": 44.75608, "lon": -0.98128, "frp": 20.86, "fetch_timestamp": "2026-07-28T13:59:00" }, "geometry": { "type": "Point", "coordinates": [ -0.98128, 44.75608 ] } },
{ "type": "Feature", "properties": { "lat": 44.75624, "lon": -0.97582, "frp": 20.86, "fetch_timestamp": "2026-07-28T13:59:00" }, "geometry": { "type": "Point", "coordinates": [ -0.97582, 44.75624 ] } },
{ "type": "Feature", "properties": { "lat": 44.75641, "lon": -0.97036, "frp": 14.83, "fetch_timestamp": "2026-07-28T13:59:00" }, "geometry": { "type": "Point", "coordinates": [ -0.97036, 44.75641 ] } },
{ "type": "Feature", "properties": { "lat": 44.75673, "lon": -0.95944, "frp": 3.14, "fetch_timestamp": "2026-07-28T13:59:00" }, "geometry": { "type": "Point", "coordinates": [ -0.95944, 44.75673 ] } },
{ "type": "Feature", "properties": { "lat": 44.81698, "lon": -1.21776, "frp": 6.19, "fetch_timestamp": "2026-07-28T13:59:00" }, "geometry": { "type": "Point", "coordinates": [ -1.21776, 44.81698 ] } },
{ "type": "Feature", "properties": { "lat": 44.81717, "lon": -1.21247, "frp": 4.63, "fetch_timestamp": "2026-07-28T13:59:00" }, "geometry": { "type": "Point", "coordinates": [ -1.21247, 44.81717 ] } },
{ "type": "Feature", "properties": { "lat": 44.84729, "lon": -1.16614, "frp": 6.39, "fetch_timestamp": "2026-07-28T13:59:00" }, "geometry": { "type": "Point", "coordinates": [ -1.16614, 44.84729 ] } },
{ "type": "Feature", "properties": { "lat": 44.84886, "lon": -1.16499, "frp": 9.11, "fetch_timestamp": "2026-07-28T13:59:00" }, "geometry": { "type": "Point", "coordinates": [ -1.16499, 44.84886 ] } },
{ "type": "Feature", "properties": { "lat": 44.8507, "lon": -0.90408, "frp": 23.08, "fetch_timestamp": "2026-07-28T13:59:00" }, "geometry": { "type": "Point", "coordinates": [ -0.90408, 44.8507 ] } },
{ "type": "Feature", "properties": { "lat": 44.85088, "lon": -0.89853, "frp": 13.24, "fetch_timestamp": "2026-07-28T13:59:00" }, "geometry": { "type": "Point", "coordinates": [ -0.89853, 44.85088 ] } },
{ "type": "Feature", "properties": { "lat": 44.8574, "lon": -0.87658, "frp": 39.98, "fetch_timestamp": "2026-07-28T13:59:00" }, "geometry": { "type": "Point", "coordinates": [ -0.87658, 44.8574 ] } },
{ "type": "Feature", "properties": { "lat": 44.85746, "lon": -0.87504, "frp": 56.27, "fetch_timestamp": "2026-07-28T13:59:00" }, "geometry": { "type": "Point", "coordinates": [ -0.87504, 44.85746 ] } },
{ "type": "Feature", "properties": { "lat": 44.86324, "lon": -0.87537, "frp": 56.27, "fetch_timestamp": "2026-07-28T13:59:00" }, "geometry": { "type": "Point", "coordinates": [ -0.87537, 44.86324 ] } },
{ "type": "Feature", "properties": { "lat": 44.86335, "lon": -0.87133, "frp": 39.98, "fetch_timestamp": "2026-07-28T13:59:00" }, "geometry": { "type": "Point", "coordinates": [ -0.87133, 44.86335 ] } },
{ "type": "Feature", "properties": { "lat": 44.86885, "lon": -0.88126, "frp": 16.23, "fetch_timestamp": "2026-07-28T13:59:00" }, "geometry": { "type": "Point", "coordinates": [ -0.88126, 44.86885 ] } },
{ "type": "Feature", "properties": { "lat": 44.86893, "lon": -0.8772, "frp": 22.0, "fetch_timestamp": "2026-07-28T13:59:00" }, "geometry": { "type": "Point", "coordinates": [ -0.8772, 44.86893 ] } },
{ "type": "Feature", "properties": { "lat": 44.86901, "lon": -0.8757, "frp": 41.88, "fetch_timestamp": "2026-07-28T13:59:00" }, "geometry": { "type": "Point", "coordinates": [ -0.8757, 44.86901 ] } },
{ "type": "Feature", "properties": { "lat": 44.86913, "lon": -0.87164, "frp": 22.0, "fetch_timestamp": "2026-07-28T13:59:00" }, "geometry": { "type": "Point", "coordinates": [ -0.87164, 44.86913 ] } },
{ "type": "Feature", "properties": { "lat": 44.86965, "lon": -1.17818, "frp": 7.1, "fetch_timestamp": "2026-07-28T13:59:00" }, "geometry": { "type": "Point", "coordinates": [ -1.17818, 44.86965 ] } },
{ "type": "Feature", "properties": { "lat": 44.86985, "lon": -1.1728, "frp": 13.67, "fetch_timestamp": "2026-07-28T13:59:00" }, "geometry": { "type": "Point", "coordinates": [ -1.1728, 44.86985 ] } },
{ "type": "Feature", "properties": { "lat": 44.87111, "lon": -1.18251, "frp": 6.37, "fetch_timestamp": "2026-07-28T13:59:00" }, "geometry": { "type": "Point", "coordinates": [ -1.18251, 44.87111 ] } },
{ "type": "Feature", "properties": { "lat": 44.87128, "lon": -1.17714, "frp": 6.37, "fetch_timestamp": "2026-07-28T13:59:00" }, "geometry": { "type": "Point", "coordinates": [ -1.17714, 44.87128 ] } },
{ "type": "Feature", "properties": { "lat": 44.87146, "lon": -1.17175, "frp": 10.33, "fetch_timestamp": "2026-07-28T13:59:00" }, "geometry": { "type": "Point", "coordinates": [ -1.17175, 44.87146 ] } },
{ "type": "Feature", "properties": { "lat": 44.87162, "lon": -0.966, "frp": 4.08, "fetch_timestamp": "2026-07-28T13:59:00" }, "geometry": { "type": "Point", "coordinates": [ -0.966, 44.87162 ] } },
{ "type": "Feature", "properties": { "lat": 44.87199, "lon": -0.97016, "frp": 2.35, "fetch_timestamp": "2026-07-28T13:59:00" }, "geometry": { "type": "Point", "coordinates": [ -0.97016, 44.87199 ] } },
{ "type": "Feature", "properties": { "lat": 44.87534, "lon": -1.17843, "frp": 7.1, "fetch_timestamp": "2026-07-28T13:59:00" }, "geometry": { "type": "Point", "coordinates": [ -1.17843, 44.87534 ] } },
{ "type": "Feature", "properties": { "lat": 44.87697, "lon": -1.17741, "frp": 6.37, "fetch_timestamp": "2026-07-28T13:59:00" }, "geometry": { "type": "Point", "coordinates": [ -1.17741, 44.87697 ] } },
{ "type": "Feature", "properties": { "lat": 44.88284, "lon": -1.17239, "frp": 3.3, "fetch_timestamp": "2026-07-28T13:59:00" }, "geometry": { "type": "Point", "coordinates": [ -1.17239, 44.88284 ] } },
{ "type": "Feature", "properties": { "lat": 44.91221, "lon": -0.9724, "frp": 6.71, "fetch_timestamp": "2026-07-28T13:59:00" }, "geometry": { "type": "Point", "coordinates": [ -0.9724, 44.91221 ] } },
{ "type": "Feature", "properties": { "lat": 44.91238, "lon": -0.9669, "frp": 7.68, "fetch_timestamp": "2026-07-28T13:59:00" }, "geometry": { "type": "Point", "coordinates": [ -0.9669, 44.91238 ] } },
{ "type": "Feature", "properties": { "lat": 44.91256, "lon": -0.96141, "frp": 7.68, "fetch_timestamp": "2026-07-28T13:59:00" }, "geometry": { "type": "Point", "coordinates": [ -0.96141, 44.91256 ] } },
{ "type": "Feature", "properties": { "lat": 44.94962, "lon": -1.05671, "frp": 11.01, "fetch_timestamp": "2026-07-28T13:59:00" }, "geometry": { "type": "Point", "coordinates": [ -1.05671, 44.94962 ] } }
]
}
