{"type": "FeatureCollection", "name": "zone_active", "crs": {"type": "name", "properties": {"name": "urn:ogc:def:crs:OGC:1.3:CRS84"}}, "features": [{"type": "Feature", "properties": {"nb_detections_cluster": 19, "frp_max": 49.51, "frp_moyen": 12.72, "derniere_detection": "2026-07-30T01:58:00", "fetch_timestamp": "2026-07-30T02:15:00"}, "geometry": {"type": "Polygon", "coordinates": [[[-1.21795, 44.76941], [-1.21508, 44.77181], [-1.21107, 44.77151], [-1.20828, 44.77475], [-1.20914, 44.77111], [-1.21128, 44.76894], [-1.21664, 44.76895], [-1.21762, 44.76735], [-1.21795, 44.76941]]]}}, {"type": "Feature", "properties": {"nb_detections_cluster": 12, "frp_max": 3.06, "frp_moyen": 1.5, "derniere_detection": "2026-07-30T02:15:00", "fetch_timestamp": "2026-07-30T02:15:00"}, "geometry": {"type": "Polygon", "coordinates": [[[-1.22246, 44.81676], [-1.22391, 44.8173], [-1.2229, 44.81761], [-1.2121, 44.8217], [-1.20847, 44.81828], [-1.21721, 44.81834], [-1.22246, 44.81676]]]}}, {"type": "Feature", "properties": {"nb_detections_cluster": 5, "frp_max": 1.79, "frp_moyen": 1.24, "derniere_detection": "2026-07-29T02:34:00", "fetch_timestamp": "2026-07-30T02:15:00"}, "geometry": {"type": "Polygon", "coordinates": [[[-1.162877692735993, 44.833186138925896], [-1.162876114180831, 44.83287690164673], [-1.162917139739826, 44.83256904335581], [-1.163000373625854, 44.83226552884904], [-1.163125013601482, 44.83196928104155], [-1.163289858729915, 44.83168315282205], [-1.163493320963169, 44.83140989958345], [-1.163733440455035, 44.8311521526936], [-1.164007904450587, 44.83091239416198], [-1.164314069569762, 44.83069293274555], [-1.16464898727, 44.830495881723714], [-1.165009432242506, 44.83032313855603], [-1.165391933468683, 44.83017636661824], [-1.165792807637802, 44.8300569791921], [-1.166208194604497, 44.82996612586284], [-1.166634094545172, 44.82990468145506], [-1.167066406456198, 44.82987323761303], [-1.167500967624023, 44.82987209710673], [-1.167933593687993, 44.82990127091803], [-1.168360118911105, 44.82996047813486], [-1.16877643627188, 44.83004914865484], [-1.16917853699226, 44.83016642867195], [-1.169562549121833, 44.83031118889379], [-1.169924774807641, 44.83048203541045], [-1.170261725891396, 44.830677323110514], [-1.170570157491856, 44.83089517151548], [-1.170847099249342, 44.83113348288009], [-1.171089883931736, 44.83138996238516], [-1.171296173126426, 44.831662140228254], [-1.171463979770616, 44.831947395400206], [-1.171591687302626, 44.832242980918735], [-1.171678065249158, 44.83254605027642], [-1.17172228109772, 44.83285368484861], [-1.171723908338976, 44.83316292199763], [-1.171682930600654, 44.8334707836026], [-1.171599741832152, 44.83377430474027], [-1.171475142537064, 44.83407056224067], [-1.171310332088855, 44.834356702842584], [-1.171106897202766, 44.83462997067727], [-1.17086679667407, 44.83488773381596], [-1.170592342528949, 44.83512750962474], [-1.170286177768922, 44.83534698868268], [-1.169951250922743, 44.83554405703245], [-1.169590787650683, 44.83571681654857], [-1.169208259674579, 44.83586360322706], [-1.168807351333147, 44.83598300321967], [-1.168391924084974, 44.83607386645822], [-1.167965979301652, 44.83613531773736], [-1.167533619710085, 44.836166765148725], [-1.167099009856166, 44.83616790578515], [-1.166666335971523, 44.8361387286598], [-1.166239765630884, 44.836079514812084], [-1.165823407589569, 44.8359908345992], [-1.165421272188965, 44.835873542199685], [-1.165037232712228, 44.83572876738176], [-1.164674988063249, 44.83555790461626], [-1.164338027129063, 44.835362599639026], [-1.164029595169457, 44.83514473359254], [-1.163752662557912, 44.834906404899996], [-1.163509896175071, 44.834649909046476], [-1.163303633730308, 44.834377716462704], [-1.163135861258432, 44.83409244872429], [-1.1630081940079, 44.83379685329645], [-1.162921860904015, 44.83349377706742], [-1.162877692735993, 44.833186138925896]]]}}, {"type": "Feature", "properties": {"nb_detections_cluster": 10, "frp_max": 24.43, "frp_moyen": 4.67, "derniere_detection": "2026-07-30T02:15:00", "fetch_timestamp": "2026-07-30T02:15:00"}, "geometry": {"type": "Polygon", "coordinates": [[[-1.16392, 44.84512], [-1.16915, 44.84577], [-1.16586, 44.84628], [-1.16279, 44.84447], [-1.16392, 44.84512]]]}}, {"type": "Feature", "properties": {"nb_detections_cluster": 3, "frp_max": 1.94, "frp_moyen": 1.8, "derniere_detection": "2026-07-29T02:34:00", "fetch_timestamp": "2026-07-30T02:15:00"}, "geometry": {"type": "Polygon", "coordinates": [[[-1.095809164074797, 44.93884347166383], [-1.095807952365651, 44.93853422331583], [-1.095849423366106, 44.938226379748336], [-1.095933176996824, 44.93792290561499], [-1.096058406012947, 44.93762672344169], [-1.096223903803345, 44.93734068548471], [-1.096428076033502, 44.93706754626731], [-1.096668956019053, 44.93680993605897], [-1.096944223681177, 44.93657033555269], [-1.097251227900695, 44.93635105198339], [-1.097587012055232, 44.93615419691769], [-1.097948342493232, 44.935981665928004], [-1.098331739670684, 44.9358351203468], [-1.098733511650808, 44.935715971276146], [-1.099149789644533, 44.935625366006036], [-1.099576565250044, 44.93556417697239], [-1.100009729033482, 44.93553299336058], [-1.100445110080123, 44.93553211543477], [-1.100878516136087, 44.93556155164846], [-1.101305773954993, 44.93562101856296], [-1.101722769462061, 44.935709943575276], [-1.102125487349866, 44.93582747042886], [-1.102510049725381, 44.9359724674545], [-1.102872753436974, 44.936143538461955], [-1.103210105722637, 44.93633903617812], [-1.103518857836697, 44.936557078102], [-1.103796036331583, 44.93679556462472], [-1.104038971693592, 44.937052199240156], [-1.104245324056886, 44.93732451065197], [-1.104413105747871, 44.93760987656444], [-1.104540700442473, 44.93790554892855], [-1.104626878751224, 44.93820868040012], [-1.104670810081352, 44.938516351755986], [-1.104672070660758, 44.938825600003796], [-1.104630647645672, 44.939133446915335], [-1.104546939271379, 44.93943692770841], [-1.10442175104356, 44.939733119601215], [-1.104256288005873, 44.94001916996396], [-1.104052143157306, 44.94029232379667], [-1.103811282129964, 44.94054995026813], [-1.103536024274118, 44.94078956806043], [-1.103229020332092, 44.94100886927433], [-1.102893226915605, 44.941205741665144], [-1.102531878032135, 44.94137828899467], [-1.102148453934549, 44.94152484930247], [-1.10174664759415, 44.94164401092058], [-1.101330329120455, 44.9417346260768], [-1.100903508470904, 44.941795821955296], [-1.10047029681037, 44.9418270091077], [-1.100034866893468, 44.941827887133684], [-1.099601412852134, 44.941798447575955], [-1.099174109776803, 44.94173897400173], [-1.098757073481432, 44.9416500392699], [-1.098354320840916, 44.94153250001054], [-1.097969731083811, 44.941387488369635], [-1.097607008414007, 44.941216401099034], [-1.097269646322068, 44.94102088609684], [-1.096960893930514, 44.94080282652836], [-1.096683724697582, 44.940564322680544], [-1.096440807781041, 44.940307671725265], [-1.096234482337881, 44.94003534558686], [-1.096066735007171, 44.93974996712691], [-1.095939180792538, 44.939454284876696], [-1.095853047527829, 44.93915114656025], [-1.095809164074797, 44.93884347166383]]]}}, {"type": "Feature", "properties": {"nb_detections_cluster": 7, "frp_max": 7.81, "frp_moyen": 3.72, "derniere_detection": "2026-07-29T13:59:00", "fetch_timestamp": "2026-07-30T02:15:00"}, "geometry": {"type": "Polygon", "coordinates": [[[-0.85197, 44.7214], [-0.85111, 44.72105], [-0.85086, 44.71843], [-0.85197, 44.7214]]]}}, {"type": "Feature", "properties": {"nb_detections_cluster": 4, "frp_max": 1.79, "frp_moyen": 1.27, "derniere_detection": "2026-07-30T02:15:00", "fetch_timestamp": "2026-07-30T02:15:00"}, "geometry": {"type": "Polygon", "coordinates": [[[-0.885674900165526, 44.734250858406206], [-0.885938474751038, 44.73440500410771], [-0.886245276352418, 44.734623634158176], [-0.886520538798811, 44.73486264567914], [-0.886761611026291, 44.73511973710808], [-0.886966171110369, 44.73539243274871], [-0.88713224863765, 44.73567810660412], [-0.887258243696905, 44.73597400765857], [-0.887342942306059, 44.73627728636434], [-0.887385528125816, 44.73658502207895], [-0.887385590346256, 44.7368942511888], [-0.887343127669487, 44.73720199564867], [-0.887258548348994, 44.73750529166165], [-0.887132666284275, 44.73780121822418], [-0.886966693207348, 44.73808692526066], [-0.886762227035456, 44.738359661076565], [-0.886521236501238, 44.738616798865735], [-0.886246042207692, 44.73885586201605], [-0.885939294289786, 44.739074547969544], [-0.885603946897458, 44.73927075040695], [-0.88524322974555, 44.739442579542406], [-0.884860617004665, 44.7395883803327], [-0.884459793832724, 44.73970674842525], [-0.884044620869977, 44.73979654369101], [-0.883619097039938, 44.739856901211304], [-0.883187321015235, 44.73988723961297], [-0.882753451720345, 44.73988726667099], [-0.882321668252534, 44.73985698212475], [-0.881896129608009, 44.739796677680516], [-0.881480934602163, 44.73970693420019], [-0.881080082370932, 44.73958861610368], [-0.880697433834595, 44.73944286303848], [-0.88033667449601, 44.7392710788975], [-0.880001278932283, 44.73907491829059], [-0.879694477322412, 44.738856270600714], [-0.879419224333667, 44.73861724177873], [-0.87917817066652, 44.73836013405193], [-0.879094855930329, 44.73824904831706], [-0.878831282087185, 44.738094886121615], [-0.878524490365197, 44.73787623526813], [-0.878249247138589, 44.737637203622825], [-0.878008203013807, 44.73738009344024], [-0.877803679110169, 44.73710738106666], [-0.877637644716505, 44.73682169308254], [-0.877511698340742, 44.73652578099897], [-0.877427052334399, 44.73622249475218], [-0.877384521239301, 44.735914755251784], [-0.877384513967907, 44.735605526246914], [-0.877427029891591, 44.735297785781995], [-0.877511658873553, 44.734994497516354], [-0.877637585244981, 44.73469858218463], [-0.877803595685199, 44.73441288947213], [-0.878008090928917, 44.73414017057627], [-0.878249101187021, 44.733883051717896], [-0.878524305131621, 44.733644008857574], [-0.878831052261979, 44.7334253438596], [-0.879166388435518, 44.73322916233345], [-0.879527084317823, 44.733057353365375], [-0.879909666477658, 44.73291157133497], [-0.88031045082774, 44.73279321999172], [-0.880725578089595, 44.73270343894413], [-0.881151050941545, 44.73264309269165], [-0.881582772492782, 44.73261276230444], [-0.882016585713873, 44.73261273983115], [-0.882448313444901, 44.73264302548816], [-0.882873798596956, 44.732703327657546], [-0.88328894416085, 44.732793065693606], [-0.883689752638761, 44.732911375511065], [-0.884072364519995, 44.733057117901275], [-0.884433095431204, 44.733228889496495], [-0.884768471603991, 44.73342503627696], [-0.885075263318929, 44.733643669491116], [-0.885350516004264, 44.73388268383548], [-0.885591578690061, 44.73413977772045], [-0.885674900165526, 44.734250858406206]]]}}, {"type": "Feature", "properties": {"nb_detections_cluster": 18, "frp_max": 2.38, "frp_moyen": 1.81, "derniere_detection": "2026-07-29T02:34:00", "fetch_timestamp": "2026-07-30T02:15:00"}, "geometry": {"type": "Polygon", "coordinates": [[[-0.961683514808171, 44.751728116014284], [-0.961683044248379, 44.75141888545575], [-0.961725111045252, 44.7511111110862], [-0.961809309386648, 44.75080775689205], [-0.961934827750127, 44.75051174424332], [-0.962100456743198, 44.750225923763004], [-0.962304600772786, 44.749953047879394], [-0.9625452934307, 44.74969574432548], [-0.962820216446187, 44.74945649084076], [-0.963126722022469, 44.74923759131804], [-0.963461858341776, 44.74904115362542], [-0.963822397993008, 44.74886906931603], [-0.964204869048292, 44.74872299542099], [-0.96460558848932, 44.74860433850026], [-0.965020697661947, 44.748514241104836], [-0.965446199418203, 44.748453570780306], [-0.965877996588702, 44.74842291171737], [-0.966311931415852, 44.748422559129416], [-0.966743825568991, 44.7484525164115], [-0.967169520357148, 44.74851249510755], [-0.96758491675316, 44.748601917686656], [-0.967986014844705, 44.74871992310108], [-0.968368952333283, 44.74886537507335], [-0.968730041711228, 44.749036873032345], [-0.969065805759441, 44.749232765593355], [-0.969373011024582, 44.74945116645295], [-0.969648698953677, 44.749689972545475], [-0.969890214386541, 44.74994688428688], [-0.970095231131594, 44.75021942771158], [-0.970261774378567, 44.75050497828891], [-0.97038823973188, 44.75080078619076], [-0.970473408680778, 44.75110400276691], [-0.970516460356564, 44.75141170797373], [-0.970516979462797, 44.75172093849203], [-0.970474960301159, 44.75202871626346], [-0.970390806853195, 44.75233207717089], [-0.970265328916118, 44.75262809958629], [-0.97009973432885, 44.75291393251134], [-0.969895617362274, 44.75318682303952], [-0.969654943384565, 44.753444142875026], [-0.969380029948604, 44.7536834136527], [-0.969073524483035, 44.75390233081516], [-0.968738378801373, 44.754098785816424], [-0.968377820674508, 44.75427088643819], [-0.967995322740319, 44.75441697502251], [-0.967594569050059, 44.754535644444864], [-0.967179419574049, 44.754625751673835], [-0.966753873009098, 44.75468642878596], [-0.966322028246561, 44.75471709132972], [-0.965888044872969, 44.75471744395788], [-0.965456103084595, 44.75468748327393], [-0.965030363403006, 44.7546274978646], [-0.964614926580593, 44.75453806551882], [-0.964213794083245, 44.75442004765967], [-0.963830829531654, 44.754274581042836], [-0.963469721473505, 44.754103066802266], [-0.963133947845765, 44.75390715694828], [-0.962826742469912, 44.75368873844892], [-0.962551063903172, 44.75344991504778], [-0.962309566945943, 44.75319298699399], [-0.962104577079794, 44.75292042888003], [-0.961938068082052, 44.752634865801056], [-0.961811643032122, 44.75233904806567], [-0.96172651889192, 44.75203582470192], [-0.961683514808171, 44.751728116014284]]]}}, {"type": "Feature", "properties": {"nb_detections_cluster": 6, "frp_max": 30.29, "frp_moyen": 16.0, "derniere_detection": "2026-07-29T13:59:00", "fetch_timestamp": "2026-07-30T02:15:00"}, "geometry": {"type": "Polygon", "coordinates": [[[-0.947903406314397, 44.75261756684936], [-0.947903011480399, 44.75230833614006], [-0.947945154317389, 44.752000566909935], [-0.948029428280943, 44.75169722309577], [-0.948155021120412, 44.751401225967555], [-0.948320722726177, 44.75111542599873], [-0.948524936806018, 44.75084257541998], [-0.948765696277313, 44.75058530172056], [-0.949040682226076, 44.75034608235243], [-0.949347246249683, 44.750127220879804], [-0.949682435967728, 44.74993082480433], [-0.950043023455094, 44.74975878527839], [-0.950425536323456, 44.7496127589018], [-0.950826291152037, 44.74949415177695], [-0.951241428946081, 44.74940410597539], [-0.951666952282129, 44.749343488545854], [-0.952098763783088, 44.74931288316971], [-0.952532705553422, 44.74931258454343], [-0.952964599195627, 44.749342595542444], [-0.953390286023627, 44.7494026271935], [-0.953805667086846, 44.749492101455736], [-0.95420674262051, 44.74961015678376], [-0.954589650543207, 44.74975565641948], [-0.954950703631816, 44.74992719933278], [-0.955286425016508, 44.75012313370609], [-0.95559358165458, 44.75034157283328], [-0.95586921546112, 44.75058041328014], [-0.956110671796931, 44.75083735513183], [-0.956315625039334, 44.751109924132685], [-0.956482100989409, 44.75139549550572], [-0.956608495899495, 44.751691319222445], [-0.956693591937089, 44.751994546480276], [-0.956736568935556, 44.75230225713269], [-0.956737012317567, 44.7526114878079], [-0.956694917114049, 44.75291926044597], [-0.956610688038895, 44.7532226109791], [-0.956485135617722, 44.753518617879124], [-0.956319468406893, 44.75380443029707], [-0.956115281376851, 44.754077295523835], [-0.95587454057071, 44.754334585507216], [-0.955599564185164, 44.75457382216954], [-0.955293000255329, 44.75479270128195], [-0.954957801158008, 44.754989114664895], [-0.954597195178755, 44.75516117050093], [-0.954214655416529, 44.75530721156337], [-0.953813866325625, 44.75542583118551], [-0.953398688217481, 44.75551588681554], [-0.952973120064802, 44.75557651102701], [-0.952541260966959, 44.75560711987791], [-0.952107270648611, 44.755607418538276], [-0.951675329372935, 44.7555774041313], [-0.951249597656535, 44.755517365761285], [-0.95083417617502, 44.75542788172726], [-0.950433066246421, 44.75530981395011], [-0.950050131273924, 44.75516429966639], [-0.94968905952016, 44.7549927404691], [-0.949353328572251, 44.7547967888016], [-0.949046171840407, 44.754578332034626], [-0.948770547413145, 44.75433947428029], [-0.948529109569221, 44.754082516118544], [-0.948324183220682, 44.753809932431814], [-0.948157741532928, 44.75352434856148], [-0.948031386936944, 44.7532285150163], [-0.94794633571598, 44.752925280976505], [-0.947903406314397, 44.75261756684936]]]}}, {"type": "Feature", "properties": {"nb_detections_cluster": 14, "frp_max": 23.68, "frp_moyen": 5.2, "derniere_detection": "2026-07-30T02:15:00", "fetch_timestamp": "2026-07-30T02:15:00"}, "geometry": {"type": "Polygon", "coordinates": [[[-1.02682, 44.75474], [-1.02876, 44.75586], [-1.02526, 44.7552], [-1.02665, 44.75151], [-1.02826, 44.75117], [-1.02682, 44.75474]]]}}, {"type": "Feature", "properties": {"nb_detections_cluster": 1, "frp_max": 2.29, "frp_moyen": 2.29, "derniere_detection": "2026-07-30T02:15:00", "fetch_timestamp": "2026-07-30T02:15:00"}, "geometry": {"type": "Polygon", "coordinates": [[[-0.943102965048988, 44.758067375833235], [-0.943102596561746, 44.757758144515066], [-0.943144769740887, 44.75745037652138], [-0.943229077749659, 44.7571470357771], [-0.943354708009446, 44.75685104352262], [-0.943520450050186, 44.75656525018441], [-0.943724707190213, 44.75629240792926], [-0.943965511932206, 44.75603514416627], [-0.944240544926223, 44.75579593625164], [-0.944547157316627, 44.75557708763932], [-0.944882396257295, 44.75538070570711], [-0.945243033349183, 44.75520868147114], [-0.945625595726376, 44.75506267138405], [-0.946026399491443, 44.754944081391336], [-0.946441585178501, 44.75485405339955], [-0.946867154903014, 44.754793454285945], [-0.947299010841303, 44.754762867555584], [-0.947732994670022, 44.75476258772532], [-0.948164927586759, 44.754792617489635], [-0.94859065052732, 44.75485266769459], [-0.949006064193437, 44.75494216012065], [-0.949407168506418, 44.75506023304756], [-0.949790101107729, 44.755205749547706], [-0.950151174536581, 44.75537730842862], [-0.950486911727234, 44.755573257718964], [-0.950794079484707, 44.75579171056894], [-0.951069719616918, 44.75603056341222], [-0.951311177423638, 44.75628751621452], [-0.951516127267897, 44.756560094614755], [-0.951682594983355, 44.75684567374537], [-0.951808976901494, 44.75714150350316], [-0.951894055314775, 44.75744473502737], [-0.951937010226134, 44.75775244813027], [-0.951937427270807, 44.758061679416514], [-0.951895301733226, 44.75836945082027], [-0.951811038619303, 44.75867279828555], [-0.95168544878237, 44.75896880031371], [-0.951519741139063, 44.759254606102665], [-0.951315511049175, 44.759527463007146], [-0.951074724970503, 44.759784743055086], [-0.950799701535768, 44.76002396826446], [-0.950493089233252, 44.76024283451671], [-0.950157840905696, 44.76043923375614], [-0.949797185312881, 44.760611274301496], [-0.9494145960317, 44.7607572990734], [-0.94901375799349, 44.760875901562], [-0.948598531981231, 44.760965939380554], [-0.948172917429133, 44.76102654527413], [-0.947741013883577, 44.76105713547722], [-0.947306981497427, 44.7610574153394], [-0.946875000939129, 44.76102738216503], [-0.946449233103721, 44.76096732523905], [-0.946033779014747, 44.760877823039316], [-0.945632640304333, 44.760759737661694], [-0.945249680652884, 44.760614206512194], [-0.944888588560711, 44.760442631346336], [-0.944552841810776, 44.76024666476124], [-0.944245673965417, 44.76002819427133], [-0.943970043220093, 44.759789324120845], [-0.9437286039143, 44.75953235500914], [-0.94352368097403, 44.75925976192411], [-0.943357247531716, 44.75897417029761], [-0.943230905938778, 44.758678330713046], [-0.94314587235308, 44.75837509240885], [-0.943102965048988, 44.758067375833235]]]}}, {"type": "Feature", "properties": {"nb_detections_cluster": 1, "frp_max": 5.08, "frp_moyen": 5.08, "derniere_detection": "2026-07-29T12:19:00", "fetch_timestamp": "2026-07-30T02:15:00"}, "geometry": {"type": "Polygon", "coordinates": [[[-0.882171303773632, 44.77706494834355], [-0.882171270178092, 44.77675571487103], [-0.88221379101702, 44.77644796812138], [-0.882298456105257, 44.77614467181451], [-0.882424449425293, 44.775848746762485], [-0.882590557010801, 44.77556304274428], [-0.882795178660149, 44.77529031106619], [-0.883036343366225, 44.775033178072185], [-0.883311728313252, 44.77479411985892], [-0.883618681257058, 44.774575438438525], [-0.883954246072887, 44.774379239578685], [-0.884315191224485, 44.77420741253252], [-0.884698040880333, 44.77406161185371], [-0.885099108377512, 44.773943241471294], [-0.885514531711349, 44.77385344117712], [-0.885940310709634, 44.77379307565594], [-0.886372345534115, 44.77376272616346], [-0.886806476139353, 44.77376268493228], [-0.887238522309869, 44.77379295235939], [-0.887664323891027, 44.77385323700243], [-0.888079780827233, 44.77394295838443], [-0.888480892622874, 44.77406125258054], [-0.888863796846926, 44.77420698053248], [-0.889224806311255, 44.77437873901159], [-0.88956044456532, 44.77457487412443], [-0.889867479365986, 44.77479349723178], [-0.89014295380054, 44.77503250312758], [-0.890384214763363, 44.77528959030353], [-0.890588938512019, 44.775562283104314], [-0.890755153056433, 44.77584795556041], [-0.890881257165165, 44.77614385666958], [-0.89096603580514, 44.77644713688356], [-0.891008671865424, 44.776754875545436], [-0.891008754051287, 44.77706410901326], [-0.890966280871559, 44.77737185919978], [-0.890881660679884, 44.777675162253026], [-0.890755707768424, 44.77797109710165], [-0.890589634550625, 44.77825681359023], [-0.890385039907389, 44.778529559933226], [-0.890143893807996, 44.778786709223105], [-0.889868518353179, 44.77902578473699], [-0.88956156542233, 44.77924448379784], [-0.88922599113971, 44.779440699960105], [-0.888865027405372, 44.779612543305745], [-0.888482150764962, 44.77975835865468], [-0.8880810489184, 44.779876741514144], [-0.887665585190387, 44.77996655161274], [-0.887239761305457, 44.780026923889], [-0.88680767882683, 44.78005727682756], [-0.88637349963127, 44.78005731806347], [-0.885941405801552, 44.78002704719947], [-0.885515559323833, 44.779966755810065], [-0.88510006197905, 44.77987702463144], [-0.8846989158157, 44.77975871796497], [-0.884315984585538, 44.779612975348115], [-0.883954956514525, 44.77944120057314], [-0.883619308768251, 44.77924504815969], [-0.883312273954627, 44.779026407411855], [-0.883036808986865, 44.778787384213636], [-0.88279556660678, 44.77853028073821], [-0.882590869842688, 44.7782575732673], [-0.882424689647656, 44.777971888334186], [-0.882298625933101, 44.77767597742057], [-0.882213892179772, 44.77737269045152], [-0.882171303773632, 44.77706494834355]]]}}, {"type": "Feature", "properties": {"nb_detections_cluster": 2, "frp_max": 1.9, "frp_moyen": 1.71, "derniere_detection": "2026-07-29T02:34:00", "fetch_timestamp": "2026-07-30T02:15:00"}, "geometry": {"type": "Polygon", "coordinates": [[[-0.896985652444186, 44.84942554268649], [-0.896985537247761, 44.849116301740196], [-0.897028031697492, 44.848808541864], [-0.897112725860544, 44.84850522690436], [-0.897238803437632, 44.848209277853044], [-0.897405049649342, 44.84792354472021], [-0.897609862957534, 44.84765077909257], [-0.897851270508095, 44.8473936076411], [-0.898126947145591, 44.84715450683284], [-0.898434237816101, 44.846935779090124], [-0.898770183142109, 44.846739530626664], [-0.899131547922938, 44.846567651173295], [-0.899514852286256, 44.846421795788345], [-0.899916405190842, 44.846303368927614], [-0.900332339958377, 44.846213510926795], [-0.900758651492615, 44.84615308702624], [-0.901191234828259, 44.846122679043845], [-0.901625924639124, 44.84612257977537], [-0.902058535326079, 44.846152790176646], [-0.902484901299704, 44.84621301935439], [-0.902900917070767, 44.84630268736577], [-0.903302576763413, 44.846420930799816], [-0.903686012671533, 44.8465666110871], [-0.904047532487809, 44.84673832545794], [-0.904383654847661, 44.84693442044369], [-0.904691142846365, 44.84715300779155], [-0.904967035206926, 44.84739198263991], [-0.905208674798776, 44.847649043779526], [-0.905413734232627, 44.847921715805846], [-0.905580238284793, 44.84820737294955], [-0.905706582934626, 44.84850326435591], [-0.905791550831155, 44.84880654057025], [-0.905834323039237, 44.84911428097416], [-0.905834486951247, 44.849423521909145], [-0.905792040287145, 44.84973128521608], [-0.905707391143393, 44.85003460691673], [-0.905581354089211, 44.85033056576024], [-0.905415142346738, 44.85061631136017], [-0.905210356129482, 44.850889091650664], [-0.904968967250465, 44.85114627939729], [-0.904693300147584, 44.8513853975068], [-0.904386009508352, 44.85160414289196], [-0.904050054709081, 44.85180040866105], [-0.903688671314503, 44.85197230441825], [-0.903305339912263, 44.85211817447864], [-0.902903752582674, 44.85223661382246], [-0.902487777326988, 44.852326481634336], [-0.902061420797388, 44.852386912296815], [-0.901628789688318, 44.85241732373219], [-0.901194051161869, 44.852417423012], [-0.900761392689284, 44.85238720917996], [-0.900334981696357, 44.8523269732612], [-0.899918925402389, 44.85223729545762], [-0.899517231240506, 44.852119039556506], [-0.89913376824145, 44.85197334460638], [-0.898772229753632, 44.85180161394038], [-0.898436097859164, 44.85160550165339], [-0.898128609829182, 44.85138689666309], [-0.897852726941883, 44.85114790450906], [-0.897611105963783, 44.850890827065626], [-0.897406073568853, 44.85061814036385], [-0.897239603941691, 44.85033247073706], [-0.897113299780009, 44.850036569519666], [-0.897028376878842, 44.84973328654341], [-0.896985652444186, 44.84942554268649]]]}}, {"type": "Feature", "properties": {"nb_detections_cluster": 17, "frp_max": 4.24, "frp_moyen": 2.57, "derniere_detection": "2026-07-29T02:34:00", "fetch_timestamp": "2026-07-30T02:15:00"}, "geometry": {"type": "Polygon", "coordinates": [[[-0.856984950688429, 44.85693394868496], [-0.856985055722374, 44.856624706987596], [-0.857027775036127, 44.85631696171849], [-0.857112696531243, 44.8560136765831], [-0.857239001719203, 44.85571777228577], [-0.857405473628815, 44.85543209840542], [-0.857610508548714, 44.85515940595794], [-0.857852131491035, 44.85490232090943], [-0.858128015226586, 44.85466331889466], [-0.858435502707639, 44.85444470138453], [-0.858771632661996, 44.854248573531144], [-0.859133168111642, 44.85407682390383], [-0.859516627541338, 44.85393110631072], [-0.859918318417185, 44.853812823880716], [-0.860334372732761, 44.85372311555876], [-0.860760784241059, 44.853662845143965], [-0.86119344701442, 44.853632592976275], [-0.861628194961952, 44.853632650351116], [-0.862060841924826, 44.85366301671604], [-0.862487221964311, 44.85372339967599], [-0.862903229455614, 44.85381321780738], [-0.86330485860238, 44.85393160625368], [-0.863688241992303, 44.85407742504911], [-0.864049687823356, 44.85424927009024], [-0.864385715442896, 44.85444548665012], [-0.864693088857938, 44.85466418530515], [-0.86496884789428, 44.85490326012178], [-0.865210336704604, 44.85516040892795], [-0.865415229351005, 44.855433155474756], [-0.865581552215352, 44.85571887327506], [-0.865707703021303, 44.8560148108898], [-0.865792466284156, 44.85631811841907], [-0.86583502503906, 44.85662587494269], [-0.865834968733733, 44.85693511664656], [-0.865792297208766, 44.85724286536403], [-0.865707420726105, 44.85754615725699], [-0.865581156044466, 44.8578420713615], [-0.865414718578405, 44.85812775772173], [-0.865209710715641, 44.858400464842155], [-0.86496810640425, 44.85865756619287], [-0.864692232157445, 44.858896585512554], [-0.86438474465831, 44.85911522066532], [-0.864048605179735, 44.859311365821085], [-0.863687051065748, 44.85948313174559], [-0.863303564548847, 44.859628864004385], [-0.862901839203874, 44.85974715890499], [-0.862485744361885, 44.85983687702322], [-0.862059287827294, 44.85989715418352], [-0.861626577258092, 44.8599274097867], [-0.861191780581939, 44.859927352405315], [-0.860759085830278, 44.85989698259206], [-0.860332660778338, 44.8598365928745], [-0.859916612780716, 44.859746764935956], [-0.859514949190398, 44.85962836400979], [-0.85913153874334, 44.85948253054139], [-0.858770074281357, 44.85931066919807], [-0.85843403717307, 44.859114435333275], [-0.858126663776111, 44.858895719035594], [-0.857850914263987, 44.85865662691659], [-0.857609444118005, 44.858399461813256], [-0.85740457855881, 44.85812670060075], [-0.857238290163587, 44.85784097032984], [-0.857112179884049, 44.85754502291881], [-0.857027461647491, 44.85724170864405], [-0.856984950688429, 44.85693394868496]]]}}, {"type": "Feature", "properties": {"nb_detections_cluster": 4, "frp_max": 2.4, "frp_moyen": 2.15, "derniere_detection": "2026-07-29T02:34:00", "fetch_timestamp": "2026-07-30T02:15:00"}, "geometry": {"type": "Polygon", "coordinates": [[[-0.889544139547626, 44.86836524705201], [-0.889544065294011, 44.86805600421937], [-0.889586614861366, 44.86774824532187], [-0.889671377785602, 44.86744493419646], [-0.88979753710484, 44.867148991797954], [-0.889963877252125, 44.86686326807237], [-0.890168795784424, 44.86659051451583], [-0.890410318834106, 44.866333357683004], [-0.89068612013336, 44.866094273900075], [-0.890993543427736, 44.86587556542548], [-0.891329628062615, 44.865679338287336], [-0.891691137495918, 44.86550748201108], [-0.892074590462534, 44.86536165143185], [-0.892476294490485, 44.865243250766554], [-0.892892381446479, 44.86515342009867], [-0.893318844769078, 44.86509302440537], [-0.893751578031669, 44.8650626452329], [-0.894186414464677, 44.865062575099614], [-0.894619167057395, 44.86509281468084], [-0.895045668854209, 44.865153072802315], [-0.895461813058223, 44.86524276924247], [-0.895863592557024, 44.865361040316614], [-0.896247138490944, 44.86550674718918], [-0.89660875749321, 44.865678486834476], [-0.896944967244086, 44.865874605540476], [-0.897252529997188, 44.866093214825995], [-0.897528483755464, 44.86633220961811], [-0.897770170796829, 44.86658928851551], [-0.89797526327473, 44.86686197594264], [-0.898141785646871, 44.86714764598181], [-0.898268133715751, 44.86744354765411], [-0.898353090097, 44.86774683140591], [-0.898395835965889, 44.86805457654626], [-0.898395958967961, 44.8683638193709], [-0.898353457216691, 44.86867158170252], [-0.898268739338619, 44.86897489957221], [-0.898142620564528, 44.86927085176596], [-0.897976314903243, 44.869556587961334], [-0.897771423472523, 44.86982935618302], [-0.897529919098497, 44.870086529312765], [-0.897254127331284, 44.870325630398064], [-0.89694670405902, 44.87054435651562], [-0.896610609935477, 44.870740600959294], [-0.896249081867376, 44.870912473538596], [-0.895865601835955, 44.87105831879184], [-0.895463863353274, 44.87117673193824], [-0.895047735876704, 44.87126657241468], [-0.894621227524863, 44.87132697486704], [-0.894188446454816, 44.87135735748932], [-0.89375356127335, 44.871357427630606], [-0.893320760864549, 44.87132718461527], [-0.892894214021569, 44.87126691974953], [-0.892478029272408, 44.871177213514116], [-0.892076215287607, 44.8710589299702], [-0.891692642252108, 44.87091320843248], [-0.891331004574186, 44.87074145249028], [-0.890994785291269, 44.87054531648187], [-0.890687222516054, 44.8703266895534], [-0.890411278246444, 44.87008767745579], [-0.890169609839876, 44.86983058225536], [-0.889964544426783, 44.86955788015418], [-0.88979805650937, 44.869272197633904], [-0.889671748961067, 44.86897628615305], [-0.889586837609058, 44.86867299564217], [-0.889544139547626, 44.86836524705201]]]}}, {"type": "Feature", "properties": {"nb_detections_cluster": 8, "frp_max": 9.81, "frp_moyen": 5.16, "derniere_detection": "2026-07-29T02:34:00", "fetch_timestamp": "2026-07-30T02:15:00"}, "geometry": {"type": "Polygon", "coordinates": [[[-0.874204038128797, 44.869114635647755], [-0.874204048355845, 44.86880539273697], [-0.874246682565592, 44.86849763965018], [-0.874331529478831, 44.86819434016827], [-0.874457771324912, 44.86789841513386], [-0.874624191742237, 44.86761271432562], [-0.874829187514906, 44.867339989018895], [-0.87507078403164, 44.86708286549625], [-0.875346654317343, 44.86684381976307], [-0.875654141453454, 44.86662515371126], [-0.875990284170793, 44.86642897296045], [-0.876351845368189, 44.8662571665893], [-0.876735343282272, 44.86611138895244], [-0.877137085008431, 44.86599304375692], [-0.877553202050529, 44.8659032705521], [-0.877979687557549, 44.86584293376183], [-0.878412434889349, 44.865812614365176], [-0.878847277140934, 44.86581260430492], [-0.879280027245577, 44.865842903677944], [-0.879706518271594, 44.86590322073425], [-0.880122643525729, 44.86599297468482], [-0.880524396077932, 44.866111301291134], [-0.880907907327865, 44.866257061182935], [-0.881269484242563, 44.866428850823965], [-0.881605644907375, 44.86662501602078], [-0.881913152048376, 44.86684366784441], [-0.882189044203818, 44.86708270081231], [-0.882430664244612, 44.867339813155525], [-0.882635684969201, 44.86761252897634], [-0.882802131526073, 44.86789822208353], [-0.882928400447663, 44.868194141276], [-0.883013275111667, 44.8684974368313], [-0.883055937480215, 44.8688051879447], [-0.883055976002933, 44.86911443085433], [-0.883013389606858, 44.86942218738196], [-0.882928587733742, 44.86972549361449], [-0.882802386423371, 44.87002142844987], [-0.882636000479579, 44.87030714173278], [-0.882431031793466, 44.87057988170846], [-0.882189453935389, 44.87083702153065], [-0.881913593163405, 44.8710760845676], [-0.881606106030467, 44.871294768262366], [-0.881269953805631, 44.87149096631738], [-0.880908373955438, 44.87166278898896], [-0.880524848960075, 44.87180858129606], [-0.880123072764868, 44.871926938967846], [-0.879706915190586, 44.87201672197555], [-0.879280384645869, 44.87207706551856], [-0.878847589501635, 44.87210738835832], [-0.878412698500285, 44.87210739841973], [-0.877979900581971, 44.872077095605846], [-0.877553364515829, 44.87201677179893], [-0.877137198725983, 44.871927008047386], [-0.876735411700249, 44.87180866896641], [-0.87635187336376, 44.87166289440564], [-0.875990277790403, 44.87149108846508], [-0.875654107611873, 44.87129490596451], [-0.8753466004677, 44.8710762364979], [-0.875070717819755, 44.87083718622577], [-0.874829116431757, 44.87058005758214], [-0.87462412278845, 44.8703073270911], [-0.874457710700624, 44.87002162150762], [-0.87433148231122, 44.869725692512276], [-0.874246652684913, 44.86942239020426], [-0.874204038128797, 44.869114635647755]]]}}, {"type": "Feature", "properties": {"nb_detections_cluster": 1, "frp_max": 0.99, "frp_moyen": 0.99, "derniere_detection": "2026-07-30T02:15:00", "fetch_timestamp": "2026-07-30T02:15:00"}, "geometry": {"type": "Polygon", "coordinates": [[[-0.964544058724119, 44.87204823658576], [-0.96454357140144, 44.87173899358098], [-0.964585712662911, 44.871431205722345], [-0.964670075976304, 44.8711278371262], [-0.964795848227617, 44.87083180930125], [-0.964961817576755, 44.87054597301665], [-0.965166385150664, 44.870273080852854], [-0.96540758046048, 44.87001576069966], [-0.965683080393433, 44.869776490456324], [-0.965990231596076, 44.86955757417702], [-0.966326076032846, 44.86936111989121], [-0.966687379473614, 44.86918901931177], [-0.967070662635891, 44.869042929626424], [-0.96747223468195, 44.86892425754716], [-0.967888228748677, 44.86883414577094], [-0.968314639168544, 44.86877346198181], [-0.968747360023991, 44.86874279050006], [-0.969182224664762, 44.86874242665867], [-0.969615045808579, 44.868772373961065], [-0.970041655839997, 44.86883234404729], [-0.970457946920353, 44.86892175946931], [-0.970859910523551, 44.86903975924836], [-0.971243676017902, 44.869185207161244], [-0.971605547923306, 44.869356702675965], [-0.971942041485699, 44.8695525944314], [-0.972249916226758, 44.8697709961319], [-0.972526207146153, 44.87000980470375], [-0.972768253276044, 44.87026672053912], [-0.972973723312855, 44.87053926963302], [-0.973140638079254, 44.870824827400234], [-0.973267389599642, 44.87112064394344], [-0.973352756604861, 44.871423870529256], [-0.973395916316075, 44.87173158701773], [-0.973396452393473, 44.87204082998099], [-0.973354358972294, 44.87234862124088], [-0.973270040746293, 44.87265199655037], [-0.973144309096788, 44.872948034142716], [-0.97297837430357, 44.87323388287344], [-0.972773833911727, 44.873506789683816], [-0.972532657365534, 44.87376412612115], [-0.972257167056681, 44.874003413660404], [-0.97195001596877, 44.8742223475827], [-0.971614162132953, 44.87441881918062], [-0.971252840140561, 44.87459093607597], [-0.97086952998701, 44.874737040454015], [-0.970467923547288, 44.874855725038124], [-0.970051889006236, 44.874945846650796], [-0.969625433586788, 44.87500653722999], [-0.969192664935813, 44.875037212194435], [-0.968757751540325, 44.87503757607733], [-0.968324882556214, 44.875007625373684], [-0.967898227437403, 44.874947648574135], [-0.967481895755238, 44.87485822338469], [-0.967079897596122, 44.87474021115952], [-0.966696104919704, 44.874594748600046], [-0.966334214250679, 44.87442323680122], [-0.965997711064186, 44.874227327749864], [-0.965689836208395, 44.874008908406346], [-0.965413554688046, 44.8737700825224], [-0.96517152710978, 44.87351315037112], [-0.964966084064242, 44.873240586584515], [-0.964799203691508, 44.87295501631247], [-0.964672492645445, 44.872659189932804], [-0.964587170639805, 44.87235595655693], [-0.964544058724119, 44.87204823658576]]]}}, {"type": "Feature", "properties": {"nb_detections_cluster": 2, "frp_max": 1.52, "frp_moyen": 1.25, "derniere_detection": "2026-07-29T02:34:00", "fetch_timestamp": "2026-07-30T02:15:00"}, "geometry": {"type": "Polygon", "coordinates": [[[-0.910401205787579, 44.906296080296194], [-0.910401016542756, 44.90598683382157], [-0.910443480481455, 44.90567906329214], [-0.910528187963238, 44.90537573265702], [-0.910654322559145, 44.905079763059014], [-0.910820668939326, 44.90479400470621], [-0.911025624599787, 44.904521209428275], [-0.911267215314499, 44.904264004181734], [-0.911543114163288, 44.904024865759084], [-0.911850663951706, 44.90380609694497], [-0.912186902806549, 44.903609804348584], [-0.912548592700342, 44.90343787812575], [-0.912932250630056, 44.90329197378514], [-0.913334182150028, 44.90317349625396], [-0.913750516936497, 44.90308358635583], [-0.91417724604187, 44.903023109830826], [-0.914610260480632, 44.90299264900352], [-0.915045390776185, 44.90299249717853], [-0.915478447088715, 44.90302265581777], [-0.915905259538623, 44.90308283452635], [-0.916321718338274, 44.9031724538474], [-0.91672381334652, 44.90329065083879], [-0.917107672666102, 44.90343628737838], [-0.917469599913004, 44.903607961117714], [-0.917806109799634, 44.903804018979486], [-0.918113961689688, 44.90402257306839], [-0.918390190801935, 44.904261518843136], [-0.918632136762664, 44.90451855537454], [-0.918837469231767, 44.90479120749508], [-0.919004210355484, 44.90507684962719], [-0.919130753829205, 44.905372731060815], [-0.919215880386128, 44.90567600243739], [-0.9192587695619, 44.90598374318522], [-0.919259007621087, 44.90629298964251], [-0.919216591568147, 44.90660076359712], [-0.919131929203299, 44.906904100968305], [-0.919005835221682, 44.90720008035437], [-0.918839523392362, 44.90748585117112], [-0.918634594891564, 44.90775866110985], [-0.918393022901586, 44.9080158826507], [-0.918117133623019, 44.90825503837491], [-0.917809583882536, 44.90847382483302], [-0.917473335551494, 44.90867013473774], [-0.917111627021539, 44.90884207726814], [-0.916727942011873, 44.908987996288815], [-0.916325976008829, 44.90910648630842], [-0.915909600661331, 44.90919640602344], [-0.91548282647571, 44.90925688931651], [-0.91504976416989, 44.90928735360297], [-0.914614585059973, 44.909287505445285], [-0.914181480861683, 44.90925734338088], [-0.913754623294841, 44.90919715793624], [-0.9133381238809, 44.90910752882713], [-0.912935994321791, 44.90898931937177], [-0.912552107842548, 44.908843668171386], [-0.912190161870912, 44.908671978137754], [-0.91185364241406, 44.908475902974416], [-0.911545790476073, 44.90825733124152], [-0.911269570840023, 44.90801836815843], [-0.911027643515457, 44.90776131531948], [-0.910822338126306, 44.90748864851887], [-0.910655631485662, 44.90720299389834], [-0.910529128572969, 44.90690710264782], [-0.910444047096295, 44.90660382450319], [-0.910401205787579, 44.906296080296194]]]}}]}