{"type": "FeatureCollection", "name": "zone_active", "crs": {"type": "name", "properties": {"name": "urn:ogc:def:crs:OGC:1.3:CRS84"}}, "features": [{"type": "Feature", "properties": {"nb_detections_cluster": 1, "frp_max": 7.31, "frp_moyen": 7.31, "derniere_detection": "2026-07-31T13:04:00", "fetch_timestamp": "2026-07-31T13:04:00"}, "geometry": {"type": "Polygon", "coordinates": [[[-1.212372912881505, 44.76865810757804], [-1.212371064043917, 44.76834887780973], [-1.212411771655795, 44.768041007999095], [-1.212494642993439, 44.767737463053315], [-1.212618879312113, 44.767441166180966], [-1.21278328356332, 44.767154970743555], [-1.212986271945496, 44.766881632781576], [-1.213225889176053, 44.76662378447904], [-1.213499827336936, 44.76638390882219], [-1.213805448111622, 44.76616431569608], [-1.214139808199022, 44.765967119648586], [-1.214499687659296, 44.76579421953589], [-1.21488162091862, 44.76564728024509], [-1.215281930134478, 44.765527716669546], [-1.215696760600564, 44.765436680090666], [-1.216122117850861, 44.76537504709756], [-1.216553906106328, 44.76534341115043], [-1.216987967694745, 44.765342076869054], [-1.217420123065069, 44.765371057101085], [-1.21784621101192, 44.76543007279844], [-1.218262128723867, 44.76551855570286], [-1.218663871270826, 44.76563565381492], [-1.219047570151264, 44.76578023959375], [-1.219409530528802, 44.76595092080928], [-1.219746266800398, 44.76614605394191], [-1.2200545361541, 44.766363760001546], [-1.220331369793622, 44.76660194261381], [-1.22057410152924, 44.766858308199495], [-1.220780393459667, 44.767130388053374], [-1.220948258497375, 44.76741556211011], [-1.221076079520076, 44.76771108416882], [-1.22116262496332, 44.768014108333496], [-1.22120706070335, 44.76832171641498], [-1.221208958114907, 44.76863094603107], [-1.221168298225446, 44.768938819133695], [-1.221085471924724, 44.7692423706892], [-1.22096127622673, 44.769538677235005], [-1.220796906618933, 44.76982488503784], [-1.22059394557157, 44.77009823758202], [-1.220354347316767, 44.77035610212317], [-1.220080419043351, 44.77059599505097], [-1.219774798687877, 44.77081560581665], [-1.219440429535321, 44.77101281919449], [-1.219080531873895, 44.77118573566231], [-1.218698571976882, 44.771332689704444], [-1.218298228710466, 44.771452265860724], [-1.217883358089502, 44.77154331236621], [-1.217457956123134, 44.77160495225034], [-1.217026120308817, 44.77163659178811], [-1.21659201014643, 44.77163792622172], [-1.216159807053688, 44.771608942697696], [-1.215733674069917, 44.77154992039061], [-1.215317715737289, 44.77146142781274], [-1.214915938546919, 44.77134431733527], [-1.21453221233167, 44.77119971697421], [-1.214170232978377, 44.77102901952007], [-1.213833486819315, 44.7708338691165], [-1.213525217046401, 44.77061614541727], [-1.213248392472036, 44.77037794547466], [-1.21300567893757, 44.77012156353387], [-1.212799413644833, 44.76984946892863], [-1.212631582657681, 44.76956428229117], [-1.212503801789858, 44.769268750305855], [-1.212417301062685, 44.768965719250154], [-1.212372912881505, 44.76865810757804]]]}}, {"type": "Feature", "properties": {"nb_detections_cluster": 3, "frp_max": 2.8, "frp_moyen": 1.6, "derniere_detection": "2026-07-31T01:37:00", "fetch_timestamp": "2026-07-31T13:04:00"}, "geometry": {"type": "Polygon", "coordinates": [[[-1.20988, 44.77258], [-1.2033, 44.76987], [-1.20414, 44.76955], [-1.20988, 44.77258]]]}}, {"type": "Feature", "properties": {"nb_detections_cluster": 3, "frp_max": 7.36, "frp_moyen": 6.36, "derniere_detection": "2026-07-30T13:42:00", "fetch_timestamp": "2026-07-31T13:04:00"}, "geometry": {"type": "Polygon", "coordinates": [[[-1.164601706843037, 44.84570338600371], [-1.164477468905591, 44.84587020401818], [-1.164237289914509, 44.84612795375812], [-1.163962752555282, 44.84636771404961], [-1.163656500630884, 44.846587175621174], [-1.163321483509626, 44.84678422468385], [-1.162960927721346, 44.84695696329795], [-1.162578305879076, 44.84710372766074], [-1.162177303225769, 44.84722310413895], [-1.161761782128566, 44.84731394289087], [-1.161335744863176, 44.84737536894699], [-1.160903295047459, 44.84740679064193], [-1.160468598096515, 44.847407905316174], [-1.160035841081047, 44.84737870223301], [-1.15960919237663, 44.847319462681845], [-1.159192761493486, 44.847230757267496], [-1.15879055947468, 44.8471134404112], [-1.158406460245051, 44.846968642116764], [-1.158044163284008, 44.84679775708115], [-1.157707157982377, 44.84660243125465], [-1.157398690027172, 44.84638454598062], [-1.157121730138412, 44.846146199867356], [-1.15687894545927, 44.84588968856775], [-1.156672673875105, 44.84561748266127], [-1.156504901508492, 44.845332203851775], [-1.156377243606596, 44.84503659971113], [-1.156290929004386, 44.8447335172114], [-1.156246788312594, 44.84442587530167], [-1.156245245943306, 44.84411663679302], [-1.15628631604905, 44.84380877982313], [-1.156369602413437, 44.843505269175154], [-1.156494302293423, 44.84320902772698], [-1.156659214175133, 44.842922908306114], [-1.156862749367595, 44.84264966622062], [-1.157102947321902, 44.84239193273097], [-1.157377494527493, 44.842152189717524], [-1.157683746803004, 44.84193274578781], [-1.158018754766626, 44.84173571405281], [-1.15837929224045, 44.84156299178634], [-1.158761887315254, 44.841416242162865], [-1.159162855776746, 44.84129687824925], [-1.159578336571756, 44.841206049404356], [-1.160004328973367, 44.84114463021698], [-1.160436731087807, 44.84111321208854], [-1.160871379333111, 44.84111209754145], [-1.161304088510306, 44.84114129730761], [-1.161730692082214, 44.841200530225], [-1.162147082273031, 44.841289225943825], [-1.162549249603476, 44.84140653041539], [-1.162933321481763, 44.841551314111804], [-1.16329559947958, 44.84172218289717], [-1.163632594934848, 44.84191749144559], [-1.163941062538942, 44.84213535907779], [-1.164198335715251, 44.84235673987509], [-1.164322566711552, 44.84218992236376], [-1.164562728475171, 44.84193217276952], [-1.164837241597944, 44.84169241134005], [-1.165143462226615, 44.84147294686019], [-1.165478441284022, 44.84127589263888], [-1.165838952870504, 44.841103146166446], [-1.166221525326021, 44.84095637085048], [-1.166622474654001, 44.84083698000525], [-1.167037939985438, 44.84074612324893], [-1.167463920742252, 44.84068467543904], [-1.167896315142757, 44.840653228252705], [-1.168330959679238, 44.84065208449209], [-1.168763669188428, 44.84068125517036], [-1.169190277129966, 44.84074045940562], [-1.169606675686003, 44.840829127124216], [-1.170008855296761, 44.840946404547104], [-1.17039294325227, 44.841091162406855], [-1.170755240969495, 44.84126200681632], [-1.171092259596561, 44.841457292684396], [-1.171400753601815, 44.84167513955018], [-1.171677752024606, 44.84191344968329], [-1.171920587087058, 44.842169928276356], [-1.172126919891287, 44.84244210553578], [-1.172294762954377, 44.842727360458], [-1.172422499363736, 44.843022946063144], [-1.172508898367746, 44.84332601584297], [-1.172553127250879, 44.84363365116878], [-1.172554759378009, 44.84394288939562], [-1.17251377832954, 44.844250752392256], [-1.172430578086481, 44.84455427522202], [-1.17230595926268, 44.844850534698686], [-1.172141121419439, 44.845136677541966], [-1.171937651535625, 44.84540994786157], [-1.171697508743398, 44.845667713704785], [-1.171423005475841, 44.845907492411605], [-1.171116785207478, 44.84612697453328], [-1.170781797001626, 44.84632404608289], [-1.170421267109515, 44.84649680890418], [-1.17003866789466, 44.84664359896129], [-1.16963768438198, 44.84676300237345], [-1.169222178754179, 44.846853869039556], [-1.168796153137902, 44.84691532372122], [-1.168363711038764, 44.84694677447731], [-1.167929017797507, 44.84694791836844], [-1.167496260449099, 44.846918744376445], [-1.167069607372333, 44.84685953351053], [-1.166653168119578, 44.84677085609917], [-1.166250953814567, 44.846653566293924], [-1.165866838500548, 44.846508793838055], [-1.165504521811932, 44.84633793317962], [-1.165167493329651, 44.84614263003418], [-1.16485899896409, 44.84592476552658], [-1.164601706843037, 44.84570338600371]]]}}]}